"Longitude (x)","Latitude (y)","Station Name","Climate ID","Date/Time (LST)","Year","Month","Day","Time (LST)","Temp (°C)","Temp Flag","Dew Point Temp (°C)","Dew Point Temp Flag","Rel Hum (%)","Rel Hum Flag","Precip. Amount (mm)","Precip. Amount Flag","Wind Dir (10s deg)","Wind Dir Flag","Wind Spd (km/h)","Wind Spd Flag","Visibility (km)","Visibility Flag","Stn Press (kPa)","Stn Press Flag","Hmdx","Hmdx Flag","Wind Chill","Wind Chill Flag","Weather"
"-74.04","45.68","MONTREAL MIRABEL INTL A","7034900","2015-05-01 00:00","2015","05","01","00:00","10.4","","5.2","","70","","","","4","","5","","40.2","","100.49","","","","","","NA"
"-74.04","45.68","MONTREAL MIRABEL INTL A","7034900","2015-05-01 01:00","2015","05","01","01:00","9.9","","4.7","","70","","","","4","","7","","40.2","","100.48","","","","","","Mostly Cloudy"
"-74.04","45.68","MONTREAL MIRABEL INTL A","7034900","2015-05-01 02:00","2015","05","01","02:00","9.3","","4.3","","71","","","","2","","9","","40.2","","100.47","","","","","","NA"
"-74.04","45.68","MONTREAL MIRABEL INTL A","7034900","2015-05-01 03:00","2015","05","01","03:00","9.1","","4.4","","72","","","","4","","5","","40.2","","100.48","","","","","","NA"
"-74.04","45.68","MONTREAL MIRABEL INTL A","7034900","2015-05-01 04:00","2015","05","01","04:00","8.6","","4.4","","75","","","","5","","8","","40.2","","100.51","","","","","","Mostly Cloudy"
"-74.04","45.68","MONTREAL MIRABEL INTL A","7034900","2015-05-01 05:00","2015","05","01","05:00","8.4","","4.3","","75","","","","4","","3","","72.4","","100.57","","","","","","NA"
"-74.04","45.68","MONTREAL MIRABEL INTL A","7034900","2015-05-01 06:00","2015","05","01","06:00","8.7","","4.2","","73","","","","5","","10","","72.4","","100.62","","","","","","NA"
"-74.04","45.68","MONTREAL MIRABEL INTL A","7034900","2015-05-01 07:00","2015","05","01","07:00","9.3","","4.3","","71","","","","6","","12","","72.4","","100.67","","","","","","Mostly Cloudy"
"-74.04","45.68","MONTREAL MIRABEL INTL A","7034900","2015-05-01 08:00","2015","05","01","08:00","10.2","","4.4","","67","","","","3","","12","","72.4","","100.68","","","","","","NA"
"-74.04","45.68","MONTREAL MIRABEL INTL A","7034900","2015-05-01 09:00","2015","05","01","09:00","12.2","","4.2","","58","","","","7","","14","","72.4","","100.67","","","","","","NA"
"-74.04","45.68","MONTREAL MIRABEL INTL A","7034900","2015-05-01 10:00","2015","05","01","10:00","13.9","","5.1","","55","","","","9","","8","","72.4","","100.65","","","","","","Mostly Cloudy"
"-74.04","45.68","MONTREAL MIRABEL INTL A","7034900","2015-05-01 11:00","2015","05","01","11:00","15.9","","5.0","","48","","","","7","","13","","72.4","","100.59","","","","","","NA"
"-74.04","45.68","MONTREAL MIRABEL INTL A","7034900","2015-05-01 12:00","2015","05","01","12:00","17.2","","4.3","","42","","","","7","","11","","72.4","","100.54","","","","","","NA"
"-74.04","45.68","MONTREAL MIRABEL INTL A","7034900","2015-05-01 13:00","2015","05","01","13:00","17.4","","4.1","","41","","","","3","","7","","72.4","","100.51","","","","","","Mostly Cloudy"
"-74.04","45.68","MONTREAL MIRABEL INTL A","7034900","2015-05-01 14:00","2015","05","01","14:00","18.5","","4.8","","40","","","","8","","13","","72.4","","100.47","","","","","","NA"
"-74.04","45.68","MONTREAL MIRABEL INTL A","7034900","2015-05-01 15:00","2015","05","01","15:00","19.0","","4.9","","39","","","","8","","13","","72.4","","100.41","","","","","","NA"
"-74.04","45.68","MONTREAL MIRABEL INTL A","7034900","2015-05-01 16:00","2015","05","01","16:00","18.9","","4.8","","39","","","","7","","9","","72.4","","100.38","","","","","","Mostly Cloudy"
"-74.04","45.68","MONTREAL MIRABEL INTL A","7034900","2015-05-01 17:00","2015","05","01","17:00","17.8","","4.5","","41","","","","","","0","","72.4","","100.39","","","","","","NA"
"-74.04","45.68","MONTREAL MIRABEL INTL A","7034900","2015-05-01 18:00","2015","05","01","18:00","15.9","","8.2","","60","","","","28","","12","","72.4","","100.40","","","","","","NA"
"-74.04","45.68","MONTREAL MIRABEL INTL A","7034900","2015-05-01 19:00","2015","05","01","19:00","14.7","","8.0","","64","","","","25","","3","","72.4","","100.44","","","","","","Mainly Clear"
"-74.04","45.68","MONTREAL MIRABEL INTL A","7034900","2015-05-01 20:00","2015","05","01","20:00","12.1","","7.8","","75","","","","24","","4","","40.2","","100.46","","","","","","NA"
"-74.04","45.68","MONTREAL MIRABEL INTL A","7034900","2015-05-01 21:00","2015","05","01","21:00","11.3","","8.5","","83","","","","29","","7","","40.2","","100.45","","","","","","NA"
"-74.04","45.68","MONTREAL MIRABEL INTL A","7034900","2015-05-01 22:00","2015","05","01","22:00","9.7","","7.8","","88","","","","","","0","","40.2","","100.44","","","","","","Clear"
"-74.04","45.68","MONTREAL MIRABEL INTL A","7034900","2015-05-01 23:00","2015","05","01","23:00","9.1","","7.2","","88","","","","33","","4","","40.2","","100.43","","","","","","NA"
"-74.04","45.68","MONTREAL MIRABEL INTL A","7034900","2015-05-02 00:00","2015","05","02","00:00","7.3","","6.1","","92","","","","30","","3","","40.2","","100.42","","","","","","NA"
"-74.04","45.68","MONTREAL MIRABEL INTL A","7034900","2015-05-02 01:00","2015","05","02","01:00","7.2","","6.3","","94","","","","32","","4","","40.2","","100.40","","","","","","Mostly Cloudy"
"-74.04","45.68","MONTREAL MIRABEL INTL A","7034900","2015-05-02 02:00","2015","05","02","02:00","5.9","","5.5","","97","","","","20","","6","","40.2","","100.39","","","","","","NA"
"-74.04","45.68","MONTREAL MIRABEL INTL A","7034900","2015-05-02 03:00","2015","05","02","03:00","5.8","","5.5","","98","","","","","","0","","40.2","","100.38","","","","","","NA"
"-74.04","45.68","MONTREAL MIRABEL INTL A","7034900","2015-05-02 04:00","2015","05","02","04:00","4.8","","4.7","","99","","","","","","0","","72.4","","100.36","","","","","","Mainly Clear"
"-74.04","45.68","MONTREAL MIRABEL INTL A","7034900","2015-05-02 05:00","2015","05","02","05:00","4.3","","4.2","","99","","","","","","0","","72.4","","100.41","","","","","","NA"
"-74.04","45.68","MONTREAL MIRABEL INTL A","7034900","2015-05-02 06:00","2015","05","02","06:00","6.2","","6.1","","99","","","","","","0","","72.4","","100.46","","","","","","NA"
"-74.04","45.68","MONTREAL MIRABEL INTL A","7034900","2015-05-02 07:00","2015","05","02","07:00","11.0","","8.4","","84","","","","","","0","","40.2","","100.46","","","","","","Mainly Clear"
"-74.04","45.68","MONTREAL MIRABEL INTL A","7034900","2015-05-02 08:00","2015","05","02","08:00","14.0","","7.1","","63","","","","","","0","","40.2","","100.47","","","","","","NA"
"-74.04","45.68","MONTREAL MIRABEL INTL A","7034900","2015-05-02 09:00","2015","05","02","09:00","16.5","","6.7","","52","","","","","","0","","40.2","","100.43","","","","","","NA"
"-74.04","45.68","MONTREAL MIRABEL INTL A","7034900","2015-05-02 10:00","2015","05","02","10:00","18.7","","5.7","","42","","","","16","","8","","72.4","","100.40","","","","","","Clear"
"-74.04","45.68","MONTREAL MIRABEL INTL A","7034900","2015-05-02 11:00","2015","05","02","11:00","20.7","","-1.0","","23","","","","25","","8","","72.4","","100.35","","","","","","NA"
"-74.04","45.68","MONTREAL MIRABEL INTL A","7034900","2015-05-02 12:00","2015","05","02","12:00","21.0","","-2.7","","20","","","","25","","16","","72.4","","100.31","","","","","","NA"
"-74.04","45.68","MONTREAL MIRABEL INTL A","7034900","2015-05-02 13:00","2015","05","02","13:00","22.2","","-3.9","","17","","","","30","","15","","72.4","","100.27","","","","","","Mainly Clear"
"-74.04","45.68","MONTREAL MIRABEL INTL A","7034900","2015-05-02 14:00","2015","05","02","14:00","22.7","","-4.2","","16","","","","29","","13","","72.4","","100.22","","","","","","NA"
"-74.04","45.68","MONTREAL MIRABEL INTL A","7034900","2015-05-02 15:00","2015","05","02","15:00","23.0","","-1.7","","19","","","","29","","10","","72.4","","100.17","","","","","","NA"
"-74.04","45.68","MONTREAL MIRABEL INTL A","7034900","2015-05-02 16:00","2015","05","02","16:00","23.1","","-0.2","","21","","","","29","","9","","72.4","","100.15","","","","","","Mostly Cloudy"
"-74.04","45.68","MONTREAL MIRABEL INTL A","7034900","2015-05-02 17:00","2015","05","02","17:00","22.5","","-0.7","","21","","","","30","","12","","72.4","","100.17","","","","","","NA"
"-74.04","45.68","MONTREAL MIRABEL INTL A","7034900","2015-05-02 18:00","2015","05","02","18:00","21.9","","0.0","","23","","","","32","","7","","72.4","","100.19","","","","","","NA"
"-74.04","45.68","MONTREAL MIRABEL INTL A","7034900","2015-05-02 19:00","2015","05","02","19:00","19.2","","0.4","","28","","","","","","0","","72.4","","100.22","","","","","","Mostly Cloudy"
"-74.04","45.68","MONTREAL MIRABEL INTL A","7034900","2015-05-02 20:00","2015","05","02","20:00","16.9","","0.2","","32","","","","18","","3","","40.2","","100.27","","","","","","NA"
"-74.04","45.68","MONTREAL MIRABEL INTL A","7034900","2015-05-02 21:00","2015","05","02","21:00","16.2","","0.0","","33","","","","21","","5","","40.2","","100.28","","","","","","NA"
"-74.04","45.68","MONTREAL MIRABEL INTL A","7034900","2015-05-02 22:00","2015","05","02","22:00","15.2","","2.5","","42","","","","24","","4","","40.2","","100.32","","","","","","Mainly Clear"
"-74.04","45.68","MONTREAL MIRABEL INTL A","7034900","2015-05-02 23:00","2015","05","02","23:00","14.2","","3.4","","48","","","","23","","7","","40.2","","100.31","","","","","","NA"
"-74.04","45.68","MONTREAL MIRABEL INTL A","7034900","2015-05-03 00:00","2015","05","03","00:00","15.4","","3.9","","46","","","","23","","10","","40.2","","100.32","","","","","","NA"
"-74.04","45.68","MONTREAL MIRABEL INTL A","7034900","2015-05-03 01:00","2015","05","03","01:00","12.8","","4.0","","55","","","","23","","6","","40.2","","100.32","","","","","","Mainly Clear"
"-74.04","45.68","MONTREAL MIRABEL INTL A","7034900","2015-05-03 02:00","2015","05","03","02:00","11.4","","4.0","","60","","","","","","0","","40.2","","100.33","","","","","","NA"
"-74.04","45.68","MONTREAL MIRABEL INTL A","7034900","2015-05-03 03:00","2015","05","03","03:00","7.9","","3.8","","75","","","","26","","5","","40.2","","100.35","","","","","","NA"
"-74.04","45.68","MONTREAL MIRABEL INTL A","7034900","2015-05-03 04:00","2015","05","03","04:00","8.9","","4.0","","71","","","","26","","4","","40.2","","100.37","","","","","","Mostly Cloudy"
"-74.04","45.68","MONTREAL MIRABEL INTL A","7034900","2015-05-03 05:00","2015","05","03","05:00","9.4","","3.8","","68","","","","","","0","","72.4","","100.45","","","","","","NA"
"-74.04","45.68","MONTREAL MIRABEL INTL A","7034900","2015-05-03 06:00","2015","05","03","06:00","9.7","","5.7","","76","","","","34","","4","","72.4","","100.53","","","","","","NA"
"-74.04","45.68","MONTREAL MIRABEL INTL A","7034900","2015-05-03 07:00","2015","05","03","07:00","11.2","","4.2","","62","","","","4","","8","","72.4","","100.61","","","","","","Mostly Cloudy"
"-74.04","45.68","MONTREAL MIRABEL INTL A","7034900","2015-05-03 08:00","2015","05","03","08:00","13.5","","4.7","","55","","","","35","","5","","72.4","","100.63","","","","","","NA"
"-74.04","45.68","MONTREAL MIRABEL INTL A","7034900","2015-05-03 09:00","2015","05","03","09:00","16.5","","5.6","","48","","","","20","","4","","72.4","","100.63","","","","","","NA"
"-74.04","45.68","MONTREAL MIRABEL INTL A","7034900","2015-05-03 10:00","2015","05","03","10:00","18.7","","6.7","","45","","","","22","","6","","72.4","","100.63","","","","","","Clear"
"-74.04","45.68","MONTREAL MIRABEL INTL A","7034900","2015-05-03 11:00","2015","05","03","11:00","21.8","","7.0","","38","","","","18","","10","","72.4","","100.61","","","","","","NA"
"-74.04","45.68","MONTREAL MIRABEL INTL A","7034900","2015-05-03 12:00","2015","05","03","12:00","23.4","","4.1","","28","","","","25","","21","","72.4","","100.59","","","","","","NA"
"-74.04","45.68","MONTREAL MIRABEL INTL A","7034900","2015-05-03 13:00","2015","05","03","13:00","24.4","","4.4","","27","","","","24","","13","","72.4","","100.56","","","","","","Mostly Cloudy"
"-74.04","45.68","MONTREAL MIRABEL INTL A","7034900","2015-05-03 14:00","2015","05","03","14:00","24.4","","4.4","","27","","","","27","","17","","72.4","","100.53","","","","","","NA"
"-74.04","45.68","MONTREAL MIRABEL INTL A","7034900","2015-05-03 15:00","2015","05","03","15:00","24.0","","3.5","","26","","","","23","","14","","72.4","","100.50","","","","","","NA"
"-74.04","45.68","MONTREAL MIRABEL INTL A","7034900","2015-05-03 16:00","2015","05","03","16:00","24.9","","4.9","","27","","","","22","","16","","72.4","","100.47","","","","","","Mostly Cloudy"
"-74.04","45.68","MONTREAL MIRABEL INTL A","7034900","2015-05-03 17:00","2015","05","03","17:00","23.8","","4.9","","29","","","","24","","17","","72.4","","100.50","","","","","","NA"
"-74.04","45.68","MONTREAL MIRABEL INTL A","7034900","2015-05-03 18:00","2015","05","03","18:00","23.5","","4.7","","29","","","","22","","11","","72.4","","100.52","","","","","","NA"
"-74.04","45.68","MONTREAL MIRABEL INTL A","7034900","2015-05-03 19:00","2015","05","03","19:00","21.2","","4.9","","34","","","","22","","10","","40.2","","100.56","","","","","","Mainly Clear"
"-74.04","45.68","MONTREAL MIRABEL INTL A","7034900","2015-05-03 20:00","2015","05","03","20:00","20.8","","4.1","","33","","","","22","","13","","40.2","","100.61","","","","","","NA"
"-74.04","45.68","MONTREAL MIRABEL INTL A","7034900","2015-05-03 21:00","2015","05","03","21:00","17.9","","4.6","","41","","","","25","","7","","40.2","","100.66","","","","","","NA"
"-74.04","45.68","MONTREAL MIRABEL INTL A","7034900","2015-05-03 22:00","2015","05","03","22:00","17.0","","4.4","","43","","","","25","","7","","40.2","","100.67","","","","","","Mainly Clear"
"-74.04","45.68","MONTREAL MIRABEL INTL A","7034900","2015-05-03 23:00","2015","05","03","23:00","17.1","","4.5","","43","","","","25","","9","","40.2","","100.69","","","","","","NA"
"-74.04","45.68","MONTREAL MIRABEL INTL A","7034900","2015-05-04 00:00","2015","05","04","00:00","16.8","","4.3","","43","","","","24","","8","","40.2","","100.71","","","","","","NA"
"-74.04","45.68","MONTREAL MIRABEL INTL A","7034900","2015-05-04 01:00","2015","05","04","01:00","15.9","","4.4","","46","","","","24","","8","","40.2","","100.70","","","","","","Mainly Clear"
"-74.04","45.68","MONTREAL MIRABEL INTL A","7034900","2015-05-04 02:00","2015","05","04","02:00","15.5","","4.0","","46","","","","23","","9","","40.2","","100.71","","","","","","NA"
"-74.04","45.68","MONTREAL MIRABEL INTL A","7034900","2015-05-04 03:00","2015","05","04","03:00","13.5","","4.4","","54","","","","","","0","","40.2","","100.72","","","","","","NA"
"-74.04","45.68","MONTREAL MIRABEL INTL A","7034900","2015-05-04 04:00","2015","05","04","04:00","13.3","","4.3","","54","","","","23","","7","","40.2","","100.72","","","","","","Mainly Clear"
"-74.04","45.68","MONTREAL MIRABEL INTL A","7034900","2015-05-04 05:00","2015","05","04","05:00","12.1","","4.4","","59","","","","24","","5","","40.2","","100.74","","","","","","NA"
"-74.04","45.68","MONTREAL MIRABEL INTL A","7034900","2015-05-04 06:00","2015","05","04","06:00","13.0","","6.2","","63","","","","23","","3","","48.3","","100.79","","","","","","NA"
"-74.04","45.68","MONTREAL MIRABEL INTL A","7034900","2015-05-04 07:00","2015","05","04","07:00","16.5","","5.3","","47","","","","25","","9","","48.3","","100.80","","","","","","Mainly Clear"
"-74.04","45.68","MONTREAL MIRABEL INTL A","7034900","2015-05-04 08:00","2015","05","04","08:00","18.0","","5.7","","44","","","","23","","14","","48.3","","100.77","","","","","","NA"
"-74.04","45.68","MONTREAL MIRABEL INTL A","7034900","2015-05-04 09:00","2015","05","04","09:00","20.5","","6.6","","40","","","","25","","14","","48.3","","100.73","","","","","","NA"
"-74.04","45.68","MONTREAL MIRABEL INTL A","7034900","2015-05-04 10:00","2015","05","04","10:00","24.5","","6.5","","31","","","","23","","22","","48.3","","100.66","","","","","","Mostly Cloudy"
"-74.04","45.68","MONTREAL MIRABEL INTL A","7034900","2015-05-04 11:00","2015","05","04","11:00","25.9","","6.8","","29","","","","23","","26","","48.3","","100.57","","26","","","","NA"
"-74.04","45.68","MONTREAL MIRABEL INTL A","7034900","2015-05-04 12:00","2015","05","04","12:00","26.8","","8.0","","30","","","","21","","30","","48.3","","100.46","","27","","","","NA"
"-74.04","45.68","MONTREAL MIRABEL INTL A","7034900","2015-05-04 13:00","2015","05","04","13:00","27.5","","8.2","","29","","","","21","","33","","48.3","","100.39","","28","","","","Mostly Cloudy"
"-74.04","45.68","MONTREAL MIRABEL INTL A","7034900","2015-05-04 14:00","2015","05","04","14:00","26.9","","7.1","","28","","","","24","","28","","48.3","","100.31","","27","","","","NA"
"-74.04","45.68","MONTREAL MIRABEL INTL A","7034900","2015-05-04 15:00","2015","05","04","15:00","26.4","","6.7","","28","","","","23","","30","","40.2","","100.25","","26","","","","NA"
"-74.04","45.68","MONTREAL MIRABEL INTL A","7034900","2015-05-04 16:00","2015","05","04","16:00","25.1","","7.0","","31","","","","24","","32","","40.2","","100.29","","25","","","","Rain Showers"
"-74.04","45.68","MONTREAL MIRABEL INTL A","7034900","2015-05-04 17:00","2015","05","04","17:00","19.4","","12.7","","65","","","","25","","21","","24.1","","100.49","","","","","","Rain Showers"
"-74.04","45.68","MONTREAL MIRABEL INTL A","7034900","2015-05-04 18:00","2015","05","04","18:00","16.4","","14.4","","88","","","","23","","16","","24.1","","100.55","","","","","","Rain Showers"
"-74.04","45.68","MONTREAL MIRABEL INTL A","7034900","2015-05-04 19:00","2015","05","04","19:00","15.9","","14.5","","91","","","","22","","21","","24.1","","100.51","","","","","","Rain Showers"
"-74.04","45.68","MONTREAL MIRABEL INTL A","7034900","2015-05-04 20:00","2015","05","04","20:00","15.7","","14.3","","91","","","","23","","14","","24.1","","100.52","","","","","","Rain Showers"
"-74.04","45.68","MONTREAL MIRABEL INTL A","7034900","2015-05-04 21:00","2015","05","04","21:00","15.4","","14.5","","94","","","","25","","15","","24.1","","100.58","","","","","","Rain Showers"
"-74.04","45.68","MONTREAL MIRABEL INTL A","7034900","2015-05-04 22:00","2015","05","04","22:00","15.0","","14.2","","95","","","","26","","10","","32.2","","100.63","","","","","","Mainly Clear"
"-74.04","45.68","MONTREAL MIRABEL INTL A","7034900","2015-05-04 23:00","2015","05","04","23:00","14.4","","13.9","","97","","","","27","","7","","32.2","","100.74","","","","","","NA"
"-74.04","45.68","MONTREAL MIRABEL INTL A","7034900","2015-05-05 00:00","2015","05","05","00:00","13.4","","12.9","","97","","","","29","","9","","40.2","","100.86","","","","","","NA"
"-74.04","45.68","MONTREAL MIRABEL INTL A","7034900","2015-05-05 01:00","2015","05","05","01:00","12.9","","9.6","","80","","","","31","","8","","40.2","","100.99","","","","","","Mainly Clear"
"-74.04","45.68","MONTREAL MIRABEL INTL A","7034900","2015-05-05 02:00","2015","05","05","02:00","12.0","","7.4","","73","","","","33","","19","","40.2","","101.07","","","","","","NA"
"-74.04","45.68","MONTREAL MIRABEL INTL A","7034900","2015-05-05 03:00","2015","05","05","03:00","8.2","","6.3","","88","","","","21","","8","","40.2","","101.15","","","","","","NA"
"-74.04","45.68","MONTREAL MIRABEL INTL A","7034900","2015-05-05 04:00","2015","05","05","04:00","8.8","","7.3","","90","","","","25","","5","","40.2","","101.25","","","","","","Clear"
"-74.04","45.68","MONTREAL MIRABEL INTL A","7034900","2015-05-05 05:00","2015","05","05","05:00","8.3","","7.1","","92","","","","23","","5","","72.4","","101.37","","","","","","NA"
"-74.04","45.68","MONTREAL MIRABEL INTL A","7034900","2015-05-05 06:00","2015","05","05","06:00","9.4","","7.9","","90","","","","26","","8","","72.4","","101.48","","","","","","NA"
"-74.04","45.68","MONTREAL MIRABEL INTL A","7034900","2015-05-05 07:00","2015","05","05","07:00","10.8","","7.7","","81","","","","26","","6","","72.4","","101.53","","","","","","Mainly Clear"
"-74.04","45.68","MONTREAL MIRABEL INTL A","7034900","2015-05-05 08:00","2015","05","05","08:00","12.4","","6.1","","65","","","","28","","8","","72.4","","101.56","","","","","","NA"
"-74.04","45.68","MONTREAL MIRABEL INTL A","7034900","2015-05-05 09:00","2015","05","05","09:00","13.7","","6.6","","62","","","","27","","4","","72.4","","101.57","","","","","","NA"
"-74.04","45.68","MONTREAL MIRABEL INTL A","7034900","2015-05-05 10:00","2015","05","05","10:00","15.4","","6.8","","56","","","","23","","10","","72.4","","101.57","","","","","","Mainly Clear"
"-74.04","45.68","MONTREAL MIRABEL INTL A","7034900","2015-05-05 11:00","2015","05","05","11:00","16.4","","3.9","","43","","","","10","","9","","72.4","","101.50","","","","","","NA"
"-74.04","45.68","MONTREAL MIRABEL INTL A","7034900","2015-05-05 12:00","2015","05","05","12:00","17.7","","3.0","","37","","","","19","","12","","72.4","","101.45","","","","","","NA"
"-74.04","45.68","MONTREAL MIRABEL INTL A","7034900","2015-05-05 13:00","2015","05","05","13:00","19.7","","-3.8","","20","","","","32","","13","","72.4","","101.39","","","","","","Mainly Clear"
"-74.04","45.68","MONTREAL MIRABEL INTL A","7034900","2015-05-05 14:00","2015","05","05","14:00","19.0","","-1.9","","24","","","","23","","19","","72.4","","101.32","","","","","","NA"
"-74.04","45.68","MONTREAL MIRABEL INTL A","7034900","2015-05-05 15:00","2015","05","05","15:00","19.9","","-1.7","","23","","","","25","","18","","72.4","","101.27","","","","","","NA"
"-74.04","45.68","MONTREAL MIRABEL INTL A","7034900","2015-05-05 16:00","2015","05","05","16:00","19.9","","-2.3","","22","","","","24","","17","","72.4","","101.22","","","","","","Mainly Clear"
"-74.04","45.68","MONTREAL MIRABEL INTL A","7034900","2015-05-05 17:00","2015","05","05","17:00","20.0","","-2.9","","21","","","","28","","15","","72.4","","101.23","","","","","","NA"
"-74.04","45.68","MONTREAL MIRABEL INTL A","7034900","2015-05-05 18:00","2015","05","05","18:00","18.9","","-1.4","","25","","","","25","","14","","72.4","","101.23","","","","","","NA"
"-74.04","45.68","MONTREAL MIRABEL INTL A","7034900","2015-05-05 19:00","2015","05","05","19:00","17.1","","-0.1","","31","","","","24","","7","","72.4","","101.26","","","","","","Mainly Clear"
"-74.04","45.68","MONTREAL MIRABEL INTL A","7034900","2015-05-05 20:00","2015","05","05","20:00","15.5","","0.2","","35","","","","","","0","","40.2","","101.31","","","","","","NA"
"-74.04","45.68","MONTREAL MIRABEL INTL A","7034900","2015-05-05 21:00","2015","05","05","21:00","14.1","","0.4","","39","","","","28","","6","","40.2","","101.38","","","","","","NA"
"-74.04","45.68","MONTREAL MIRABEL INTL A","7034900","2015-05-05 22:00","2015","05","05","22:00","11.2","","-0.3","","45","","","","26","","4","","40.2","","101.41","","","","","","Mainly Clear"
"-74.04","45.68","MONTREAL MIRABEL INTL A","7034900","2015-05-05 23:00","2015","05","05","23:00","9.4","","-0.5","","50","","","","27","","4","","40.2","","101.47","","","","","","NA"
"-74.04","45.68","MONTREAL MIRABEL INTL A","7034900","2015-05-06 00:00","2015","05","06","00:00","7.7","","0.7","","61","","","","","","0","","40.2","","101.51","","","","","","NA"
"-74.04","45.68","MONTREAL MIRABEL INTL A","7034900","2015-05-06 01:00","2015","05","06","01:00","7.9","","0.6","","60","","","","","","0","","40.2","","101.55","","","","","","Clear"
"-74.04","45.68","MONTREAL MIRABEL INTL A","7034900","2015-05-06 02:00","2015","05","06","02:00","7.1","","0.3","","62","","","","","","0","","40.2","","101.55","","","","","","NA"
"-74.04","45.68","MONTREAL MIRABEL INTL A","7034900","2015-05-06 03:00","2015","05","06","03:00","5.2","","1.1","","75","","","","","","0","","40.2","","101.55","","","","","","NA"
"-74.04","45.68","MONTREAL MIRABEL INTL A","7034900","2015-05-06 04:00","2015","05","06","04:00","4.1","","1.0","","80","","","","","","0","","72.4","","101.52","","","","","","Clear"
"-74.04","45.68","MONTREAL MIRABEL INTL A","7034900","2015-05-06 05:00","2015","05","06","05:00","3.4","","1.0","","84","","","","","","0","","72.4","","101.53","","","","","","NA"
"-74.04","45.68","MONTREAL MIRABEL INTL A","7034900","2015-05-06 06:00","2015","05","06","06:00","6.6","","1.7","","71","","","","28","","7","","72.4","","101.56","","","","","","NA"
"-74.04","45.68","MONTREAL MIRABEL INTL A","7034900","2015-05-06 07:00","2015","05","06","07:00","12.2","","1.9","","49","","","","24","","6","","72.4","","101.57","","","","","","Clear"
"-74.04","45.68","MONTREAL MIRABEL INTL A","7034900","2015-05-06 08:00","2015","05","06","08:00","14.1","","1.1","","41","","","","25","","14","","72.4","","101.58","","","","","","NA"
"-74.04","45.68","MONTREAL MIRABEL INTL A","7034900","2015-05-06 09:00","2015","05","06","09:00","17.4","","2.3","","36","","","","24","","13","","72.4","","101.57","","","","","","NA"
"-74.04","45.68","MONTREAL MIRABEL INTL A","7034900","2015-05-06 10:00","2015","05","06","10:00","19.3","","1.0","","29","","","","25","","17","","72.4","","101.52","","","","","","Clear"
"-74.04","45.68","MONTREAL MIRABEL INTL A","7034900","2015-05-06 11:00","2015","05","06","11:00","20.5","","0.5","","26","","","","25","","23","","72.4","","101.44","","","","","","NA"
"-74.04","45.68","MONTREAL MIRABEL INTL A","7034900","2015-05-06 12:00","2015","05","06","12:00","21.7","","0.4","","24","","","","25","","14","","72.4","","101.36","","","","","","NA"
"-74.04","45.68","MONTREAL MIRABEL INTL A","7034900","2015-05-06 13:00","2015","05","06","13:00","22.9","","2.6","","26","","","","24","","15","","72.4","","101.28","","","","","","Mainly Clear"
"-74.04","45.68","MONTREAL MIRABEL INTL A","7034900","2015-05-06 14:00","2015","05","06","14:00","23.6","","1.5","","23","","","","24","","26","","72.4","","101.19","","","","","","NA"
"-74.04","45.68","MONTREAL MIRABEL INTL A","7034900","2015-05-06 15:00","2015","05","06","15:00","24.0","","1.8","","23","","","","24","","26","","72.4","","101.12","","","","","","NA"
"-74.04","45.68","MONTREAL MIRABEL INTL A","7034900","2015-05-06 16:00","2015","05","06","16:00","23.8","","0.4","","21","","","","25","","18","","72.4","","101.07","","","","","","Mainly Clear"
"-74.04","45.68","MONTREAL MIRABEL INTL A","7034900","2015-05-06 17:00","2015","05","06","17:00","23.9","","1.1","","22","","","","26","","16","","72.4","","101.03","","","","","","NA"
"-74.04","45.68","MONTREAL MIRABEL INTL A","7034900","2015-05-06 18:00","2015","05","06","18:00","23.0","","1.6","","24","","","","25","","16","","72.4","","101.02","","","","","","NA"
"-74.04","45.68","MONTREAL MIRABEL INTL A","7034900","2015-05-06 19:00","2015","05","06","19:00","21.2","","2.1","","28","","","","23","","13","","40.2","","101.03","","","","","","Clear"
"-74.04","45.68","MONTREAL MIRABEL INTL A","7034900","2015-05-06 20:00","2015","05","06","20:00","18.8","","1.9","","32","","","","26","","5","","40.2","","101.07","","","","","","NA"
"-74.04","45.68","MONTREAL MIRABEL INTL A","7034900","2015-05-06 21:00","2015","05","06","21:00","18.0","","1.6","","33","","","","25","","4","","40.2","","101.11","","","","","","NA"
"-74.04","45.68","MONTREAL MIRABEL INTL A","7034900","2015-05-06 22:00","2015","05","06","22:00","17.2","","1.7","","35","","","","26","","8","","40.2","","101.12","","","","","","Clear"
"-74.04","45.68","MONTREAL MIRABEL INTL A","7034900","2015-05-06 23:00","2015","05","06","23:00","11.6","","2.1","","52","","","","","","0","","40.2","","101.13","","","","","","NA"
"-74.04","45.68","MONTREAL MIRABEL INTL A","7034900","2015-05-07 00:00","2015","05","07","00:00","15.0","","1.6","","40","","","","27","","9","","40.2","","101.11","","","","","","NA"
"-74.04","45.68","MONTREAL MIRABEL INTL A","7034900","2015-05-07 01:00","2015","05","07","01:00","15.6","","1.4","","38","","","","25","","5","","40.2","","101.10","","","","","","Clear"
"-74.04","45.68","MONTREAL MIRABEL INTL A","7034900","2015-05-07 02:00","2015","05","07","02:00","13.2","","1.6","","45","","","","23","","6","","40.2","","101.08","","","","","","NA"
"-74.04","45.68","MONTREAL MIRABEL INTL A","7034900","2015-05-07 03:00","2015","05","07","03:00","13.3","","2.3","","47","","","","24","","8","","40.2","","101.11","","","","","","NA"
"-74.04","45.68","MONTREAL MIRABEL INTL A","7034900","2015-05-07 04:00","2015","05","07","04:00","13.2","","2.2","","47","","","","24","","8","","40.2","","101.11","","","","","","Mainly Clear"
"-74.04","45.68","MONTREAL MIRABEL INTL A","7034900","2015-05-07 05:00","2015","05","07","05:00","12.4","","2.3","","50","","","","24","","7","","72.4","","101.11","","","","","","NA"
"-74.04","45.68","MONTREAL MIRABEL INTL A","7034900","2015-05-07 06:00","2015","05","07","06:00","12.2","","2.7","","52","","","","25","","7","","72.4","","101.14","","","","","","NA"
"-74.04","45.68","MONTREAL MIRABEL INTL A","7034900","2015-05-07 07:00","2015","05","07","07:00","13.4","","3.5","","51","","","","26","","10","","64.4","","101.16","","","","","","Mostly Cloudy"
"-74.04","45.68","MONTREAL MIRABEL INTL A","7034900","2015-05-07 08:00","2015","05","07","08:00","15.8","","4.0","","45","","","","25","","10","","64.4","","101.19","","","","","","NA"
"-74.04","45.68","MONTREAL MIRABEL INTL A","7034900","2015-05-07 09:00","2015","05","07","09:00","18.3","","4.6","","40","","","","29","","5","","64.4","","101.16","","","","","","NA"
"-74.04","45.68","MONTREAL MIRABEL INTL A","7034900","2015-05-07 10:00","2015","05","07","10:00","21.3","","5.8","","36","","","","26","","11","","48.3","","101.13","","","","","","Mainly Clear"
"-74.04","45.68","MONTREAL MIRABEL INTL A","7034900","2015-05-07 11:00","2015","05","07","11:00","24.2","","5.8","","30","","","","21","","18","","56.3","","101.05","","","","","","NA"
"-74.04","45.68","MONTREAL MIRABEL INTL A","7034900","2015-05-07 12:00","2015","05","07","12:00","25.9","","4.0","","24","","","","21","","21","","72.4","","100.98","","25","","","","NA"
"-74.04","45.68","MONTREAL MIRABEL INTL A","7034900","2015-05-07 13:00","2015","05","07","13:00","26.0","","2.9","","22","","","","25","","15","","72.4","","100.92","","25","","","","Mainly Clear"
"-74.04","45.68","MONTREAL MIRABEL INTL A","7034900","2015-05-07 14:00","2015","05","07","14:00","26.6","","3.4","","22","","","","24","","18","","48.3","","100.85","","25","","","","NA"
"-74.04","45.68","MONTREAL MIRABEL INTL A","7034900","2015-05-07 15:00","2015","05","07","15:00","26.9","","3.0","","21","","","","24","","15","","72.4","","100.78","","26","","","","NA"
"-74.04","45.68","MONTREAL MIRABEL INTL A","7034900","2015-05-07 16:00","2015","05","07","16:00","26.7","","4.1","","23","","","","23","","12","","72.4","","100.72","","26","","","","Mostly Cloudy"
"-74.04","45.68","MONTREAL MIRABEL INTL A","7034900","2015-05-07 17:00","2015","05","07","17:00","26.2","","2.4","","21","","","","23","","14","","72.4","","100.71","","25","","","","NA"
"-74.04","45.68","MONTREAL MIRABEL INTL A","7034900","2015-05-07 18:00","2015","05","07","18:00","25.3","","1.7","","21","","","","24","","18","","72.4","","100.69","","","","","","NA"
"-74.04","45.68","MONTREAL MIRABEL INTL A","7034900","2015-05-07 19:00","2015","05","07","19:00","23.2","","2.3","","25","","","","22","","8","","48.3","","100.70","","","","","","Mostly Cloudy"
"-74.04","45.68","MONTREAL MIRABEL INTL A","7034900","2015-05-07 20:00","2015","05","07","20:00","20.8","","3.2","","31","","","","21","","14","","40.2","","100.73","","","","","","NA"
"-74.04","45.68","MONTREAL MIRABEL INTL A","7034900","2015-05-07 21:00","2015","05","07","21:00","18.6","","4.9","","40","","","","22","","7","","40.2","","100.74","","","","","","NA"
"-74.04","45.68","MONTREAL MIRABEL INTL A","7034900","2015-05-07 22:00","2015","05","07","22:00","16.4","","5.5","","48","","","","25","","3","","40.2","","100.72","","","","","","Mainly Clear"
"-74.04","45.68","MONTREAL MIRABEL INTL A","7034900","2015-05-07 23:00","2015","05","07","23:00","17.8","","5.5","","44","","","","25","","9","","40.2","","100.72","","","","","","NA"
"-74.04","45.68","MONTREAL MIRABEL INTL A","7034900","2015-05-08 00:00","2015","05","08","00:00","17.5","","4.9","","43","","","","26","","5","","40.2","","100.75","","","","","","NA"
"-74.04","45.68","MONTREAL MIRABEL INTL A","7034900","2015-05-08 01:00","2015","05","08","01:00","15.7","","4.8","","48","","","","27","","5","","40.2","","100.76","","","","","","Mainly Clear"
"-74.04","45.68","MONTREAL MIRABEL INTL A","7034900","2015-05-08 02:00","2015","05","08","02:00","16.3","","5.1","","47","","","","26","","9","","40.2","","100.74","","","","","","NA"
"-74.04","45.68","MONTREAL MIRABEL INTL A","7034900","2015-05-08 03:00","2015","05","08","03:00","16.3","","6.2","","51","","","","22","","8","","40.2","","100.75","","","","","","NA"
"-74.04","45.68","MONTREAL MIRABEL INTL A","7034900","2015-05-08 04:00","2015","05","08","04:00","14.4","","6.8","","60","","","","20","","4","","40.2","","100.78","","","","","","Mainly Clear"
"-74.04","45.68","MONTREAL MIRABEL INTL A","7034900","2015-05-08 05:00","2015","05","08","05:00","12.0","","6.5","","69","","","","4","","8","","48.3","","100.87","","","","","","NA"
"-74.04","45.68","MONTREAL MIRABEL INTL A","7034900","2015-05-08 06:00","2015","05","08","06:00","12.1","","5.1","","62","","","","4","","8","","40.2","","100.97","","","","","","NA"
"-74.04","45.68","MONTREAL MIRABEL INTL A","7034900","2015-05-08 07:00","2015","05","08","07:00","13.4","","0.5","","41","","","","5","","12","","40.2","","101.01","","","","","","Mainly Clear"
"-74.04","45.68","MONTREAL MIRABEL INTL A","7034900","2015-05-08 08:00","2015","05","08","08:00","15.4","","2.3","","41","","","","8","","14","","40.2","","101.02","","","","","","NA"
"-74.04","45.68","MONTREAL MIRABEL INTL A","7034900","2015-05-08 09:00","2015","05","08","09:00","17.4","","4.5","","42","","","","9","","7","","40.2","","101.00","","","","","","NA"
"-74.04","45.68","MONTREAL MIRABEL INTL A","7034900","2015-05-08 10:00","2015","05","08","10:00","19.7","","5.9","","40","","","","5","","5","","40.2","","101.00","","","","","","Mainly Clear"
"-74.04","45.68","MONTREAL MIRABEL INTL A","7034900","2015-05-08 11:00","2015","05","08","11:00","21.5","","7.5","","40","","","","8","","3","","40.2","","100.98","","","","","","NA"
"-74.04","45.68","MONTREAL MIRABEL INTL A","7034900","2015-05-08 12:00","2015","05","08","12:00","23.9","","8.9","","38","","","","18","","8","","40.2","","100.94","","25","","","","NA"
"-74.04","45.68","MONTREAL MIRABEL INTL A","7034900","2015-05-08 13:00","2015","05","08","13:00","25.5","","10.8","","39","","","","24","","4","","40.2","","100.88","","27","","","","Mostly Cloudy"
"-74.04","45.68","MONTREAL MIRABEL INTL A","7034900","2015-05-08 14:00","2015","05","08","14:00","27.5","","10.9","","35","","","","17","","15","","40.2","","100.80","","29","","","","NA"
"-74.04","45.68","MONTREAL MIRABEL INTL A","7034900","2015-05-08 15:00","2015","05","08","15:00","28.4","","12.2","","36","","","","15","","9","","40.2","","100.73","","31","","","","NA"
"-74.04","45.68","MONTREAL MIRABEL INTL A","7034900","2015-05-08 16:00","2015","05","08","16:00","28.9","","12.2","","35","","","","15","","6","","40.2","","100.70","","31","","","","Mostly Cloudy"
"-74.04","45.68","MONTREAL MIRABEL INTL A","7034900","2015-05-08 17:00","2015","05","08","17:00","28.8","","9.8","","30","","","","16","","12","","40.2","","100.67","","30","","","","NA"
"-74.04","45.68","MONTREAL MIRABEL INTL A","7034900","2015-05-08 18:00","2015","05","08","18:00","27.7","","10.7","","34","","","","16","","10","","40.2","","100.66","","29","","","","NA"
"-74.04","45.68","MONTREAL MIRABEL INTL A","7034900","2015-05-08 19:00","2015","05","08","19:00","25.4","","11.4","","41","","","","16","","8","","40.2","","100.68","","27","","","","Mostly Cloudy"
"-74.04","45.68","MONTREAL MIRABEL INTL A","7034900","2015-05-08 20:00","2015","05","08","20:00","23.8","","11.0","","44","","","","15","","9","","40.2","","100.70","","26","","","","NA"
"-74.04","45.68","MONTREAL MIRABEL INTL A","7034900","2015-05-08 21:00","2015","05","08","21:00","22.1","","9.8","","45","","","","17","","9","","40.2","","100.73","","","","","","NA"
"-74.04","45.68","MONTREAL MIRABEL INTL A","7034900","2015-05-08 22:00","2015","05","08","22:00","20.6","","8.7","","46","","","","","","0","","40.2","","100.74","","","","","","Mostly Cloudy"
"-74.04","45.68","MONTREAL MIRABEL INTL A","7034900","2015-05-08 23:00","2015","05","08","23:00","18.1","","8.8","","54","","","","6","","8","","40.2","","100.79","","","","","","NA"
"-74.04","45.68","MONTREAL MIRABEL INTL A","7034900","2015-05-09 00:00","2015","05","09","00:00","15.5","","7.1","","57","","","","4","","12","","40.2","","100.81","","","","","","NA"
"-74.04","45.68","MONTREAL MIRABEL INTL A","7034900","2015-05-09 01:00","2015","05","09","01:00","14.3","","5.5","","55","","","","5","","8","","40.2","","100.80","","","","","","Mainly Clear"
"-74.04","45.68","MONTREAL MIRABEL INTL A","7034900","2015-05-09 02:00","2015","05","09","02:00","13.8","","5.2","","56","","","","4","","9","","40.2","","100.79","","","","","","NA"
"-74.04","45.68","MONTREAL MIRABEL INTL A","7034900","2015-05-09 03:00","2015","05","09","03:00","13.2","","5.7","","60","","","","4","","6","","40.2","","100.81","","","","","","NA"
"-74.04","45.68","MONTREAL MIRABEL INTL A","7034900","2015-05-09 04:00","2015","05","09","04:00","12.6","","6.0","","64","","","","6","","9","","40.2","","100.81","","","","","","Mostly Cloudy"
"-74.04","45.68","MONTREAL MIRABEL INTL A","7034900","2015-05-09 05:00","2015","05","09","05:00","13.0","","6.2","","63","","","","3","","7","","40.2","","100.90","","","","","","NA"
"-74.04","45.68","MONTREAL MIRABEL INTL A","7034900","2015-05-09 06:00","2015","05","09","06:00","13.5","","6.4","","62","","","","2","","5","","40.2","","100.94","","","","","","NA"
"-74.04","45.68","MONTREAL MIRABEL INTL A","7034900","2015-05-09 07:00","2015","05","09","07:00","14.8","","7.2","","60","","","","4","","12","","40.2","","100.97","","","","","","Mostly Cloudy"
"-74.04","45.68","MONTREAL MIRABEL INTL A","7034900","2015-05-09 08:00","2015","05","09","08:00","16.0","","8.1","","59","","","","3","","6","","32.2","","100.99","","","","","","NA"
"-74.04","45.68","MONTREAL MIRABEL INTL A","7034900","2015-05-09 09:00","2015","05","09","09:00","17.6","","9.8","","60","","","","","","0","","32.2","","100.97","","","","","","NA"
"-74.04","45.68","MONTREAL MIRABEL INTL A","7034900","2015-05-09 10:00","2015","05","09","10:00","20.0","","10.5","","54","","","","","","0","","32.2","","101.00","","","","","","Cloudy"
"-74.04","45.68","MONTREAL MIRABEL INTL A","7034900","2015-05-09 11:00","2015","05","09","11:00","22.7","","13.1","","54","","","","21","","9","","32.2","","100.96","","26","","","","NA"
"-74.04","45.68","MONTREAL MIRABEL INTL A","7034900","2015-05-09 12:00","2015","05","09","12:00","24.2","","13.9","","52","","","","23","","12","","32.2","","100.93","","28","","","","NA"
"-74.04","45.68","MONTREAL MIRABEL INTL A","7034900","2015-05-09 13:00","2015","05","09","13:00","25.4","","14.7","","51","","","","24","","9","","24.1","","100.86","","29","","","","Cloudy"
"-74.04","45.68","MONTREAL MIRABEL INTL A","7034900","2015-05-09 14:00","2015","05","09","14:00","25.4","","14.4","","50","","","","28","","8","","32.2","","100.88","","29","","","","NA"
"-74.04","45.68","MONTREAL MIRABEL INTL A","7034900","2015-05-09 15:00","2015","05","09","15:00","24.7","","16.3","","59","","","","32","","10","","24.1","","100.80","","30","","","","NA"
"-74.04","45.68","MONTREAL MIRABEL INTL A","7034900","2015-05-09 16:00","2015","05","09","16:00","25.1","","15.9","","56","","","","","","0","","24.1","","100.74","","30","","","","Cloudy"
"-74.04","45.68","MONTREAL MIRABEL INTL A","7034900","2015-05-09 17:00","2015","05","09","17:00","24.2","","17.3","","65","","","","20","","5","","24.1","","100.75","","30","","","","NA"
"-74.04","45.68","MONTREAL MIRABEL INTL A","7034900","2015-05-09 18:00","2015","05","09","18:00","23.0","","18.0","","73","","","","","","0","","24.1","","100.79","","29","","","","NA"
"-74.04","45.68","MONTREAL MIRABEL INTL A","7034900","2015-05-09 19:00","2015","05","09","19:00","21.8","","18.6","","82","","","","","","0","","16.1","","100.88","","28","","","","Rain Showers"
"-74.04","45.68","MONTREAL MIRABEL INTL A","7034900","2015-05-09 20:00","2015","05","09","20:00","20.1","","18.6","","91","","","","5","","5","","32.2","","100.80","","27","","","","Rain Showers"
"-74.04","45.68","MONTREAL MIRABEL INTL A","7034900","2015-05-09 21:00","2015","05","09","21:00","19.4","","18.1","","92","","","","","","0","","32.2","","100.80","","","","","","NA"
"-74.04","45.68","MONTREAL MIRABEL INTL A","7034900","2015-05-09 22:00","2015","05","09","22:00","18.8","","18.3","","97","","","","35","","10","","24.1","","100.80","","","","","","Cloudy"
"-74.04","45.68","MONTREAL MIRABEL INTL A","7034900","2015-05-09 23:00","2015","05","09","23:00","18.7","","18.1","","96","","","","29","","7","","16.1","","100.95","","","","","","NA"
"-74.04","45.68","MONTREAL MIRABEL INTL A","7034900","2015-05-10 00:00","2015","05","10","00:00","18.4","","17.8","","96","","","","7","","9","","24.1","","100.76","","","","","","Rain Showers"
"-74.04","45.68","MONTREAL MIRABEL INTL A","7034900","2015-05-10 01:00","2015","05","10","01:00","18.1","","17.8","","98","","","","9","","3","","19.3","","100.80","","","","","","Rain Showers"
"-74.04","45.68","MONTREAL MIRABEL INTL A","7034900","2015-05-10 02:00","2015","05","10","02:00","18.1","","17.8","","98","","","","7","","16","","24.1","","100.74","","","","","","Rain Showers"
"-74.04","45.68","MONTREAL MIRABEL INTL A","7034900","2015-05-10 03:00","2015","05","10","03:00","17.6","","17.3","","98","","","","","","0","","24.1","","100.77","","","","","","NA"
"-74.04","45.68","MONTREAL MIRABEL INTL A","7034900","2015-05-10 04:00","2015","05","10","04:00","16.8","","16.8","","100","","","","32","","7","","6.4","","100.77","","","","","","Fog"
"-74.04","45.68","MONTREAL MIRABEL INTL A","7034900","2015-05-10 05:00","2015","05","10","05:00","16.5","","16.5","","100","","","","7","","4","","1.6","","100.77","","","","","","Fog"
"-74.04","45.68","MONTREAL MIRABEL INTL A","7034900","2015-05-10 06:00","2015","05","10","06:00","17.2","","17.2","","100","","","","","","0","","1.6","","100.74","","","","","","Fog"
"-74.04","45.68","MONTREAL MIRABEL INTL A","7034900","2015-05-10 07:00","2015","05","10","07:00","19.5","","18.0","","91","","","","24","","8","","9.7","","100.74","","","","","","Fog"
"-74.04","45.68","MONTREAL MIRABEL INTL A","7034900","2015-05-10 08:00","2015","05","10","08:00","21.2","","18.1","","82","","","","24","","8","","12.9","","100.73","","27","","","","NA"
"-74.04","45.68","MONTREAL MIRABEL INTL A","7034900","2015-05-10 09:00","2015","05","10","09:00","22.4","","17.4","","73","","","","26","","14","","16.1","","100.73","","28","","","","NA"
"-74.04","45.68","MONTREAL MIRABEL INTL A","7034900","2015-05-10 10:00","2015","05","10","10:00","22.7","","17.7","","73","","","","25","","14","","16.1","","100.76","","28","","","","Cloudy"
"-74.04","45.68","MONTREAL MIRABEL INTL A","7034900","2015-05-10 11:00","2015","05","10","11:00","23.5","","18.0","","71","","","","25","","14","","16.1","","100.78","","30","","","","NA"
"-74.04","45.68","MONTREAL MIRABEL INTL A","7034900","2015-05-10 12:00","2015","05","10","12:00","23.9","","18.4","","71","","","","26","","10","","19.3","","100.76","","30","","","","NA"
"-74.04","45.68","MONTREAL MIRABEL INTL A","7034900","2015-05-10 13:00","2015","05","10","13:00","23.9","","18.0","","69","","","","22","","12","","24.1","","100.76","","30","","","","Cloudy"
"-74.04","45.68","MONTREAL MIRABEL INTL A","7034900","2015-05-10 14:00","2015","05","10","14:00","23.5","","18.0","","71","","","","25","","12","","24.1","","100.80","","30","","","","NA"
"-74.04","45.68","MONTREAL MIRABEL INTL A","7034900","2015-05-10 15:00","2015","05","10","15:00","18.7","","15.0","","79","","","","5","","15","","24.1","","100.85","","","","","","Rain Showers"
"-74.04","45.68","MONTREAL MIRABEL INTL A","7034900","2015-05-10 16:00","2015","05","10","16:00","16.5","","15.1","","91","","","","7","","15","","24.1","","100.93","","","","","","Rain Showers"
"-74.04","45.68","MONTREAL MIRABEL INTL A","7034900","2015-05-10 17:00","2015","05","10","17:00","15.7","","14.3","","91","","","","6","","10","","40.2","","101.00","","","","","","NA"
"-74.04","45.68","MONTREAL MIRABEL INTL A","7034900","2015-05-10 18:00","2015","05","10","18:00","14.9","","13.5","","91","","","","7","","8","","40.2","","101.06","","","","","","NA"
"-74.04","45.68","MONTREAL MIRABEL INTL A","7034900","2015-05-10 19:00","2015","05","10","19:00","14.4","","12.3","","87","","","","6","","12","","40.2","","101.11","","","","","","Cloudy"
"-74.04","45.68","MONTREAL MIRABEL INTL A","7034900","2015-05-10 20:00","2015","05","10","20:00","14.1","","11.6","","85","","","","6","","10","","40.2","","101.14","","","","","","NA"
"-74.04","45.68","MONTREAL MIRABEL INTL A","7034900","2015-05-10 21:00","2015","05","10","21:00","13.9","","10.7","","81","","","","6","","7","","40.2","","101.16","","","","","","NA"
"-74.04","45.68","MONTREAL MIRABEL INTL A","7034900","2015-05-10 22:00","2015","05","10","22:00","13.7","","10.7","","82","","","","4","","5","","40.2","","101.16","","","","","","Cloudy"
"-74.04","45.68","MONTREAL MIRABEL INTL A","7034900","2015-05-10 23:00","2015","05","10","23:00","13.6","","11.0","","84","","","","7","","11","","40.2","","101.08","","","","","","NA"
"-74.04","45.68","MONTREAL MIRABEL INTL A","7034900","2015-05-11 00:00","2015","05","11","00:00","13.4","","11.1","","86","","","","5","","7","","40.2","","101.14","","","","","","NA"
"-74.04","45.68","MONTREAL MIRABEL INTL A","7034900","2015-05-11 01:00","2015","05","11","01:00","13.0","","10.7","","86","","","","5","","10","","32.2","","101.19","","","","","","Rain"
"-74.04","45.68","MONTREAL MIRABEL INTL A","7034900","2015-05-11 02:00","2015","05","11","02:00","11.2","","9.3","","88","","","","6","","18","","40.2","","101.16","","","","","","Rain"
"-74.04","45.68","MONTREAL MIRABEL INTL A","7034900","2015-05-11 03:00","2015","05","11","03:00","9.5","","7.8","","89","","","","5","","12","","32.2","","101.17","","","","","","Rain"
"-74.04","45.68","MONTREAL MIRABEL INTL A","7034900","2015-05-11 04:00","2015","05","11","04:00","9.0","","7.1","","88","","","","4","","11","","32.2","","101.19","","","","","","Rain"
"-74.04","45.68","MONTREAL MIRABEL INTL A","7034900","2015-05-11 05:00","2015","05","11","05:00","8.4","","7.2","","92","","","","4","","8","","6.4","","101.18","","","","","","Rain,Fog"
"-74.04","45.68","MONTREAL MIRABEL INTL A","7034900","2015-05-11 06:00","2015","05","11","06:00","7.6","","6.6","","93","","","","5","","10","","4.8","","101.20","","","","","","Rain,Fog"
"-74.04","45.68","MONTREAL MIRABEL INTL A","7034900","2015-05-11 07:00","2015","05","11","07:00","7.7","","6.8","","94","","","","4","","8","","12.9","","101.21","","","","","","Rain"
"-74.04","45.68","MONTREAL MIRABEL INTL A","7034900","2015-05-11 08:00","2015","05","11","08:00","7.4","","6.7","","95","","","","5","","14","","4.8","","101.18","","","","","","Rain,Fog"
"-74.04","45.68","MONTREAL MIRABEL INTL A","7034900","2015-05-11 09:00","2015","05","11","09:00","7.5","","6.8","","95","","","","5","","14","","4.8","","101.12","","","","","","Rain,Fog"
"-74.04","45.68","MONTREAL MIRABEL INTL A","7034900","2015-05-11 10:00","2015","05","11","10:00","7.6","","7.0","","96","","","","5","","20","","6.4","","101.08","","","","","","Rain,Fog"
"-74.04","45.68","MONTREAL MIRABEL INTL A","7034900","2015-05-11 11:00","2015","05","11","11:00","8.2","","7.1","","93","","","","4","","11","","12.9","","101.04","","","","","","Rain"
"-74.04","45.68","MONTREAL MIRABEL INTL A","7034900","2015-05-11 12:00","2015","05","11","12:00","7.6","","6.4","","92","","","","6","","16","","8.1","","100.98","","","","","","Rain,Fog"
"-74.04","45.68","MONTREAL MIRABEL INTL A","7034900","2015-05-11 13:00","2015","05","11","13:00","7.4","","6.2","","92","","","","4","","18","","8.1","","100.92","","","","","","Rain,Fog"
"-74.04","45.68","MONTREAL MIRABEL INTL A","7034900","2015-05-11 14:00","2015","05","11","14:00","7.1","","6.2","","94","","","","4","","18","","9.7","","100.90","","","","","","Rain,Fog"
"-74.04","45.68","MONTREAL MIRABEL INTL A","7034900","2015-05-11 15:00","2015","05","11","15:00","7.5","","6.3","","92","","","","4","","13","","11.3","","100.81","","","","","","NA"
"-74.04","45.68","MONTREAL MIRABEL INTL A","7034900","2015-05-11 16:00","2015","05","11","16:00","7.7","","6.5","","92","","","","4","","16","","16.1","","100.73","","","","","","Cloudy"
"-74.04","45.68","MONTREAL MIRABEL INTL A","7034900","2015-05-11 17:00","2015","05","11","17:00","7.8","","6.8","","93","","","","5","","17","","9.7","","100.72","","","","","","Fog"
"-74.04","45.68","MONTREAL MIRABEL INTL A","7034900","2015-05-11 18:00","2015","05","11","18:00","7.4","","6.8","","96","","","","5","","14","","4.8","","100.66","","","","","","Fog"
"-74.04","45.68","MONTREAL MIRABEL INTL A","7034900","2015-05-11 19:00","2015","05","11","19:00","7.4","","7.0","","97","","","","5","","18","","4.8","","100.63","","","","","","Fog"
"-74.04","45.68","MONTREAL MIRABEL INTL A","7034900","2015-05-11 20:00","2015","05","11","20:00","7.5","","7.2","","98","","","","6","","11","","4.8","","100.57","","","","","","Fog"
"-74.04","45.68","MONTREAL MIRABEL INTL A","7034900","2015-05-11 21:00","2015","05","11","21:00","7.4","","7.1","","98","","","","4","","13","","9.7","","100.49","","","","","","Fog"
"-74.04","45.68","MONTREAL MIRABEL INTL A","7034900","2015-05-11 22:00","2015","05","11","22:00","7.4","","7.1","","98","","","","5","","14","","4.8","","100.35","","","","","","Fog"
"-74.04","45.68","MONTREAL MIRABEL INTL A","7034900","2015-05-11 23:00","2015","05","11","23:00","7.3","","7.2","","99","","","","4","","9","","1.6","","100.21","","","","","","Fog"
"-74.04","45.68","MONTREAL MIRABEL INTL A","7034900","2015-05-12 00:00","2015","05","12","00:00","7.2","","7.1","","99","","","","5","","12","","1.6","","100.11","","","","","","Fog"
"-74.04","45.68","MONTREAL MIRABEL INTL A","7034900","2015-05-12 01:00","2015","05","12","01:00","7.2","","7.1","","99","","","","6","","9","","1.2","","99.97","","","","","","Fog"
"-74.04","45.68","MONTREAL MIRABEL INTL A","7034900","2015-05-12 02:00","2015","05","12","02:00","7.2","","7.1","","99","","","","7","","10","","1.2","","99.82","","","","","","Drizzle,Fog"
"-74.04","45.68","MONTREAL MIRABEL INTL A","7034900","2015-05-12 03:00","2015","05","12","03:00","7.4","","7.3","","99","","","","1","","5","","1.6","","99.79","","","","","","Rain,Fog"
"-74.04","45.68","MONTREAL MIRABEL INTL A","7034900","2015-05-12 04:00","2015","05","12","04:00","7.4","","7.3","","99","","","","3","","6","","3.2","","99.70","","","","","","Fog"
"-74.04","45.68","MONTREAL MIRABEL INTL A","7034900","2015-05-12 05:00","2015","05","12","05:00","7.5","","7.4","","99","","","","5","","5","","6.4","","99.66","","","","","","Rain,Fog"
"-74.04","45.68","MONTREAL MIRABEL INTL A","7034900","2015-05-12 06:00","2015","05","12","06:00","7.8","","7.7","","99","","","","7","","3","","4.0","","99.61","","","","","","Rain,Fog"
"-74.04","45.68","MONTREAL MIRABEL INTL A","7034900","2015-05-12 07:00","2015","05","12","07:00","8.2","","8.1","","99","","","","31","","3","","4.8","","99.63","","","","","","Rain,Fog"
"-74.04","45.68","MONTREAL MIRABEL INTL A","7034900","2015-05-12 08:00","2015","05","12","08:00","9.1","","9.0","","99","","","","","","0","","1.6","","99.59","","","","","","Rain,Fog"
"-74.04","45.68","MONTREAL MIRABEL INTL A","7034900","2015-05-12 09:00","2015","05","12","09:00","11.2","","11.2","","100","","","","27","","6","","1.2","","99.56","","","","","","Fog"
"-74.04","45.68","MONTREAL MIRABEL INTL A","7034900","2015-05-12 10:00","2015","05","12","10:00","13.7","","13.7","","100","","","","25","","12","","3.2","","99.56","","","","","","Fog"
"-74.04","45.68","MONTREAL MIRABEL INTL A","7034900","2015-05-12 11:00","2015","05","12","11:00","17.5","","15.9","","90","","","","27","","9","","9.7","","99.45","","","","","","Fog"
"-74.04","45.68","MONTREAL MIRABEL INTL A","7034900","2015-05-12 12:00","2015","05","12","12:00","16.2","","14.9","","92","","","","24","","10","","9.7","","99.36","","","","","","Thunderstorms,Rain Showers,Fog"
"-74.04","45.68","MONTREAL MIRABEL INTL A","7034900","2015-05-12 13:00","2015","05","12","13:00","17.5","","17.0","","97","","","","20","","13","","16.1","","99.29","","","","","","Mostly Cloudy"
"-74.04","45.68","MONTREAL MIRABEL INTL A","7034900","2015-05-12 14:00","2015","05","12","14:00","17.9","","16.6","","92","","","","21","","19","","32.2","","99.26","","","","","","NA"
"-74.04","45.68","MONTREAL MIRABEL INTL A","7034900","2015-05-12 15:00","2015","05","12","15:00","18.1","","14.8","","81","","","","24","","11","","40.2","","99.20","","","","","","NA"
"-74.04","45.68","MONTREAL MIRABEL INTL A","7034900","2015-05-12 16:00","2015","05","12","16:00","18.1","","10.6","","61","","","","25","","22","","40.2","","99.22","","","","","","Cloudy"
"-74.04","45.68","MONTREAL MIRABEL INTL A","7034900","2015-05-12 17:00","2015","05","12","17:00","16.1","","6.6","","53","","","","25","","30","","40.2","","99.37","","","","","","NA"
"-74.04","45.68","MONTREAL MIRABEL INTL A","7034900","2015-05-12 18:00","2015","05","12","18:00","14.3","","6.0","","57","","","","25","","21","","40.2","","99.47","","","","","","NA"
"-74.04","45.68","MONTREAL MIRABEL INTL A","7034900","2015-05-12 19:00","2015","05","12","19:00","12.9","","5.9","","62","","","","25","","15","","40.2","","99.62","","","","","","Mainly Clear"
"-74.04","45.68","MONTREAL MIRABEL INTL A","7034900","2015-05-12 20:00","2015","05","12","20:00","12.9","","6.1","","63","","","","25","","20","","40.2","","99.72","","","","","","NA"
"-74.04","45.68","MONTREAL MIRABEL INTL A","7034900","2015-05-12 21:00","2015","05","12","21:00","12.2","","6.5","","68","","","","25","","17","","40.2","","99.78","","","","","","NA"
"-74.04","45.68","MONTREAL MIRABEL INTL A","7034900","2015-05-12 22:00","2015","05","12","22:00","12.1","","6.6","","69","","","","25","","21","","40.2","","99.80","","","","","","Mostly Cloudy"
"-74.04","45.68","MONTREAL MIRABEL INTL A","7034900","2015-05-12 23:00","2015","05","12","23:00","11.7","","7.3","","74","","","","25","","16","","40.2","","99.82","","","","","","NA"
"-74.04","45.68","MONTREAL MIRABEL INTL A","7034900","2015-05-13 00:00","2015","05","13","00:00","10.2","","8.7","","90","","","","29","","12","","16.1","","99.90","","","","","","Rain Showers"
"-74.04","45.68","MONTREAL MIRABEL INTL A","7034900","2015-05-13 01:00","2015","05","13","01:00","9.4","","8.5","","94","","","","31","","14","","40.2","","99.96","","","","","","Mostly Cloudy"
"-74.04","45.68","MONTREAL MIRABEL INTL A","7034900","2015-05-13 02:00","2015","05","13","02:00","8.3","","5.6","","83","","","","33","","14","","40.2","","100.06","","","","","","NA"
"-74.04","45.68","MONTREAL MIRABEL INTL A","7034900","2015-05-13 03:00","2015","05","13","03:00","7.1","","1.8","","69","","","","34","","17","","40.2","","100.19","","","","","","NA"
"-74.04","45.68","MONTREAL MIRABEL INTL A","7034900","2015-05-13 04:00","2015","05","13","04:00","6.4","","0.3","","65","","","","35","","21","","40.2","","100.33","","","","","","Mainly Clear"
"-74.04","45.68","MONTREAL MIRABEL INTL A","7034900","2015-05-13 05:00","2015","05","13","05:00","6.0","","0.8","","69","","","","34","","15","","72.4","","100.50","","","","","","NA"
"-74.04","45.68","MONTREAL MIRABEL INTL A","7034900","2015-05-13 06:00","2015","05","13","06:00","6.6","","0.5","","65","","","","34","","20","","72.4","","100.66","","","","","","NA"
"-74.04","45.68","MONTREAL MIRABEL INTL A","7034900","2015-05-13 07:00","2015","05","13","07:00","7.8","","0.5","","60","","","","36","","21","","72.4","","100.81","","","","","","Mainly Clear"
"-74.04","45.68","MONTREAL MIRABEL INTL A","7034900","2015-05-13 08:00","2015","05","13","08:00","9.2","","0.4","","54","","","","35","","11","","72.4","","100.91","","","","","","NA"
"-74.04","45.68","MONTREAL MIRABEL INTL A","7034900","2015-05-13 09:00","2015","05","13","09:00","10.6","","-1.8","","42","","","","36","","17","","72.4","","100.97","","","","","","NA"
"-74.04","45.68","MONTREAL MIRABEL INTL A","7034900","2015-05-13 10:00","2015","05","13","10:00","11.9","","-2.7","","36","","","","36","","22","","72.4","","101.02","","","","","","Mainly Clear"
"-74.04","45.68","MONTREAL MIRABEL INTL A","7034900","2015-05-13 11:00","2015","05","13","11:00","13.2","","-2.7","","33","","","","35","","18","","72.4","","101.04","","","","","","NA"
"-74.04","45.68","MONTREAL MIRABEL INTL A","7034900","2015-05-13 12:00","2015","05","13","12:00","13.6","","-1.5","","35","","","","35","","10","","72.4","","101.03","","","","","","NA"
"-74.04","45.68","MONTREAL MIRABEL INTL A","7034900","2015-05-13 13:00","2015","05","13","13:00","14.4","","-2.9","","30","","","","3","","17","","72.4","","101.01","","","","","","Mainly Clear"
"-74.04","45.68","MONTREAL MIRABEL INTL A","7034900","2015-05-13 14:00","2015","05","13","14:00","16.0","","-2.4","","28","","","","33","","17","","72.4","","101.03","","","","","","NA"
"-74.04","45.68","MONTREAL MIRABEL INTL A","7034900","2015-05-13 15:00","2015","05","13","15:00","16.0","","-2.4","","28","","","","34","","13","","72.4","","101.04","","","","","","NA"
"-74.04","45.68","MONTREAL MIRABEL INTL A","7034900","2015-05-13 16:00","2015","05","13","16:00","15.9","","-2.5","","28","","","","28","","20","","72.4","","101.07","","","","","","Clear"
"-74.04","45.68","MONTREAL MIRABEL INTL A","7034900","2015-05-13 17:00","2015","05","13","17:00","16.0","","-3.4","","26","","","","30","","18","","72.4","","101.11","","","","","","NA"
"-74.04","45.68","MONTREAL MIRABEL INTL A","7034900","2015-05-13 18:00","2015","05","13","18:00","15.4","","-3.9","","26","","","","30","","14","","72.4","","101.16","","","","","","NA"
"-74.04","45.68","MONTREAL MIRABEL INTL A","7034900","2015-05-13 19:00","2015","05","13","19:00","14.1","","-3.2","","30","","","","31","","9","","40.2","","101.20","","","","","","Clear"
"-74.04","45.68","MONTREAL MIRABEL INTL A","7034900","2015-05-13 20:00","2015","05","13","20:00","12.1","","-2.5","","36","","","","30","","8","","40.2","","101.30","","","","","","NA"
"-74.04","45.68","MONTREAL MIRABEL INTL A","7034900","2015-05-13 21:00","2015","05","13","21:00","11.5","","-3.4","","35","","","","31","","11","","40.2","","101.39","","","","","","NA"
"-74.04","45.68","MONTREAL MIRABEL INTL A","7034900","2015-05-13 22:00","2015","05","13","22:00","10.6","","-4.6","","34","","","","32","","14","","40.2","","101.46","","","","","","Clear"
"-74.04","45.68","MONTREAL MIRABEL INTL A","7034900","2015-05-13 23:00","2015","05","13","23:00","9.1","","-4.5","","38","","","","32","","10","","40.2","","101.55","","","","","","NA"
"-74.04","45.68","MONTREAL MIRABEL INTL A","7034900","2015-05-14 00:00","2015","05","14","00:00","5.1","","-2.5","","58","","","","30","","5","","40.2","","101.62","","","","","","NA"
"-74.04","45.68","MONTREAL MIRABEL INTL A","7034900","2015-05-14 01:00","2015","05","14","01:00","4.8","","-1.6","","63","","","","29","","6","","40.2","","101.67","","","","","","Clear"
"-74.04","45.68","MONTREAL MIRABEL INTL A","7034900","2015-05-14 02:00","2015","05","14","02:00","5.5","","-2.8","","55","","","","27","","11","","40.2","","101.75","","","","","","NA"
"-74.04","45.68","MONTREAL MIRABEL INTL A","7034900","2015-05-14 03:00","2015","05","14","03:00","4.3","","-2.3","","62","","","","26","","12","","40.2","","101.82","","","","","","NA"
"-74.04","45.68","MONTREAL MIRABEL INTL A","7034900","2015-05-14 04:00","2015","05","14","04:00","4.1","","-2.8","","61","","","","27","","10","","72.4","","101.86","","","","","","Clear"
"-74.04","45.68","MONTREAL MIRABEL INTL A","7034900","2015-05-14 05:00","2015","05","14","05:00","3.0","","-2.3","","68","","","","28","","7","","72.4","","101.92","","","","","","NA"
"-74.04","45.68","MONTREAL MIRABEL INTL A","7034900","2015-05-14 06:00","2015","05","14","06:00","5.6","","-2.7","","55","","","","25","","6","","72.4","","101.95","","","","","","NA"
"-74.04","45.68","MONTREAL MIRABEL INTL A","7034900","2015-05-14 07:00","2015","05","14","07:00","8.1","","-0.9","","53","","","","22","","7","","72.4","","101.99","","","","","","Clear"
"-74.04","45.68","MONTREAL MIRABEL INTL A","7034900","2015-05-14 08:00","2015","05","14","08:00","10.8","","1.1","","51","","","","25","","4","","72.4","","101.97","","","","","","NA"
"-74.04","45.68","MONTREAL MIRABEL INTL A","7034900","2015-05-14 09:00","2015","05","14","09:00","13.4","","2.4","","47","","","","23","","8","","72.4","","101.97","","","","","","NA"
"-74.04","45.68","MONTREAL MIRABEL INTL A","7034900","2015-05-14 10:00","2015","05","14","10:00","14.7","","0.2","","37","","","","24","","13","","72.4","","101.93","","","","","","Clear"
"-74.04","45.68","MONTREAL MIRABEL INTL A","7034900","2015-05-14 11:00","2015","05","14","11:00","15.3","","0.4","","36","","","","19","","12","","72.4","","101.86","","","","","","NA"
"-74.04","45.68","MONTREAL MIRABEL INTL A","7034900","2015-05-14 12:00","2015","05","14","12:00","16.2","","-0.9","","31","","","","24","","20","","72.4","","101.80","","","","","","NA"
"-74.04","45.68","MONTREAL MIRABEL INTL A","7034900","2015-05-14 13:00","2015","05","14","13:00","16.9","","1.0","","34","","","","22","","16","","72.4","","101.75","","","","","","Clear"
"-74.04","45.68","MONTREAL MIRABEL INTL A","7034900","2015-05-14 14:00","2015","05","14","14:00","17.8","","1.4","","33","","","","26","","10","","72.4","","101.67","","","","","","NA"
"-74.04","45.68","MONTREAL MIRABEL INTL A","7034900","2015-05-14 15:00","2015","05","14","15:00","17.1","","-0.5","","30","","","","26","","18","","72.4","","101.56","","","","","","NA"
"-74.04","45.68","MONTREAL MIRABEL INTL A","7034900","2015-05-14 16:00","2015","05","14","16:00","17.3","","0.6","","32","","","","25","","15","","72.4","","101.52","","","","","","Mostly Cloudy"
"-74.04","45.68","MONTREAL MIRABEL INTL A","7034900","2015-05-14 17:00","2015","05","14","17:00","17.5","","-1.1","","28","","","","26","","16","","72.4","","101.50","","","","","","NA"
"-74.04","45.68","MONTREAL MIRABEL INTL A","7034900","2015-05-14 18:00","2015","05","14","18:00","16.9","","0.2","","32","","","","25","","8","","72.4","","101.47","","","","","","NA"
"-74.04","45.68","MONTREAL MIRABEL INTL A","7034900","2015-05-14 19:00","2015","05","14","19:00","15.3","","-1.2","","32","","","","23","","8","","72.4","","101.45","","","","","","Mainly Clear"
"-74.04","45.68","MONTREAL MIRABEL INTL A","7034900","2015-05-14 20:00","2015","05","14","20:00","12.5","","-1.0","","39","","","","21","","9","","40.2","","101.47","","","","","","NA"
"-74.04","45.68","MONTREAL MIRABEL INTL A","7034900","2015-05-14 21:00","2015","05","14","21:00","12.1","","-1.7","","38","","","","23","","5","","40.2","","101.49","","","","","","NA"
"-74.04","45.68","MONTREAL MIRABEL INTL A","7034900","2015-05-14 22:00","2015","05","14","22:00","11.1","","-1.6","","41","","","","23","","5","","40.2","","101.50","","","","","","Clear"
"-74.04","45.68","MONTREAL MIRABEL INTL A","7034900","2015-05-14 23:00","2015","05","14","23:00","10.9","","-0.5","","45","","","","24","","7","","40.2","","101.52","","","","","","NA"
"-74.04","45.68","MONTREAL MIRABEL INTL A","7034900","2015-05-15 00:00","2015","05","15","00:00","9.8","","0.2","","51","","","","25","","7","","40.2","","101.49","","","","","","NA"
"-74.04","45.68","MONTREAL MIRABEL INTL A","7034900","2015-05-15 01:00","2015","05","15","01:00","8.3","","0.8","","59","","","","22","","4","","40.2","","101.46","","","","","","Clear"
"-74.04","45.68","MONTREAL MIRABEL INTL A","7034900","2015-05-15 02:00","2015","05","15","02:00","7.2","","0.9","","64","","","","","","0","","40.2","","101.47","","","","","","NA"
"-74.04","45.68","MONTREAL MIRABEL INTL A","7034900","2015-05-15 03:00","2015","05","15","03:00","6.0","","0.8","","69","","","","25","","4","","40.2","","101.48","","","","","","NA"
"-74.04","45.68","MONTREAL MIRABEL INTL A","7034900","2015-05-15 04:00","2015","05","15","04:00","5.5","","0.7","","71","","","","26","","4","","72.4","","101.48","","","","","","Mainly Clear"
"-74.04","45.68","MONTREAL MIRABEL INTL A","7034900","2015-05-15 05:00","2015","05","15","05:00","5.8","","0.8","","70","","","","23","","6","","72.4","","101.52","","","","","","NA"
"-74.04","45.68","MONTREAL MIRABEL INTL A","7034900","2015-05-15 06:00","2015","05","15","06:00","7.6","","1.9","","67","","","","22","","6","","72.4","","101.53","","","","","","NA"
"-74.04","45.68","MONTREAL MIRABEL INTL A","7034900","2015-05-15 07:00","2015","05","15","07:00","8.6","","1.8","","62","","","","21","","8","","72.4","","101.56","","","","","","Cloudy"
"-74.04","45.68","MONTREAL MIRABEL INTL A","7034900","2015-05-15 08:00","2015","05","15","08:00","10.0","","2.4","","59","","","","22","","10","","72.4","","101.55","","","","","","NA"
"-74.04","45.68","MONTREAL MIRABEL INTL A","7034900","2015-05-15 09:00","2015","05","15","09:00","11.1","","3.0","","57","","","","23","","7","","72.4","","101.50","","","","","","NA"
"-74.04","45.68","MONTREAL MIRABEL INTL A","7034900","2015-05-15 10:00","2015","05","15","10:00","12.9","","5.1","","59","","","","20","","5","","72.4","","101.50","","","","","","Cloudy"
"-74.04","45.68","MONTREAL MIRABEL INTL A","7034900","2015-05-15 11:00","2015","05","15","11:00","14.8","","4.3","","49","","","","18","","9","","72.4","","101.47","","","","","","NA"
"-74.04","45.68","MONTREAL MIRABEL INTL A","7034900","2015-05-15 12:00","2015","05","15","12:00","16.8","","5.8","","48","","","","24","","7","","72.4","","101.41","","","","","","NA"
"-74.04","45.68","MONTREAL MIRABEL INTL A","7034900","2015-05-15 13:00","2015","05","15","13:00","18.8","","3.2","","35","","","","18","","9","","72.4","","101.33","","","","","","Cloudy"
"-74.04","45.68","MONTREAL MIRABEL INTL A","7034900","2015-05-15 14:00","2015","05","15","14:00","19.5","","2.1","","31","","","","16","","4","","64.4","","101.24","","","","","","NA"
"-74.04","45.68","MONTREAL MIRABEL INTL A","7034900","2015-05-15 15:00","2015","05","15","15:00","19.8","","0.4","","27","","","","14","","7","","72.4","","101.18","","","","","","NA"
"-74.04","45.68","MONTREAL MIRABEL INTL A","7034900","2015-05-15 16:00","2015","05","15","16:00","20.1","","-1.0","","24","","","","16","","4","","72.4","","101.14","","","","","","Cloudy"
"-74.04","45.68","MONTREAL MIRABEL INTL A","7034900","2015-05-15 17:00","2015","05","15","17:00","19.4","","2.0","","31","","","","15","","4","","72.4","","101.10","","","","","","NA"
"-74.04","45.68","MONTREAL MIRABEL INTL A","7034900","2015-05-15 18:00","2015","05","15","18:00","18.4","","6.1","","44","","","","10","","5","","72.4","","101.05","","","","","","NA"
"-74.04","45.68","MONTREAL MIRABEL INTL A","7034900","2015-05-15 19:00","2015","05","15","19:00","16.4","","5.8","","49","","","","8","","5","","72.4","","101.04","","","","","","Cloudy"
"-74.04","45.68","MONTREAL MIRABEL INTL A","7034900","2015-05-15 20:00","2015","05","15","20:00","16.0","","4.5","","46","","","","5","","4","","40.2","","101.03","","","","","","NA"
"-74.04","45.68","MONTREAL MIRABEL INTL A","7034900","2015-05-15 21:00","2015","05","15","21:00","17.0","","1.1","","34","","","","31","","7","","40.2","","101.04","","","","","","NA"
"-74.04","45.68","MONTREAL MIRABEL INTL A","7034900","2015-05-15 22:00","2015","05","15","22:00","16.9","","1.0","","34","","","","36","","7","","40.2","","101.00","","","","","","Cloudy"
"-74.04","45.68","MONTREAL MIRABEL INTL A","7034900","2015-05-15 23:00","2015","05","15","23:00","15.3","","2.2","","41","","","","23","","9","","40.2","","100.99","","","","","","NA"
"-74.04","45.68","MONTREAL MIRABEL INTL A","7034900","2015-05-16 00:00","2015","05","16","00:00","15.7","","2.9","","42","","","","3","","7","","40.2","","100.93","","","","","","NA"
"-74.04","45.68","MONTREAL MIRABEL INTL A","7034900","2015-05-16 01:00","2015","05","16","01:00","14.6","","2.9","","45","","","","6","","5","","40.2","","100.89","","","","","","Cloudy"
"-74.04","45.68","MONTREAL MIRABEL INTL A","7034900","2015-05-16 02:00","2015","05","16","02:00","13.9","","4.3","","52","","","","1","","4","","40.2","","100.85","","","","","","NA"
"-74.04","45.68","MONTREAL MIRABEL INTL A","7034900","2015-05-16 03:00","2015","05","16","03:00","13.4","","4.6","","55","","","","32","","10","","40.2","","100.81","","","","","","NA"
"-74.04","45.68","MONTREAL MIRABEL INTL A","7034900","2015-05-16 04:00","2015","05","16","04:00","13.1","","5.6","","60","","","","8","","7","","40.2","","100.84","","","","","","Cloudy"
"-74.04","45.68","MONTREAL MIRABEL INTL A","7034900","2015-05-16 05:00","2015","05","16","05:00","13.5","","5.2","","57","","","","4","","6","","40.2","","100.84","","","","","","NA"
"-74.04","45.68","MONTREAL MIRABEL INTL A","7034900","2015-05-16 06:00","2015","05","16","06:00","13.6","","6.0","","60","","","","35","","8","","72.4","","100.90","","","","","","NA"
"-74.04","45.68","MONTREAL MIRABEL INTL A","7034900","2015-05-16 07:00","2015","05","16","07:00","13.3","","7.1","","66","","","","6","","4","","32.2","","100.92","","","","","","Cloudy"
"-74.04","45.68","MONTREAL MIRABEL INTL A","7034900","2015-05-16 08:00","2015","05","16","08:00","14.2","","7.3","","63","","","","34","","4","","40.2","","100.91","","","","","","NA"
"-74.04","45.68","MONTREAL MIRABEL INTL A","7034900","2015-05-16 09:00","2015","05","16","09:00","15.8","","8.1","","60","","","","35","","3","","40.2","","100.88","","","","","","NA"
"-74.04","45.68","MONTREAL MIRABEL INTL A","7034900","2015-05-16 10:00","2015","05","16","10:00","16.5","","8.8","","60","","","","15","","3","","40.2","","100.90","","","","","","Cloudy"
"-74.04","45.68","MONTREAL MIRABEL INTL A","7034900","2015-05-16 11:00","2015","05","16","11:00","18.0","","10.5","","61","","","","11","","7","","32.2","","100.86","","","","","","NA"
"-74.04","45.68","MONTREAL MIRABEL INTL A","7034900","2015-05-16 12:00","2015","05","16","12:00","19.0","","12.8","","67","","","","10","","5","","24.1","","100.77","","","","","","NA"
"-74.04","45.68","MONTREAL MIRABEL INTL A","7034900","2015-05-16 13:00","2015","05","16","13:00","19.0","","14.1","","73","","","","14","","3","","32.2","","100.73","","","","","","Cloudy"
"-74.04","45.68","MONTREAL MIRABEL INTL A","7034900","2015-05-16 14:00","2015","05","16","14:00","19.4","","14.5","","73","","","","20","","6","","16.1","","100.72","","","","","","NA"
"-74.04","45.68","MONTREAL MIRABEL INTL A","7034900","2015-05-16 15:00","2015","05","16","15:00","19.2","","14.9","","76","","","","17","","3","","24.1","","100.68","","","","","","NA"
"-74.04","45.68","MONTREAL MIRABEL INTL A","7034900","2015-05-16 16:00","2015","05","16","16:00","19.7","","14.8","","73","","","","25","","5","","24.1","","100.68","","","","","","Cloudy"
"-74.04","45.68","MONTREAL MIRABEL INTL A","7034900","2015-05-16 17:00","2015","05","16","17:00","19.9","","15.0","","73","","","","23","","4","","24.1","","100.69","","","","","","NA"
"-74.04","45.68","MONTREAL MIRABEL INTL A","7034900","2015-05-16 18:00","2015","05","16","18:00","19.4","","15.5","","78","","","","21","","4","","24.1","","100.71","","","","","","NA"
"-74.04","45.68","MONTREAL MIRABEL INTL A","7034900","2015-05-16 19:00","2015","05","16","19:00","18.5","","15.4","","82","","","","","","0","","24.1","","100.74","","","","","","Mostly Cloudy"
"-74.04","45.68","MONTREAL MIRABEL INTL A","7034900","2015-05-16 20:00","2015","05","16","20:00","17.5","","15.5","","88","","","","","","0","","24.1","","100.80","","","","","","NA"
"-74.04","45.68","MONTREAL MIRABEL INTL A","7034900","2015-05-16 21:00","2015","05","16","21:00","18.1","","15.0","","82","","","","25","","3","","24.1","","100.87","","","","","","NA"
"-74.04","45.68","MONTREAL MIRABEL INTL A","7034900","2015-05-16 22:00","2015","05","16","22:00","16.7","","15.2","","91","","","","28","","4","","24.1","","100.88","","","","","","Cloudy"
"-74.04","45.68","MONTREAL MIRABEL INTL A","7034900","2015-05-16 23:00","2015","05","16","23:00","16.3","","15.2","","93","","","","29","","4","","16.1","","100.90","","","","","","NA"
"-74.04","45.68","MONTREAL MIRABEL INTL A","7034900","2015-05-17 00:00","2015","05","17","00:00","15.6","","14.8","","95","","","","","","0","","16.1","","100.93","","","","","","NA"
"-74.04","45.68","MONTREAL MIRABEL INTL A","7034900","2015-05-17 01:00","2015","05","17","01:00","14.6","","14.5","","99","","","","34","","4","","24.1","","100.91","","","","","","Cloudy"
"-74.04","45.68","MONTREAL MIRABEL INTL A","7034900","2015-05-17 02:00","2015","05","17","02:00","14.6","","14.0","","96","","","","32","","5","","24.1","","100.92","","","","","","NA"
"-74.04","45.68","MONTREAL MIRABEL INTL A","7034900","2015-05-17 03:00","2015","05","17","03:00","14.7","","13.1","","90","","","","34","","9","","24.1","","100.97","","","","","","NA"
"-74.04","45.68","MONTREAL MIRABEL INTL A","7034900","2015-05-17 04:00","2015","05","17","04:00","13.7","","12.6","","93","","","","35","","5","","40.2","","101.02","","","","","","Mostly Cloudy"
"-74.04","45.68","MONTREAL MIRABEL INTL A","7034900","2015-05-17 05:00","2015","05","17","05:00","13.2","","11.9","","92","","","","34","","8","","32.2","","101.11","","","","","","NA"
"-74.04","45.68","MONTREAL MIRABEL INTL A","7034900","2015-05-17 06:00","2015","05","17","06:00","14.3","","12.0","","86","","","","34","","5","","32.2","","101.20","","","","","","NA"
"-74.04","45.68","MONTREAL MIRABEL INTL A","7034900","2015-05-17 07:00","2015","05","17","07:00","16.1","","11.9","","76","","","","2","","6","","72.4","","101.24","","","","","","Mostly Cloudy"
"-74.04","45.68","MONTREAL MIRABEL INTL A","7034900","2015-05-17 08:00","2015","05","17","08:00","17.3","","10.3","","63","","","","4","","5","","72.4","","101.29","","","","","","NA"
"-74.04","45.68","MONTREAL MIRABEL INTL A","7034900","2015-05-17 09:00","2015","05","17","09:00","19.2","","8.9","","51","","","","12","","9","","72.4","","101.26","","","","","","NA"
"-74.04","45.68","MONTREAL MIRABEL INTL A","7034900","2015-05-17 10:00","2015","05","17","10:00","19.8","","8.9","","49","","","","","","0","","72.4","","101.23","","","","","","Mainly Clear"
"-74.04","45.68","MONTREAL MIRABEL INTL A","7034900","2015-05-17 11:00","2015","05","17","11:00","21.1","","9.2","","46","","","","31","","4","","72.4","","101.21","","","","","","NA"
"-74.04","45.68","MONTREAL MIRABEL INTL A","7034900","2015-05-17 12:00","2015","05","17","12:00","21.7","","9.1","","44","","","","20","","10","","72.4","","101.18","","","","","","NA"
"-74.04","45.68","MONTREAL MIRABEL INTL A","7034900","2015-05-17 13:00","2015","05","17","13:00","21.9","","8.9","","43","","","","25","","13","","72.4","","101.18","","","","","","Mainly Clear"
"-74.04","45.68","MONTREAL MIRABEL INTL A","7034900","2015-05-17 14:00","2015","05","17","14:00","22.7","","9.7","","43","","","","13","","8","","72.4","","101.14","","","","","","NA"
"-74.04","45.68","MONTREAL MIRABEL INTL A","7034900","2015-05-17 15:00","2015","05","17","15:00","23.2","","9.4","","41","","","","22","","9","","72.4","","101.12","","","","","","NA"
"-74.04","45.68","MONTREAL MIRABEL INTL A","7034900","2015-05-17 16:00","2015","05","17","16:00","23.9","","10.4","","42","","","","19","","10","","72.4","","101.05","","25","","","","Mainly Clear"
"-74.04","45.68","MONTREAL MIRABEL INTL A","7034900","2015-05-17 17:00","2015","05","17","17:00","23.5","","10.0","","42","","","","15","","8","","72.4","","101.00","","25","","","","NA"
"-74.04","45.68","MONTREAL MIRABEL INTL A","7034900","2015-05-17 18:00","2015","05","17","18:00","21.9","","10.6","","48","","","","20","","8","","72.4","","101.01","","","","","","NA"
"-74.04","45.68","MONTREAL MIRABEL INTL A","7034900","2015-05-17 19:00","2015","05","17","19:00","19.7","","10.3","","54","","","","23","","3","","72.4","","101.07","","","","","","Mostly Cloudy"
"-74.04","45.68","MONTREAL MIRABEL INTL A","7034900","2015-05-17 20:00","2015","05","17","20:00","16.1","","10.3","","68","","","","15","","9","","40.2","","101.09","","","","","","NA"
"-74.04","45.68","MONTREAL MIRABEL INTL A","7034900","2015-05-17 21:00","2015","05","17","21:00","16.6","","9.1","","61","","","","14","","3","","40.2","","101.13","","","","","","NA"
"-74.04","45.68","MONTREAL MIRABEL INTL A","7034900","2015-05-17 22:00","2015","05","17","22:00","14.6","","9.5","","71","","","","","","0","","40.2","","101.13","","","","","","Mainly Clear"
"-74.04","45.68","MONTREAL MIRABEL INTL A","7034900","2015-05-17 23:00","2015","05","17","23:00","13.5","","10.2","","80","","","","4","","8","","40.2","","101.15","","","","","","NA"
"-74.04","45.68","MONTREAL MIRABEL INTL A","7034900","2015-05-18 00:00","2015","05","18","00:00","13.9","","10.5","","80","","","","2","","10","","40.2","","101.11","","","","","","NA"
"-74.04","45.68","MONTREAL MIRABEL INTL A","7034900","2015-05-18 01:00","2015","05","18","01:00","13.4","","9.9","","79","","","","1","","9","","40.2","","101.06","","","","","","Clear"
"-74.04","45.68","MONTREAL MIRABEL INTL A","7034900","2015-05-18 02:00","2015","05","18","02:00","13.1","","9.4","","78","","","","3","","9","","40.2","","101.06","","","","","","NA"
"-74.04","45.68","MONTREAL MIRABEL INTL A","7034900","2015-05-18 03:00","2015","05","18","03:00","12.8","","9.1","","78","","","","2","","4","","40.2","","101.09","","","","","","NA"
"-74.04","45.68","MONTREAL MIRABEL INTL A","7034900","2015-05-18 04:00","2015","05","18","04:00","11.2","","9.0","","86","","","","3","","6","","40.2","","101.02","","","","","","Mainly Clear"
"-74.04","45.68","MONTREAL MIRABEL INTL A","7034900","2015-05-18 05:00","2015","05","18","05:00","10.9","","9.0","","88","","","","3","","4","","24.1","","101.04","","","","","","NA"
"-74.04","45.68","MONTREAL MIRABEL INTL A","7034900","2015-05-18 06:00","2015","05","18","06:00","12.0","","9.2","","83","","","","5","","14","","24.1","","101.01","","","","","","NA"
"-74.04","45.68","MONTREAL MIRABEL INTL A","7034900","2015-05-18 07:00","2015","05","18","07:00","13.3","","9.8","","79","","","","7","","12","","32.2","","101.01","","","","","","Cloudy"
"-74.04","45.68","MONTREAL MIRABEL INTL A","7034900","2015-05-18 08:00","2015","05","18","08:00","15.0","","10.7","","75","","","","6","","10","","32.2","","100.95","","","","","","NA"
"-74.04","45.68","MONTREAL MIRABEL INTL A","7034900","2015-05-18 09:00","2015","05","18","09:00","17.4","","11.1","","66","","","","7","","13","","32.2","","100.90","","","","","","NA"
"-74.04","45.68","MONTREAL MIRABEL INTL A","7034900","2015-05-18 10:00","2015","05","18","10:00","19.9","","13.2","","65","","","","12","","7","","24.1","","100.86","","","","","","Mostly Cloudy"
"-74.04","45.68","MONTREAL MIRABEL INTL A","7034900","2015-05-18 11:00","2015","05","18","11:00","21.8","","13.6","","59","","","","13","","10","","32.2","","100.78","","25","","","","NA"
"-74.04","45.68","MONTREAL MIRABEL INTL A","7034900","2015-05-18 12:00","2015","05","18","12:00","23.8","","12.9","","50","","","","15","","11","","40.2","","100.70","","27","","","","NA"
"-74.04","45.68","MONTREAL MIRABEL INTL A","7034900","2015-05-18 13:00","2015","05","18","13:00","25.4","","13.5","","47","","","","23","","6","","56.3","","100.60","","28","","","","Mostly Cloudy"
"-74.04","45.68","MONTREAL MIRABEL INTL A","7034900","2015-05-18 14:00","2015","05","18","14:00","26.3","","14.9","","49","","","","22","","9","","56.3","","100.52","","30","","","","NA"
"-74.04","45.68","MONTREAL MIRABEL INTL A","7034900","2015-05-18 15:00","2015","05","18","15:00","25.1","","15.9","","56","","","","16","","6","","24.1","","100.47","","30","","","","Rain Showers"
"-74.04","45.68","MONTREAL MIRABEL INTL A","7034900","2015-05-18 16:00","2015","05","18","16:00","25.2","","18.0","","64","","","","9","","7","","40.2","","100.34","","31","","","","Rain Showers"
"-74.04","45.68","MONTREAL MIRABEL INTL A","7034900","2015-05-18 17:00","2015","05","18","17:00","25.4","","19.0","","67","","","","9","","5","","40.2","","100.24","","32","","","","Rain Showers"
"-74.04","45.68","MONTREAL MIRABEL INTL A","7034900","2015-05-18 18:00","2015","05","18","18:00","24.6","","19.5","","73","","","","11","","7","","32.2","","100.16","","32","","","","Rain Showers"
"-74.04","45.68","MONTREAL MIRABEL INTL A","7034900","2015-05-18 19:00","2015","05","18","19:00","22.4","","18.8","","80","","","","32","","27","","12.9","","100.25","","29","","","","Rain Showers"
"-74.04","45.68","MONTREAL MIRABEL INTL A","7034900","2015-05-18 20:00","2015","05","18","20:00","19.5","","18.5","","94","","","","36","","14","","16.1","","100.30","","","","","","Thunderstorms,Rain Showers"
"-74.04","45.68","MONTREAL MIRABEL INTL A","7034900","2015-05-18 21:00","2015","05","18","21:00","18.9","","18.4","","97","","","","14","","7","","40.2","","100.24","","","","","","NA"
"-74.04","45.68","MONTREAL MIRABEL INTL A","7034900","2015-05-18 22:00","2015","05","18","22:00","18.7","","18.5","","99","","","","15","","5","","40.2","","100.23","","","","","","Rain Showers"
"-74.04","45.68","MONTREAL MIRABEL INTL A","7034900","2015-05-18 23:00","2015","05","18","23:00","18.4","","18.4","","100","","","","17","","9","","40.2","","100.20","","","","","","NA"
"-74.04","45.68","MONTREAL MIRABEL INTL A","7034900","2015-05-19 00:00","2015","05","19","00:00","18.4","","18.4","","100","","","","35","","3","","40.2","","100.15","","","","","","NA"
"-74.04","45.68","MONTREAL MIRABEL INTL A","7034900","2015-05-19 01:00","2015","05","19","01:00","18.7","","18.7","","100","","","","4","","4","","24.1","","100.09","","","","","","Cloudy"
"-74.04","45.68","MONTREAL MIRABEL INTL A","7034900","2015-05-19 02:00","2015","05","19","02:00","18.2","","18.2","","100","","","","7","","4","","1.2","","100.04","","","","","","Fog"
"-74.04","45.68","MONTREAL MIRABEL INTL A","7034900","2015-05-19 03:00","2015","05","19","03:00","17.7","","17.5","","99","","","","","","0","","2.4","","99.98","","","","","","Fog"
"-74.04","45.68","MONTREAL MIRABEL INTL A","7034900","2015-05-19 04:00","2015","05","19","04:00","17.3","","17.1","","99","","","","","","0","","0.6","","99.94","","","","","","Fog"
"-74.04","45.68","MONTREAL MIRABEL INTL A","7034900","2015-05-19 05:00","2015","05","19","05:00","17.1","","16.9","","99","","","","","","0","","1.6","","99.92","","","","","","Fog"
"-74.04","45.68","MONTREAL MIRABEL INTL A","7034900","2015-05-19 06:00","2015","05","19","06:00","18.3","","18.1","","99","","","","17","","4","","4.0","","99.90","","","","","","Fog"
"-74.04","45.68","MONTREAL MIRABEL INTL A","7034900","2015-05-19 07:00","2015","05","19","07:00","19.5","","19.5","","100","","","","22","","9","","8.1","","99.87","","","","","","Fog"
"-74.04","45.68","MONTREAL MIRABEL INTL A","7034900","2015-05-19 08:00","2015","05","19","08:00","19.8","","18.8","","94","","","","23","","7","","9.7","","99.85","","","","","","Fog"
"-74.04","45.68","MONTREAL MIRABEL INTL A","7034900","2015-05-19 09:00","2015","05","19","09:00","20.5","","19.2","","92","","","","24","","7","","9.7","","99.79","","27","","","","Fog"
"-74.04","45.68","MONTREAL MIRABEL INTL A","7034900","2015-05-19 10:00","2015","05","19","10:00","22.2","","19.8","","86","","","","20","","11","","19.3","","99.73","","30","","","","Mostly Cloudy"
"-74.04","45.68","MONTREAL MIRABEL INTL A","7034900","2015-05-19 11:00","2015","05","19","11:00","24.4","","19.3","","73","","","","22","","14","","32.2","","99.69","","31","","","","NA"
"-74.04","45.68","MONTREAL MIRABEL INTL A","7034900","2015-05-19 12:00","2015","05","19","12:00","24.8","","18.1","","66","","","","24","","13","","32.2","","99.59","","31","","","","NA"
"-74.04","45.68","MONTREAL MIRABEL INTL A","7034900","2015-05-19 13:00","2015","05","19","13:00","25.4","","15.9","","55","","","","22","","22","","32.2","","99.49","","30","","","","Mostly Cloudy"
"-74.04","45.68","MONTREAL MIRABEL INTL A","7034900","2015-05-19 14:00","2015","05","19","14:00","26.0","","14.7","","49","","","","25","","16","","40.2","","99.42","","30","","","","NA"
"-74.04","45.68","MONTREAL MIRABEL INTL A","7034900","2015-05-19 15:00","2015","05","19","15:00","26.0","","9.2","","34","","","","24","","25","","40.2","","99.34","","27","","","","NA"
"-74.04","45.68","MONTREAL MIRABEL INTL A","7034900","2015-05-19 16:00","2015","05","19","16:00","25.5","","9.1","","35","","","","23","","21","","40.2","","99.31","","26","","","","Mainly Clear"
"-74.04","45.68","MONTREAL MIRABEL INTL A","7034900","2015-05-19 17:00","2015","05","19","17:00","23.9","","10.4","","42","","","","22","","28","","40.2","","99.32","","25","","","","NA"
"-74.04","45.68","MONTREAL MIRABEL INTL A","7034900","2015-05-19 18:00","2015","05","19","18:00","20.9","","9.6","","48","","","","30","","22","","40.2","","99.42","","","","","","NA"
"-74.04","45.68","MONTREAL MIRABEL INTL A","7034900","2015-05-19 19:00","2015","05","19","19:00","18.2","","8.3","","52","","","","28","","18","","40.2","","99.63","","","","","","Mostly Cloudy"
"-74.04","45.68","MONTREAL MIRABEL INTL A","7034900","2015-05-19 20:00","2015","05","19","20:00","16.2","","6.7","","53","","","","29","","12","","40.2","","99.69","","","","","","NA"
"-74.04","45.68","MONTREAL MIRABEL INTL A","7034900","2015-05-19 21:00","2015","05","19","21:00","14.4","","6.3","","58","","","","27","","10","","40.2","","99.77","","","","","","NA"
"-74.04","45.68","MONTREAL MIRABEL INTL A","7034900","2015-05-19 22:00","2015","05","19","22:00","14.5","","5.9","","56","","","","28","","8","","40.2","","99.72","","","","","","Mostly Cloudy"
"-74.04","45.68","MONTREAL MIRABEL INTL A","7034900","2015-05-19 23:00","2015","05","19","23:00","13.2","","4.7","","56","","","","32","","15","","40.2","","99.81","","","","","","NA"
"-74.04","45.68","MONTREAL MIRABEL INTL A","7034900","2015-05-20 00:00","2015","05","20","00:00","11.5","","3.8","","59","","","","32","","18","","40.2","","99.86","","","","","","NA"
"-74.04","45.68","MONTREAL MIRABEL INTL A","7034900","2015-05-20 01:00","2015","05","20","01:00","10.6","","3.7","","62","","","","31","","10","","40.2","","99.88","","","","","","Cloudy"
"-74.04","45.68","MONTREAL MIRABEL INTL A","7034900","2015-05-20 02:00","2015","05","20","02:00","9.9","","2.5","","60","","","","30","","16","","40.2","","99.90","","","","","","NA"
"-74.04","45.68","MONTREAL MIRABEL INTL A","7034900","2015-05-20 03:00","2015","05","20","03:00","9.0","","2.4","","63","","","","28","","9","","40.2","","99.90","","","","","","NA"
"-74.04","45.68","MONTREAL MIRABEL INTL A","7034900","2015-05-20 04:00","2015","05","20","04:00","7.6","","1.7","","66","","","","31","","12","","72.4","","99.93","","","","","","Cloudy"
"-74.04","45.68","MONTREAL MIRABEL INTL A","7034900","2015-05-20 05:00","2015","05","20","05:00","6.4","","0.3","","65","","","","30","","14","","72.4","","100.00","","","","","","NA"
"-74.04","45.68","MONTREAL MIRABEL INTL A","7034900","2015-05-20 06:00","2015","05","20","06:00","5.8","","-0.5","","64","","","","29","","12","","72.4","","100.06","","","","","","NA"
"-74.04","45.68","MONTREAL MIRABEL INTL A","7034900","2015-05-20 07:00","2015","05","20","07:00","5.7","","-1.0","","62","","","","29","","14","","72.4","","100.10","","","","","","Mostly Cloudy"
"-74.04","45.68","MONTREAL MIRABEL INTL A","7034900","2015-05-20 08:00","2015","05","20","08:00","6.3","","-0.7","","61","","","","29","","18","","72.4","","100.12","","","","","","NA"
"-74.04","45.68","MONTREAL MIRABEL INTL A","7034900","2015-05-20 09:00","2015","05","20","09:00","7.5","","0.0","","59","","","","31","","14","","72.4","","100.14","","","","","","NA"
"-74.04","45.68","MONTREAL MIRABEL INTL A","7034900","2015-05-20 10:00","2015","05","20","10:00","7.9","","-0.3","","56","","","","29","","25","","72.4","","100.19","","","","","","Mostly Cloudy"
"-74.04","45.68","MONTREAL MIRABEL INTL A","7034900","2015-05-20 11:00","2015","05","20","11:00","9.7","","-1.0","","47","","","","31","","17","","72.4","","100.20","","","","","","NA"
"-74.04","45.68","MONTREAL MIRABEL INTL A","7034900","2015-05-20 12:00","2015","05","20","12:00","11.4","","-2.4","","38","","","","32","","27","","72.4","","100.18","","","","","","NA"
"-74.04","45.68","MONTREAL MIRABEL INTL A","7034900","2015-05-20 13:00","2015","05","20","13:00","13.0","","-2.9","","33","","","","29","","13","","72.4","","100.11","","","","","","Mainly Clear"
"-74.04","45.68","MONTREAL MIRABEL INTL A","7034900","2015-05-20 14:00","2015","05","20","14:00","13.6","","-5.5","","26","","","","31","","21","","72.4","","100.11","","","","","","NA"
"-74.04","45.68","MONTREAL MIRABEL INTL A","7034900","2015-05-20 15:00","2015","05","20","15:00","14.1","","-5.1","","26","","","","29","","18","","72.4","","100.09","","","","","","NA"
"-74.04","45.68","MONTREAL MIRABEL INTL A","7034900","2015-05-20 16:00","2015","05","20","16:00","14.6","","-5.7","","24","","","","29","","17","","72.4","","100.14","","","","","","Clear"
"-74.04","45.68","MONTREAL MIRABEL INTL A","7034900","2015-05-20 17:00","2015","05","20","17:00","14.8","","-7.3","","21","","","","32","","21","","72.4","","100.14","","","","","","NA"
"-74.04","45.68","MONTREAL MIRABEL INTL A","7034900","2015-05-20 18:00","2015","05","20","18:00","14.2","","-6.6","","23","","","","30","","15","","72.4","","100.17","","","","","","NA"
"-74.04","45.68","MONTREAL MIRABEL INTL A","7034900","2015-05-20 19:00","2015","05","20","19:00","13.0","","-6.0","","26","","","","32","","17","","72.4","","100.21","","","","","","Mainly Clear"
"-74.04","45.68","MONTREAL MIRABEL INTL A","7034900","2015-05-20 20:00","2015","05","20","20:00","10.0","","-4.4","","36","","","","22","","6","","40.2","","100.21","","","","","","NA"
"-74.04","45.68","MONTREAL MIRABEL INTL A","7034900","2015-05-20 21:00","2015","05","20","21:00","9.3","","-3.6","","40","","","","25","","6","","40.2","","100.22","","","","","","NA"
"-74.04","45.68","MONTREAL MIRABEL INTL A","7034900","2015-05-20 22:00","2015","05","20","22:00","8.9","","-2.7","","44","","","","26","","5","","40.2","","100.22","","","","","","Clear"
"-74.04","45.68","MONTREAL MIRABEL INTL A","7034900","2015-05-20 23:00","2015","05","20","23:00","8.1","","-2.2","","48","","","","25","","5","","40.2","","100.18","","","","","","NA"
"-74.04","45.68","MONTREAL MIRABEL INTL A","7034900","2015-05-21 00:00","2015","05","21","00:00","7.5","","-1.7","","52","","","","24","","5","","40.2","","100.17","","","","","","NA"
"-74.04","45.68","MONTREAL MIRABEL INTL A","7034900","2015-05-21 01:00","2015","05","21","01:00","7.3","","-1.6","","53","","","","24","","10","","40.2","","100.17","","","","","","Mostly Cloudy"
"-74.04","45.68","MONTREAL MIRABEL INTL A","7034900","2015-05-21 02:00","2015","05","21","02:00","7.1","","-0.4","","59","","","","24","","9","","40.2","","100.20","","","","","","NA"
"-74.04","45.68","MONTREAL MIRABEL INTL A","7034900","2015-05-21 03:00","2015","05","21","03:00","6.7","","1.0","","67","","","","26","","10","","40.2","","100.17","","","","","","NA"
"-74.04","45.68","MONTREAL MIRABEL INTL A","7034900","2015-05-21 04:00","2015","05","21","04:00","6.4","","1.7","","72","","","","25","","8","","72.4","","100.18","","","","","","Mostly Cloudy"
"-74.04","45.68","MONTREAL MIRABEL INTL A","7034900","2015-05-21 05:00","2015","05","21","05:00","6.5","","2.4","","75","","","","24","","10","","72.4","","100.19","","","","","","NA"
"-74.04","45.68","MONTREAL MIRABEL INTL A","7034900","2015-05-21 06:00","2015","05","21","06:00","7.3","","2.8","","73","","","","25","","9","","72.4","","100.23","","","","","","NA"
"-74.04","45.68","MONTREAL MIRABEL INTL A","7034900","2015-05-21 07:00","2015","05","21","07:00","8.0","","3.1","","71","","","","23","","10","","72.4","","100.25","","","","","","Cloudy"
"-74.04","45.68","MONTREAL MIRABEL INTL A","7034900","2015-05-21 08:00","2015","05","21","08:00","9.5","","3.7","","67","","","","24","","13","","72.4","","100.19","","","","","","NA"
"-74.04","45.68","MONTREAL MIRABEL INTL A","7034900","2015-05-21 09:00","2015","05","21","09:00","12.4","","3.9","","56","","","","24","","16","","72.4","","100.14","","","","","","NA"
"-74.04","45.68","MONTREAL MIRABEL INTL A","7034900","2015-05-21 10:00","2015","05","21","10:00","14.4","","4.5","","51","","","","23","","14","","72.4","","100.10","","","","","","Mostly Cloudy"
"-74.04","45.68","MONTREAL MIRABEL INTL A","7034900","2015-05-21 11:00","2015","05","21","11:00","15.5","","3.7","","45","","","","25","","16","","72.4","","100.04","","","","","","NA"
"-74.04","45.68","MONTREAL MIRABEL INTL A","7034900","2015-05-21 12:00","2015","05","21","12:00","18.0","","5.0","","42","","","","23","","9","","72.4","","99.96","","","","","","NA"
"-74.04","45.68","MONTREAL MIRABEL INTL A","7034900","2015-05-21 13:00","2015","05","21","13:00","18.5","","3.7","","37","","","","26","","13","","72.4","","99.90","","","","","","Mainly Clear"
"-74.04","45.68","MONTREAL MIRABEL INTL A","7034900","2015-05-21 14:00","2015","05","21","14:00","18.5","","2.1","","33","","","","21","","21","","72.4","","99.85","","","","","","NA"
"-74.04","45.68","MONTREAL MIRABEL INTL A","7034900","2015-05-21 15:00","2015","05","21","15:00","19.1","","2.2","","32","","","","25","","18","","72.4","","99.81","","","","","","NA"
"-74.04","45.68","MONTREAL MIRABEL INTL A","7034900","2015-05-21 16:00","2015","05","21","16:00","18.8","","1.9","","32","","","","22","","23","","72.4","","99.76","","","","","","Mostly Cloudy"
"-74.04","45.68","MONTREAL MIRABEL INTL A","7034900","2015-05-21 17:00","2015","05","21","17:00","18.4","","2.8","","35","","","","22","","22","","72.4","","99.75","","","","","","NA"
"-74.04","45.68","MONTREAL MIRABEL INTL A","7034900","2015-05-21 18:00","2015","05","21","18:00","17.0","","2.3","","37","","","","22","","17","","72.4","","99.75","","","","","","NA"
"-74.04","45.68","MONTREAL MIRABEL INTL A","7034900","2015-05-21 19:00","2015","05","21","19:00","15.6","","1.8","","39","","","","22","","13","","72.4","","99.78","","","","","","Mostly Cloudy"
"-74.04","45.68","MONTREAL MIRABEL INTL A","7034900","2015-05-21 20:00","2015","05","21","20:00","14.7","","1.3","","40","","","","23","","13","","40.2","","99.83","","","","","","NA"
"-74.04","45.68","MONTREAL MIRABEL INTL A","7034900","2015-05-21 21:00","2015","05","21","21:00","13.1","","0.9","","43","","","","24","","7","","40.2","","99.90","","","","","","NA"
"-74.04","45.68","MONTREAL MIRABEL INTL A","7034900","2015-05-21 22:00","2015","05","21","22:00","12.2","","0.7","","45","","","","22","","10","","40.2","","99.87","","","","","","Mostly Cloudy"
"-74.04","45.68","MONTREAL MIRABEL INTL A","7034900","2015-05-21 23:00","2015","05","21","23:00","12.0","","0.8","","46","","","","29","","4","","40.2","","99.87","","","","","","NA"
"-74.04","45.68","MONTREAL MIRABEL INTL A","7034900","2015-05-22 00:00","2015","05","22","00:00","11.2","","2.0","","53","","","","22","","9","","40.2","","99.86","","","","","","NA"
"-74.04","45.68","MONTREAL MIRABEL INTL A","7034900","2015-05-22 01:00","2015","05","22","01:00","11.0","","5.2","","67","","","","5","","8","","40.2","","99.80","","","","","","Cloudy"
"-74.04","45.68","MONTREAL MIRABEL INTL A","7034900","2015-05-22 02:00","2015","05","22","02:00","10.0","","5.8","","75","","","","4","","3","","40.2","","99.82","","","","","","NA"
"-74.04","45.68","MONTREAL MIRABEL INTL A","7034900","2015-05-22 03:00","2015","05","22","03:00","9.0","","6.1","","82","","","","4","","7","","40.2","","99.80","","","","","","Rain Showers"
"-74.04","45.68","MONTREAL MIRABEL INTL A","7034900","2015-05-22 04:00","2015","05","22","04:00","8.9","","5.8","","81","","","","36","","11","","40.2","","99.91","","","","","","Rain Showers"
"-74.04","45.68","MONTREAL MIRABEL INTL A","7034900","2015-05-22 05:00","2015","05","22","05:00","8.2","","6.8","","91","","","","6","","5","","32.2","","99.96","","","","","","Rain Showers"
"-74.04","45.68","MONTREAL MIRABEL INTL A","7034900","2015-05-22 06:00","2015","05","22","06:00","7.7","","4.8","","82","","","","36","","12","","72.4","","100.07","","","","","","NA"
"-74.04","45.68","MONTREAL MIRABEL INTL A","7034900","2015-05-22 07:00","2015","05","22","07:00","7.8","","3.3","","73","","","","36","","16","","72.4","","100.19","","","","","","Mostly Cloudy"
"-74.04","45.68","MONTREAL MIRABEL INTL A","7034900","2015-05-22 08:00","2015","05","22","08:00","8.4","","2.7","","67","","","","1","","3","","72.4","","100.25","","","","","","NA"
"-74.04","45.68","MONTREAL MIRABEL INTL A","7034900","2015-05-22 09:00","2015","05","22","09:00","9.2","","0.4","","54","","","","32","","6","","72.4","","100.30","","","","","","NA"
"-74.04","45.68","MONTREAL MIRABEL INTL A","7034900","2015-05-22 10:00","2015","05","22","10:00","11.0","","0.2","","47","","","","29","","13","","72.4","","100.31","","","","","","Mostly Cloudy"
"-74.04","45.68","MONTREAL MIRABEL INTL A","7034900","2015-05-22 11:00","2015","05","22","11:00","11.9","","0.7","","46","","","","27","","13","","72.4","","100.35","","","","","","NA"
"-74.04","45.68","MONTREAL MIRABEL INTL A","7034900","2015-05-22 12:00","2015","05","22","12:00","11.0","","0.5","","48","","","","30","","16","","72.4","","100.41","","","","","","NA"
"-74.04","45.68","MONTREAL MIRABEL INTL A","7034900","2015-05-22 13:00","2015","05","22","13:00","9.8","","0.7","","53","","","","27","","14","","40.2","","100.46","","","","","","Mostly Cloudy"
"-74.04","45.68","MONTREAL MIRABEL INTL A","7034900","2015-05-22 14:00","2015","05","22","14:00","11.6","","-2.9","","36","","","","29","","21","","72.4","","100.48","","","","","","NA"
"-74.04","45.68","MONTREAL MIRABEL INTL A","7034900","2015-05-22 15:00","2015","05","22","15:00","10.0","","-4.7","","35","","","","32","","25","","72.4","","100.60","","","","","","NA"
"-74.04","45.68","MONTREAL MIRABEL INTL A","7034900","2015-05-22 16:00","2015","05","22","16:00","8.5","","-5.7","","36","","","","32","","27","","72.4","","100.72","","","","","","Mainly Clear"
"-74.04","45.68","MONTREAL MIRABEL INTL A","7034900","2015-05-22 17:00","2015","05","22","17:00","7.8","","-6.0","","37","","","","34","","25","","72.4","","100.82","","","","","","NA"
"-74.04","45.68","MONTREAL MIRABEL INTL A","7034900","2015-05-22 18:00","2015","05","22","18:00","6.7","","-7.3","","36","","","","33","","25","","72.4","","100.89","","","","","","NA"
"-74.04","45.68","MONTREAL MIRABEL INTL A","7034900","2015-05-22 19:00","2015","05","22","19:00","5.6","","-8.7","","35","","","","32","","19","","72.4","","100.97","","","","","","Mainly Clear"
"-74.04","45.68","MONTREAL MIRABEL INTL A","7034900","2015-05-22 20:00","2015","05","22","20:00","4.3","","-7.5","","42","","","","28","","7","","40.2","","101.05","","","","","","NA"
"-74.04","45.68","MONTREAL MIRABEL INTL A","7034900","2015-05-22 21:00","2015","05","22","21:00","3.0","","-6.4","","50","","","","28","","7","","40.2","","101.15","","","","","","NA"
"-74.04","45.68","MONTREAL MIRABEL INTL A","7034900","2015-05-22 22:00","2015","05","22","22:00","2.0","","-6.1","","55","","","","26","","8","","40.2","","101.17","","","","","","Clear"
"-74.04","45.68","MONTREAL MIRABEL INTL A","7034900","2015-05-22 23:00","2015","05","22","23:00","1.6","","-5.8","","58","","","","25","","10","","40.2","","101.22","","","","","","NA"
"-74.04","45.68","MONTREAL MIRABEL INTL A","7034900","2015-05-23 00:00","2015","05","23","00:00","0.2","","-5.0","","68","","","","27","","9","","40.2","","101.28","","","","","","NA"
"-74.04","45.68","MONTREAL MIRABEL INTL A","7034900","2015-05-23 01:00","2015","05","23","01:00","0.4","","-4.8","","68","","","","27","","9","","40.2","","101.28","","","","","","Clear"
"-74.04","45.68","MONTREAL MIRABEL INTL A","7034900","2015-05-23 02:00","2015","05","23","02:00","0.1","","-4.5","","71","","","","28","","7","","40.2","","101.34","","","","","","NA"
"-74.04","45.68","MONTREAL MIRABEL INTL A","7034900","2015-05-23 03:00","2015","05","23","03:00","0.3","","-4.5","","70","","","","28","","11","","40.2","","101.42","","","","","","NA"
"-74.04","45.68","MONTREAL MIRABEL INTL A","7034900","2015-05-23 04:00","2015","05","23","04:00","0.1","","-4.2","","73","","","","27","","9","","72.4","","101.48","","","","","","Mainly Clear"
"-74.04","45.68","MONTREAL MIRABEL INTL A","7034900","2015-05-23 05:00","2015","05","23","05:00","0.1","","-3.8","","75","","","","26","","8","","72.4","","101.54","","","","","","NA"
"-74.04","45.68","MONTREAL MIRABEL INTL A","7034900","2015-05-23 06:00","2015","05","23","06:00","2.1","","-3.0","","69","","","","27","","7","","72.4","","101.64","","","","","","NA"
"-74.04","45.68","MONTREAL MIRABEL INTL A","7034900","2015-05-23 07:00","2015","05","23","07:00","4.7","","-2.2","","61","","","","25","","13","","72.4","","101.68","","","","","","Mainly Clear"
"-74.04","45.68","MONTREAL MIRABEL INTL A","7034900","2015-05-23 08:00","2015","05","23","08:00","6.4","","-2.7","","52","","","","29","","13","","72.4","","101.68","","","","","","NA"
"-74.04","45.68","MONTREAL MIRABEL INTL A","7034900","2015-05-23 09:00","2015","05","23","09:00","7.5","","-4.9","","41","","","","31","","21","","72.4","","101.68","","","","","","NA"
"-74.04","45.68","MONTREAL MIRABEL INTL A","7034900","2015-05-23 10:00","2015","05","23","10:00","9.2","","-4.7","","37","","","","28","","13","","72.4","","101.67","","","","","","Mainly Clear"
"-74.04","45.68","MONTREAL MIRABEL INTL A","7034900","2015-05-23 11:00","2015","05","23","11:00","9.7","","-3.9","","38","","","","23","","17","","72.4","","101.63","","","","","","NA"
"-74.04","45.68","MONTREAL MIRABEL INTL A","7034900","2015-05-23 12:00","2015","05","23","12:00","11.4","","-4.3","","33","","","","25","","22","","72.4","","101.56","","","","","","NA"
"-74.04","45.68","MONTREAL MIRABEL INTL A","7034900","2015-05-23 13:00","2015","05","23","13:00","12.3","","-3.9","","32","","","","24","","17","","72.4","","101.50","","","","","","Mainly Clear"
"-74.04","45.68","MONTREAL MIRABEL INTL A","7034900","2015-05-23 14:00","2015","05","23","14:00","14.4","","-2.5","","31","","","","27","","14","","72.4","","101.44","","","","","","NA"
"-74.04","45.68","MONTREAL MIRABEL INTL A","7034900","2015-05-23 15:00","2015","05","23","15:00","14.4","","-3.4","","29","","","","24","","13","","72.4","","101.34","","","","","","NA"
"-74.04","45.68","MONTREAL MIRABEL INTL A","7034900","2015-05-23 16:00","2015","05","23","16:00","14.9","","-3.4","","28","","","","25","","17","","72.4","","101.24","","","","","","Mostly Cloudy"
"-74.04","45.68","MONTREAL MIRABEL INTL A","7034900","2015-05-23 17:00","2015","05","23","17:00","14.9","","-1.6","","32","","","","24","","21","","72.4","","101.16","","","","","","NA"
"-74.04","45.68","MONTREAL MIRABEL INTL A","7034900","2015-05-23 18:00","2015","05","23","18:00","13.5","","0.2","","40","","","","22","","24","","72.4","","101.14","","","","","","NA"
"-74.04","45.68","MONTREAL MIRABEL INTL A","7034900","2015-05-23 19:00","2015","05","23","19:00","12.8","","-0.4","","40","","","","21","","18","","72.4","","101.08","","","","","","Mainly Clear"
"-74.04","45.68","MONTREAL MIRABEL INTL A","7034900","2015-05-23 20:00","2015","05","23","20:00","12.2","","-2.4","","36","","","","22","","19","","40.2","","101.04","","","","","","NA"
"-74.04","45.68","MONTREAL MIRABEL INTL A","7034900","2015-05-23 21:00","2015","05","23","21:00","11.3","","-1.8","","40","","","","22","","15","","40.2","","100.98","","","","","","NA"
"-74.04","45.68","MONTREAL MIRABEL INTL A","7034900","2015-05-23 22:00","2015","05","23","22:00","10.6","","-1.8","","42","","","","22","","10","","40.2","","100.97","","","","","","Clear"
"-74.04","45.68","MONTREAL MIRABEL INTL A","7034900","2015-05-23 23:00","2015","05","23","23:00","10.8","","-1.9","","41","","","","22","","20","","40.2","","100.89","","","","","","NA"
"-74.04","45.68","MONTREAL MIRABEL INTL A","7034900","2015-05-24 00:00","2015","05","24","00:00","11.1","","-1.3","","42","","","","23","","11","","40.2","","100.90","","","","","","NA"
"-74.04","45.68","MONTREAL MIRABEL INTL A","7034900","2015-05-24 01:00","2015","05","24","01:00","11.1","","-0.3","","45","","","","24","","13","","40.2","","100.89","","","","","","Mostly Cloudy"
"-74.04","45.68","MONTREAL MIRABEL INTL A","7034900","2015-05-24 02:00","2015","05","24","02:00","10.8","","0.0","","47","","","","24","","11","","40.2","","100.86","","","","","","NA"
"-74.04","45.68","MONTREAL MIRABEL INTL A","7034900","2015-05-24 03:00","2015","05","24","03:00","10.4","","0.7","","51","","","","25","","14","","40.2","","100.86","","","","","","NA"
"-74.04","45.68","MONTREAL MIRABEL INTL A","7034900","2015-05-24 04:00","2015","05","24","04:00","10.3","","1.4","","54","","","","25","","9","","72.4","","100.91","","","","","","Mostly Cloudy"
"-74.04","45.68","MONTREAL MIRABEL INTL A","7034900","2015-05-24 05:00","2015","05","24","05:00","10.2","","1.9","","56","","","","25","","8","","72.4","","100.97","","","","","","NA"
"-74.04","45.68","MONTREAL MIRABEL INTL A","7034900","2015-05-24 06:00","2015","05","24","06:00","11.0","","2.6","","56","","","","25","","14","","72.4","","101.01","","","","","","NA"
"-74.04","45.68","MONTREAL MIRABEL INTL A","7034900","2015-05-24 07:00","2015","05","24","07:00","12.8","","4.0","","55","","","","24","","13","","72.4","","101.04","","","","","","Mostly Cloudy"
"-74.04","45.68","MONTREAL MIRABEL INTL A","7034900","2015-05-24 08:00","2015","05","24","08:00","13.7","","4.4","","53","","","","25","","13","","72.4","","101.09","","","","","","NA"
"-74.04","45.68","MONTREAL MIRABEL INTL A","7034900","2015-05-24 09:00","2015","05","24","09:00","13.8","","4.7","","54","","","","22","","11","","72.4","","101.04","","","","","","Rain"
"-74.04","45.68","MONTREAL MIRABEL INTL A","7034900","2015-05-24 10:00","2015","05","24","10:00","15.9","","5.9","","51","","","","24","","16","","40.2","","101.03","","","","","","Mostly Cloudy"
"-74.04","45.68","MONTREAL MIRABEL INTL A","7034900","2015-05-24 11:00","2015","05","24","11:00","18.9","","6.8","","45","","","","21","","22","","64.4","","100.93","","","","","","NA"
"-74.04","45.68","MONTREAL MIRABEL INTL A","7034900","2015-05-24 12:00","2015","05","24","12:00","21.4","","7.0","","39","","","","25","","19","","72.4","","100.90","","","","","","NA"
"-74.04","45.68","MONTREAL MIRABEL INTL A","7034900","2015-05-24 13:00","2015","05","24","13:00","23.5","","8.2","","37","","","","26","","17","","72.4","","100.81","","","","","","Mainly Clear"
"-74.04","45.68","MONTREAL MIRABEL INTL A","7034900","2015-05-24 14:00","2015","05","24","14:00","25.0","","7.4","","32","","","","26","","23","","72.4","","100.72","","25","","","","NA"
"-74.04","45.68","MONTREAL MIRABEL INTL A","7034900","2015-05-24 15:00","2015","05","24","15:00","25.7","","6.1","","28","","","","26","","29","","40.2","","100.68","","25","","","","NA"
"-74.04","45.68","MONTREAL MIRABEL INTL A","7034900","2015-05-24 16:00","2015","05","24","16:00","26.2","","7.0","","29","","","","26","","21","","40.2","","100.64","","26","","","","Mainly Clear"
"-74.04","45.68","MONTREAL MIRABEL INTL A","7034900","2015-05-24 17:00","2015","05","24","17:00","25.2","","7.6","","32","","","","23","","17","","40.2","","100.66","","25","","","","NA"
"-74.04","45.68","MONTREAL MIRABEL INTL A","7034900","2015-05-24 18:00","2015","05","24","18:00","23.6","","7.5","","35","","","","22","","18","","40.2","","100.65","","","","","","NA"
"-74.04","45.68","MONTREAL MIRABEL INTL A","7034900","2015-05-24 19:00","2015","05","24","19:00","22.8","","6.7","","35","","","","22","","17","","40.2","","100.68","","","","","","Mostly Cloudy"
"-74.04","45.68","MONTREAL MIRABEL INTL A","7034900","2015-05-24 20:00","2015","05","24","20:00","21.8","","5.8","","35","","","","22","","17","","40.2","","100.74","","","","","","NA"
"-74.04","45.68","MONTREAL MIRABEL INTL A","7034900","2015-05-24 21:00","2015","05","24","21:00","20.8","","5.3","","36","","","","23","","13","","40.2","","100.79","","","","","","NA"
"-74.04","45.68","MONTREAL MIRABEL INTL A","7034900","2015-05-24 22:00","2015","05","24","22:00","19.3","","5.5","","40","","","","24","","11","","40.2","","100.82","","","","","","Mostly Cloudy"
"-74.04","45.68","MONTREAL MIRABEL INTL A","7034900","2015-05-24 23:00","2015","05","24","23:00","17.9","","5.6","","44","","","","22","","13","","40.2","","100.84","","","","","","NA"
"-74.04","45.68","MONTREAL MIRABEL INTL A","7034900","2015-05-25 00:00","2015","05","25","00:00","16.5","","5.9","","49","","","","23","","9","","40.2","","100.83","","","","","","NA"
"-74.04","45.68","MONTREAL MIRABEL INTL A","7034900","2015-05-25 01:00","2015","05","25","01:00","15.6","","6.1","","53","","","","22","","3","","40.2","","100.85","","","","","","Mostly Cloudy"
"-74.04","45.68","MONTREAL MIRABEL INTL A","7034900","2015-05-25 02:00","2015","05","25","02:00","14.8","","6.7","","58","","","","21","","8","","40.2","","100.85","","","","","","NA"
"-74.04","45.68","MONTREAL MIRABEL INTL A","7034900","2015-05-25 03:00","2015","05","25","03:00","14.6","","7.0","","60","","","","23","","7","","40.2","","100.85","","","","","","NA"
"-74.04","45.68","MONTREAL MIRABEL INTL A","7034900","2015-05-25 04:00","2015","05","25","04:00","14.3","","7.2","","62","","","","24","","7","","40.2","","100.89","","","","","","Cloudy"
"-74.04","45.68","MONTREAL MIRABEL INTL A","7034900","2015-05-25 05:00","2015","05","25","05:00","14.4","","7.3","","62","","","","23","","8","","40.2","","100.96","","","","","","NA"
"-74.04","45.68","MONTREAL MIRABEL INTL A","7034900","2015-05-25 06:00","2015","05","25","06:00","14.4","","7.5","","63","","","","23","","10","","72.4","","100.99","","","","","","NA"
"-74.04","45.68","MONTREAL MIRABEL INTL A","7034900","2015-05-25 07:00","2015","05","25","07:00","14.4","","8.8","","69","","","","28","","7","","40.2","","101.01","","","","","","Cloudy"
"-74.04","45.68","MONTREAL MIRABEL INTL A","7034900","2015-05-25 08:00","2015","05","25","08:00","15.2","","9.2","","67","","","","26","","7","","32.2","","101.03","","","","","","NA"
"-74.04","45.68","MONTREAL MIRABEL INTL A","7034900","2015-05-25 09:00","2015","05","25","09:00","17.2","","10.4","","64","","","","24","","11","","40.2","","101.06","","","","","","NA"
"-74.04","45.68","MONTREAL MIRABEL INTL A","7034900","2015-05-25 10:00","2015","05","25","10:00","19.2","","11.6","","61","","","","25","","9","","40.2","","101.04","","","","","","Cloudy"
"-74.04","45.68","MONTREAL MIRABEL INTL A","7034900","2015-05-25 11:00","2015","05","25","11:00","19.6","","12.9","","65","","","","23","","10","","32.2","","101.03","","","","","","Rain Showers"
"-74.04","45.68","MONTREAL MIRABEL INTL A","7034900","2015-05-25 12:00","2015","05","25","12:00","18.0","","15.3","","84","","","","23","","8","","16.1","","101.05","","","","","","Rain Showers"
"-74.04","45.68","MONTREAL MIRABEL INTL A","7034900","2015-05-25 13:00","2015","05","25","13:00","17.4","","16.1","","92","","","","23","","8","","11.3","","101.03","","","","","","Cloudy"
"-74.04","45.68","MONTREAL MIRABEL INTL A","7034900","2015-05-25 14:00","2015","05","25","14:00","17.1","","16.5","","96","","","","21","","7","","8.1","","100.98","","","","","","Rain Showers"
"-74.04","45.68","MONTREAL MIRABEL INTL A","7034900","2015-05-25 15:00","2015","05","25","15:00","17.2","","16.6","","96","","","","17","","4","","6.4","","100.93","","","","","","Rain Showers,Fog"
"-74.04","45.68","MONTREAL MIRABEL INTL A","7034900","2015-05-25 16:00","2015","05","25","16:00","16.5","","16.2","","98","","","","13","","8","","4.8","","100.89","","","","","","Rain Showers,Fog"
"-74.04","45.68","MONTREAL MIRABEL INTL A","7034900","2015-05-25 17:00","2015","05","25","17:00","16.0","","15.9","","99","","","","10","","8","","6.4","","100.85","","","","","","Rain Showers,Fog"
"-74.04","45.68","MONTREAL MIRABEL INTL A","7034900","2015-05-25 18:00","2015","05","25","18:00","15.9","","15.8","","99","","","","13","","9","","4.8","","100.84","","","","","","Rain Showers,Fog"
"-74.04","45.68","MONTREAL MIRABEL INTL A","7034900","2015-05-25 19:00","2015","05","25","19:00","15.5","","15.4","","99","","","","11","","8","","4.8","","100.75","","","","","","Rain Showers,Fog"
"-74.04","45.68","MONTREAL MIRABEL INTL A","7034900","2015-05-25 20:00","2015","05","25","20:00","15.2","","15.1","","99","","","","12","","9","","4.8","","100.68","","","","","","Rain Showers,Fog"
"-74.04","45.68","MONTREAL MIRABEL INTL A","7034900","2015-05-25 21:00","2015","05","25","21:00","15.1","","15.0","","99","","","","9","","6","","4.8","","100.62","","","","","","Rain Showers,Fog"
"-74.04","45.68","MONTREAL MIRABEL INTL A","7034900","2015-05-25 22:00","2015","05","25","22:00","15.1","","15.0","","99","","","","8","","4","","4.8","","100.51","","","","","","Rain Showers,Fog"
"-74.04","45.68","MONTREAL MIRABEL INTL A","7034900","2015-05-25 23:00","2015","05","25","23:00","15.0","","14.9","","99","","","","2","","9","","1.6","","100.44","","","","","","Rain Showers,Fog"
"-74.04","45.68","MONTREAL MIRABEL INTL A","7034900","2015-05-26 00:00","2015","05","26","00:00","14.9","","14.8","","99","","","","5","","4","","3.2","","100.42","","","","","","Rain Showers,Fog"
"-74.04","45.68","MONTREAL MIRABEL INTL A","7034900","2015-05-26 01:00","2015","05","26","01:00","14.8","","14.7","","99","","","","","","0","","1.6","","100.36","","","","","","Rain Showers,Fog"
"-74.04","45.68","MONTREAL MIRABEL INTL A","7034900","2015-05-26 02:00","2015","05","26","02:00","14.1","","14.0","","99","","","","","","0","","0.4","","100.32","","","","","","Fog"
"-74.04","45.68","MONTREAL MIRABEL INTL A","7034900","2015-05-26 03:00","2015","05","26","03:00","14.2","","14.1","","99","","","","","","0","","0.4","","100.32","","","","","","Fog"
"-74.04","45.68","MONTREAL MIRABEL INTL A","7034900","2015-05-26 04:00","2015","05","26","04:00","15.1","","15.0","","99","","","","23","","5","","4.8","","100.36","","","","","","Fog"
"-74.04","45.68","MONTREAL MIRABEL INTL A","7034900","2015-05-26 05:00","2015","05","26","05:00","15.8","","15.7","","99","","","","23","","9","","3.2","","100.41","","","","","","Fog"
"-74.04","45.68","MONTREAL MIRABEL INTL A","7034900","2015-05-26 06:00","2015","05","26","06:00","16.0","","15.9","","99","","","","25","","5","","3.2","","100.50","","","","","","Fog"
"-74.04","45.68","MONTREAL MIRABEL INTL A","7034900","2015-05-26 07:00","2015","05","26","07:00","17.8","","17.5","","98","","","","25","","8","","8.1","","100.53","","","","","","Fog"
"-74.04","45.68","MONTREAL MIRABEL INTL A","7034900","2015-05-26 08:00","2015","05","26","08:00","19.8","","19.2","","96","","","","26","","7","","16.1","","100.60","","","","","","NA"
"-74.04","45.68","MONTREAL MIRABEL INTL A","7034900","2015-05-26 09:00","2015","05","26","09:00","21.4","","19.0","","86","","","","27","","12","","24.1","","100.62","","28","","","","NA"
"-74.04","45.68","MONTREAL MIRABEL INTL A","7034900","2015-05-26 10:00","2015","05","26","10:00","22.9","","19.3","","80","","","","24","","15","","32.2","","100.63","","30","","","","Mostly Cloudy"
"-74.04","45.68","MONTREAL MIRABEL INTL A","7034900","2015-05-26 11:00","2015","05","26","11:00","24.5","","19.7","","74","","","","24","","11","","32.2","","100.62","","32","","","","NA"
"-74.04","45.68","MONTREAL MIRABEL INTL A","7034900","2015-05-26 12:00","2015","05","26","12:00","25.7","","18.5","","64","","","","25","","17","","40.2","","100.60","","32","","","","NA"
"-74.04","45.68","MONTREAL MIRABEL INTL A","7034900","2015-05-26 13:00","2015","05","26","13:00","25.9","","19.0","","65","","","","23","","18","","40.2","","100.58","","33","","","","Mostly Cloudy"
"-74.04","45.68","MONTREAL MIRABEL INTL A","7034900","2015-05-26 14:00","2015","05","26","14:00","27.1","","18.6","","59","","","","25","","21","","72.4","","100.55","","34","","","","NA"
"-74.04","45.68","MONTREAL MIRABEL INTL A","7034900","2015-05-26 15:00","2015","05","26","15:00","27.5","","17.8","","55","","","","24","","22","","72.4","","100.52","","33","","","","NA"
"-74.04","45.68","MONTREAL MIRABEL INTL A","7034900","2015-05-26 16:00","2015","05","26","16:00","27.2","","18.1","","57","","","","22","","20","","56.3","","100.54","","33","","","","Mostly Cloudy"
"-74.04","45.68","MONTREAL MIRABEL INTL A","7034900","2015-05-26 17:00","2015","05","26","17:00","27.1","","18.0","","57","","","","23","","16","","56.3","","100.54","","33","","","","NA"
"-74.04","45.68","MONTREAL MIRABEL INTL A","7034900","2015-05-26 18:00","2015","05","26","18:00","26.3","","17.5","","58","","","","22","","15","","56.3","","100.56","","32","","","","NA"
"-74.04","45.68","MONTREAL MIRABEL INTL A","7034900","2015-05-26 19:00","2015","05","26","19:00","24.8","","16.9","","61","","","","21","","12","","56.3","","100.53","","30","","","","Mostly Cloudy"
"-74.04","45.68","MONTREAL MIRABEL INTL A","7034900","2015-05-26 20:00","2015","05","26","20:00","24.1","","16.5","","62","","","","22","","12","","40.2","","100.55","","29","","","","NA"
"-74.04","45.68","MONTREAL MIRABEL INTL A","7034900","2015-05-26 21:00","2015","05","26","21:00","22.6","","16.7","","69","","","","22","","8","","40.2","","100.59","","28","","","","NA"
"-74.04","45.68","MONTREAL MIRABEL INTL A","7034900","2015-05-26 22:00","2015","05","26","22:00","21.5","","16.8","","74","","","","26","","5","","40.2","","100.60","","27","","","","Clear"
"-74.04","45.68","MONTREAL MIRABEL INTL A","7034900","2015-05-26 23:00","2015","05","26","23:00","21.5","","17.4","","77","","","","24","","7","","40.2","","100.64","","27","","","","NA"
"-74.04","45.68","MONTREAL MIRABEL INTL A","7034900","2015-05-27 00:00","2015","05","27","00:00","20.0","","17.4","","85","","","","23","","4","","40.2","","100.60","","26","","","","NA"
"-74.04","45.68","MONTREAL MIRABEL INTL A","7034900","2015-05-27 01:00","2015","05","27","01:00","19.6","","17.4","","87","","","","27","","4","","40.2","","100.55","","","","","","Mostly Cloudy"
"-74.04","45.68","MONTREAL MIRABEL INTL A","7034900","2015-05-27 02:00","2015","05","27","02:00","19.2","","17.7","","91","","","","31","","4","","24.1","","100.51","","","","","","Rain Showers"
"-74.04","45.68","MONTREAL MIRABEL INTL A","7034900","2015-05-27 03:00","2015","05","27","03:00","18.6","","18.1","","97","","","","","","0","","24.1","","100.49","","","","","","Rain Showers"
"-74.04","45.68","MONTREAL MIRABEL INTL A","7034900","2015-05-27 04:00","2015","05","27","04:00","17.9","","17.7","","99","","","","16","","3","","24.1","","100.50","","","","","","Rain Showers"
"-74.04","45.68","MONTREAL MIRABEL INTL A","7034900","2015-05-27 05:00","2015","05","27","05:00","17.9","","17.6","","98","","","","","","0","","40.2","","100.52","","","","","","NA"
"-74.04","45.68","MONTREAL MIRABEL INTL A","7034900","2015-05-27 06:00","2015","05","27","06:00","20.2","","18.9","","92","","","","","","0","","40.2","","100.54","","27","","","","NA"
"-74.04","45.68","MONTREAL MIRABEL INTL A","7034900","2015-05-27 07:00","2015","05","27","07:00","22.4","","19.2","","82","","","","22","","9","","40.2","","100.49","","29","","","","Mostly Cloudy"
"-74.04","45.68","MONTREAL MIRABEL INTL A","7034900","2015-05-27 08:00","2015","05","27","08:00","22.8","","20.0","","84","","","","22","","5","","40.2","","100.50","","30","","","","NA"
"-74.04","45.68","MONTREAL MIRABEL INTL A","7034900","2015-05-27 09:00","2015","05","27","09:00","23.6","","20.4","","82","","","","24","","12","","40.2","","100.47","","32","","","","NA"
"-74.04","45.68","MONTREAL MIRABEL INTL A","7034900","2015-05-27 10:00","2015","05","27","10:00","23.7","","20.5","","82","","","","22","","13","","24.1","","100.46","","32","","","","Cloudy"
"-74.04","45.68","MONTREAL MIRABEL INTL A","7034900","2015-05-27 11:00","2015","05","27","11:00","24.2","","20.6","","80","","","","22","","16","","24.1","","100.44","","32","","","","Rain Showers"
"-74.04","45.68","MONTREAL MIRABEL INTL A","7034900","2015-05-27 12:00","2015","05","27","12:00","24.2","","19.6","","75","","","","24","","14","","40.2","","100.42","","31","","","","NA"
"-74.04","45.68","MONTREAL MIRABEL INTL A","7034900","2015-05-27 13:00","2015","05","27","13:00","25.0","","20.1","","74","","","","23","","9","","40.2","","100.38","","33","","","","Mostly Cloudy"
"-74.04","45.68","MONTREAL MIRABEL INTL A","7034900","2015-05-27 14:00","2015","05","27","14:00","25.4","","19.6","","70","","","","22","","16","","40.2","","100.29","","33","","","","NA"
"-74.04","45.68","MONTREAL MIRABEL INTL A","7034900","2015-05-27 15:00","2015","05","27","15:00","25.8","","18.9","","65","","","","22","","25","","40.2","","100.24","","32","","","","NA"
"-74.04","45.68","MONTREAL MIRABEL INTL A","7034900","2015-05-27 16:00","2015","05","27","16:00","26.0","","18.6","","63","","","","21","","19","","40.2","","100.23","","32","","","","Mostly Cloudy"
"-74.04","45.68","MONTREAL MIRABEL INTL A","7034900","2015-05-27 17:00","2015","05","27","17:00","26.1","","18.4","","62","","","","21","","20","","56.3","","100.22","","32","","","","NA"
"-74.04","45.68","MONTREAL MIRABEL INTL A","7034900","2015-05-27 18:00","2015","05","27","18:00","25.5","","17.1","","59","","","","22","","21","","64.4","","100.24","","31","","","","NA"
"-74.04","45.68","MONTREAL MIRABEL INTL A","7034900","2015-05-27 19:00","2015","05","27","19:00","24.2","","15.8","","59","","","","21","","20","","72.4","","100.29","","29","","","","Mostly Cloudy"
"-74.04","45.68","MONTREAL MIRABEL INTL A","7034900","2015-05-27 20:00","2015","05","27","20:00","23.4","","15.6","","61","","","","22","","17","","40.2","","100.31","","28","","","","NA"
"-74.04","45.68","MONTREAL MIRABEL INTL A","7034900","2015-05-27 21:00","2015","05","27","21:00","23.1","","15.3","","61","","","","22","","18","","40.2","","100.32","","27","","","","NA"
"-74.04","45.68","MONTREAL MIRABEL INTL A","7034900","2015-05-27 22:00","2015","05","27","22:00","22.5","","15.2","","63","","","","23","","8","","40.2","","100.35","","27","","","","Clear"
"-74.04","45.68","MONTREAL MIRABEL INTL A","7034900","2015-05-27 23:00","2015","05","27","23:00","21.4","","15.6","","69","","","","21","","15","","40.2","","100.35","","26","","","","NA"
"-74.04","45.68","MONTREAL MIRABEL INTL A","7034900","2015-05-28 00:00","2015","05","28","00:00","20.1","","15.6","","75","","","","21","","10","","40.2","","100.31","","","","","","NA"
"-74.04","45.68","MONTREAL MIRABEL INTL A","7034900","2015-05-28 01:00","2015","05","28","01:00","20.1","","15.6","","75","","","","23","","7","","40.2","","100.37","","","","","","Mainly Clear"
"-74.04","45.68","MONTREAL MIRABEL INTL A","7034900","2015-05-28 02:00","2015","05","28","02:00","20.1","","14.8","","71","","","","25","","8","","40.2","","100.39","","","","","","NA"
"-74.04","45.68","MONTREAL MIRABEL INTL A","7034900","2015-05-28 03:00","2015","05","28","03:00","19.6","","14.5","","72","","","","24","","12","","40.2","","100.41","","","","","","NA"
"-74.04","45.68","MONTREAL MIRABEL INTL A","7034900","2015-05-28 04:00","2015","05","28","04:00","19.2","","14.3","","73","","","","22","","17","","40.2","","100.44","","","","","","Mostly Cloudy"
"-74.04","45.68","MONTREAL MIRABEL INTL A","7034900","2015-05-28 05:00","2015","05","28","05:00","18.5","","14.5","","77","","","","22","","10","","72.4","","100.53","","","","","","NA"
"-74.04","45.68","MONTREAL MIRABEL INTL A","7034900","2015-05-28 06:00","2015","05","28","06:00","18.5","","15.2","","81","","","","24","","8","","72.4","","100.61","","","","","","NA"
"-74.04","45.68","MONTREAL MIRABEL INTL A","7034900","2015-05-28 07:00","2015","05","28","07:00","18.5","","15.6","","83","","","","23","","10","","72.4","","100.66","","","","","","Cloudy"
"-74.04","45.68","MONTREAL MIRABEL INTL A","7034900","2015-05-28 08:00","2015","05","28","08:00","17.3","","16.2","","93","","","","24","","8","","24.1","","100.68","","","","","","Rain Showers"
"-74.04","45.68","MONTREAL MIRABEL INTL A","7034900","2015-05-28 09:00","2015","05","28","09:00","17.7","","17.1","","96","","","","25","","7","","40.2","","100.69","","","","","","Rain Showers"
"-74.04","45.68","MONTREAL MIRABEL INTL A","7034900","2015-05-28 10:00","2015","05","28","10:00","18.8","","17.0","","89","","","","23","","8","","32.2","","100.72","","","","","","Cloudy"
"-74.04","45.68","MONTREAL MIRABEL INTL A","7034900","2015-05-28 11:00","2015","05","28","11:00","18.2","","17.2","","94","","","","25","","9","","16.1","","100.77","","","","","","Rain Showers"
"-74.04","45.68","MONTREAL MIRABEL INTL A","7034900","2015-05-28 12:00","2015","05","28","12:00","18.9","","17.4","","91","","","","25","","14","","24.1","","100.81","","","","","","Rain Showers"
"-74.04","45.68","MONTREAL MIRABEL INTL A","7034900","2015-05-28 13:00","2015","05","28","13:00","18.7","","17.2","","91","","","","30","","12","","16.1","","100.84","","","","","","Rain Showers"
"-74.04","45.68","MONTREAL MIRABEL INTL A","7034900","2015-05-28 14:00","2015","05","28","14:00","19.6","","17.8","","89","","","","26","","8","","40.2","","100.88","","","","","","NA"
"-74.04","45.68","MONTREAL MIRABEL INTL A","7034900","2015-05-28 15:00","2015","05","28","15:00","20.7","","16.4","","76","","","","31","","10","","40.2","","100.97","","26","","","","NA"
"-74.04","45.68","MONTREAL MIRABEL INTL A","7034900","2015-05-28 16:00","2015","05","28","16:00","20.0","","14.7","","71","","","","34","","18","","40.2","","101.08","","","","","","Mostly Cloudy"
"-74.04","45.68","MONTREAL MIRABEL INTL A","7034900","2015-05-28 17:00","2015","05","28","17:00","21.3","","14.1","","63","","","","34","","17","","40.2","","101.12","","25","","","","NA"
"-74.04","45.68","MONTREAL MIRABEL INTL A","7034900","2015-05-28 18:00","2015","05","28","18:00","20.8","","12.9","","60","","","","32","","15","","40.2","","101.19","","","","","","NA"
"-74.04","45.68","MONTREAL MIRABEL INTL A","7034900","2015-05-28 19:00","2015","05","28","19:00","19.1","","12.7","","66","","","","29","","7","","72.4","","101.29","","","","","","Clear"
"-74.04","45.68","MONTREAL MIRABEL INTL A","7034900","2015-05-28 20:00","2015","05","28","20:00","17.3","","11.8","","70","","","","31","","10","","40.2","","101.38","","","","","","NA"
"-74.04","45.68","MONTREAL MIRABEL INTL A","7034900","2015-05-28 21:00","2015","05","28","21:00","15.4","","11.4","","77","","","","32","","7","","40.2","","101.52","","","","","","NA"
"-74.04","45.68","MONTREAL MIRABEL INTL A","7034900","2015-05-28 22:00","2015","05","28","22:00","13.8","","11.2","","84","","","","5","","3","","40.2","","101.60","","","","","","Mainly Clear"
"-74.04","45.68","MONTREAL MIRABEL INTL A","7034900","2015-05-28 23:00","2015","05","28","23:00","12.9","","11.0","","88","","","","4","","3","","40.2","","101.62","","","","","","NA"
"-74.04","45.68","MONTREAL MIRABEL INTL A","7034900","2015-05-29 00:00","2015","05","29","00:00","10.9","","10.5","","97","","","","","","0","","40.2","","101.61","","","","","","NA"
"-74.04","45.68","MONTREAL MIRABEL INTL A","7034900","2015-05-29 01:00","2015","05","29","01:00","10.6","","10.5","","99","","","","29","","3","","40.2","","101.60","","","","","","Mainly Clear"
"-74.04","45.68","MONTREAL MIRABEL INTL A","7034900","2015-05-29 02:00","2015","05","29","02:00","9.7","","9.6","","99","","","","","","0","","40.2","","101.61","","","","","","NA"
"-74.04","45.68","MONTREAL MIRABEL INTL A","7034900","2015-05-29 03:00","2015","05","29","03:00","9.1","","9.0","","99","","","","","","0","","40.2","","101.61","","","","","","NA"
"-74.04","45.68","MONTREAL MIRABEL INTL A","7034900","2015-05-29 04:00","2015","05","29","04:00","8.6","","8.5","","99","","","","","","0","","72.4","","101.63","","","","","","Mainly Clear"
"-74.04","45.68","MONTREAL MIRABEL INTL A","7034900","2015-05-29 05:00","2015","05","29","05:00","8.0","","7.9","","99","","","","","","0","","72.4","","101.67","","","","","","NA"
"-74.04","45.68","MONTREAL MIRABEL INTL A","7034900","2015-05-29 06:00","2015","05","29","06:00","10.7","","10.6","","99","","","","4","","6","","72.4","","101.70","","","","","","NA"
"-74.04","45.68","MONTREAL MIRABEL INTL A","7034900","2015-05-29 07:00","2015","05","29","07:00","14.2","","11.6","","84","","","","4","","5","","72.4","","101.73","","","","","","Mainly Clear"
"-74.04","45.68","MONTREAL MIRABEL INTL A","7034900","2015-05-29 08:00","2015","05","29","08:00","16.1","","10.7","","70","","","","6","","5","","72.4","","101.69","","","","","","NA"
"-74.04","45.68","MONTREAL MIRABEL INTL A","7034900","2015-05-29 09:00","2015","05","29","09:00","18.0","","13.6","","75","","","","17","","5","","72.4","","101.66","","","","","","NA"
"-74.04","45.68","MONTREAL MIRABEL INTL A","7034900","2015-05-29 10:00","2015","05","29","10:00","19.4","","13.0","","66","","","","18","","9","","72.4","","101.60","","","","","","Mainly Clear"
"-74.04","45.68","MONTREAL MIRABEL INTL A","7034900","2015-05-29 11:00","2015","05","29","11:00","20.6","","13.9","","65","","","","22","","9","","72.4","","101.56","","","","","","NA"
"-74.04","45.68","MONTREAL MIRABEL INTL A","7034900","2015-05-29 12:00","2015","05","29","12:00","21.6","","13.9","","61","","","","24","","8","","72.4","","101.50","","25","","","","NA"
"-74.04","45.68","MONTREAL MIRABEL INTL A","7034900","2015-05-29 13:00","2015","05","29","13:00","23.2","","14.9","","59","","","","23","","5","","40.2","","101.42","","27","","","","Mostly Cloudy"
"-74.04","45.68","MONTREAL MIRABEL INTL A","7034900","2015-05-29 14:00","2015","05","29","14:00","23.9","","15.0","","57","","","","25","","6","","40.2","","101.40","","28","","","","NA"
"-74.04","45.68","MONTREAL MIRABEL INTL A","7034900","2015-05-29 15:00","2015","05","29","15:00","23.8","","13.8","","53","","","","23","","9","","40.2","","101.33","","27","","","","NA"
"-74.04","45.68","MONTREAL MIRABEL INTL A","7034900","2015-05-29 16:00","2015","05","29","16:00","23.8","","13.8","","53","","","","20","","8","","40.2","","101.25","","27","","","","Cloudy"
"-74.04","45.68","MONTREAL MIRABEL INTL A","7034900","2015-05-29 17:00","2015","05","29","17:00","23.3","","15.5","","61","","","","15","","7","","40.2","","101.14","","28","","","","NA"
"-74.04","45.68","MONTREAL MIRABEL INTL A","7034900","2015-05-29 18:00","2015","05","29","18:00","22.0","","15.2","","65","","","","15","","9","","40.2","","101.07","","26","","","","NA"
"-74.04","45.68","MONTREAL MIRABEL INTL A","7034900","2015-05-29 19:00","2015","05","29","19:00","21.6","","14.4","","63","","","","16","","5","","40.2","","101.01","","25","","","","Mostly Cloudy"
"-74.04","45.68","MONTREAL MIRABEL INTL A","7034900","2015-05-29 20:00","2015","05","29","20:00","18.7","","14.0","","74","","","","16","","8","","40.2","","100.97","","","","","","NA"
"-74.04","45.68","MONTREAL MIRABEL INTL A","7034900","2015-05-29 21:00","2015","05","29","21:00","18.1","","14.1","","77","","","","17","","7","","40.2","","100.97","","","","","","NA"
"-74.04","45.68","MONTREAL MIRABEL INTL A","7034900","2015-05-29 22:00","2015","05","29","22:00","16.5","","13.8","","84","","","","","","0","","24.1","","100.91","","","","","","Mostly Cloudy"
"-74.04","45.68","MONTREAL MIRABEL INTL A","7034900","2015-05-29 23:00","2015","05","29","23:00","14.7","","13.4","","92","","","","","","0","","24.1","","100.88","","","","","","NA"
"-74.04","45.68","MONTREAL MIRABEL INTL A","7034900","2015-05-30 00:00","2015","05","30","00:00","14.5","","13.4","","93","","","","33","","3","","40.2","","100.78","","","","","","NA"
"-74.04","45.68","MONTREAL MIRABEL INTL A","7034900","2015-05-30 01:00","2015","05","30","01:00","14.9","","13.5","","91","","","","","","0","","40.2","","100.73","","","","","","Cloudy"
"-74.04","45.68","MONTREAL MIRABEL INTL A","7034900","2015-05-30 02:00","2015","05","30","02:00","15.7","","14.3","","91","","","","","","0","","40.2","","100.62","","","","","","NA"
"-74.04","45.68","MONTREAL MIRABEL INTL A","7034900","2015-05-30 03:00","2015","05","30","03:00","16.2","","14.9","","92","","","","4","","4","","24.1","","100.55","","","","","","Rain Showers"
"-74.04","45.68","MONTREAL MIRABEL INTL A","7034900","2015-05-30 04:00","2015","05","30","04:00","16.0","","14.4","","90","","","","34","","4","","40.2","","100.53","","","","","","Rain Showers"
"-74.04","45.68","MONTREAL MIRABEL INTL A","7034900","2015-05-30 05:00","2015","05","30","05:00","15.5","","15.0","","97","","","","10","","5","","16.1","","100.47","","","","","","NA"
"-74.04","45.68","MONTREAL MIRABEL INTL A","7034900","2015-05-30 06:00","2015","05","30","06:00","16.9","","15.9","","94","","","","34","","4","","24.1","","100.52","","","","","","NA"
"-74.04","45.68","MONTREAL MIRABEL INTL A","7034900","2015-05-30 07:00","2015","05","30","07:00","20.1","","17.0","","82","","","","18","","6","","24.1","","100.44","","25","","","","Mostly Cloudy"
"-74.04","45.68","MONTREAL MIRABEL INTL A","7034900","2015-05-30 08:00","2015","05","30","08:00","23.8","","19.4","","76","","","","20","","11","","24.1","","100.39","","31","","","","NA"
"-74.04","45.68","MONTREAL MIRABEL INTL A","7034900","2015-05-30 09:00","2015","05","30","09:00","25.2","","19.0","","68","","","","23","","25","","24.1","","100.31","","32","","","","NA"
"-74.04","45.68","MONTREAL MIRABEL INTL A","7034900","2015-05-30 10:00","2015","05","30","10:00","26.8","","19.6","","64","","","","22","","25","","32.2","","100.28","","34","","","","Mostly Cloudy"
"-74.04","45.68","MONTREAL MIRABEL INTL A","7034900","2015-05-30 11:00","2015","05","30","11:00","27.8","","19.5","","60","","","","22","","26","","32.2","","100.22","","35","","","","NA"
"-74.04","45.68","MONTREAL MIRABEL INTL A","7034900","2015-05-30 12:00","2015","05","30","12:00","28.6","","20.0","","59","","","","21","","23","","16.1","","100.13","","36","","","","Thunderstorms"
"-74.04","45.68","MONTREAL MIRABEL INTL A","7034900","2015-05-30 13:00","2015","05","30","13:00","28.9","","19.7","","57","","","","22","","23","","32.2","","100.06","","36","","","","Mostly Cloudy"
"-74.04","45.68","MONTREAL MIRABEL INTL A","7034900","2015-05-30 14:00","2015","05","30","14:00","23.7","","21.6","","88","","","","29","","11","","32.2","","100.07","","33","","","","Thunderstorms"
"-74.04","45.68","MONTREAL MIRABEL INTL A","7034900","2015-05-30 15:00","2015","05","30","15:00","21.8","","19.6","","87","","","","28","","27","","1.2","","100.11","","29","","","","Thunderstorms,Moderate Rain Showers"
"-74.04","45.68","MONTREAL MIRABEL INTL A","7034900","2015-05-30 16:00","2015","05","30","16:00","21.8","","20.5","","92","","","","27","","11","","1.2","","100.15","","30","","","","Thunderstorms,Moderate Rain Showers"
"-74.04","45.68","MONTREAL MIRABEL INTL A","7034900","2015-05-30 17:00","2015","05","30","17:00","21.4","","20.8","","96","","","","25","","9","","32.2","","100.14","","30","","","","NA"
"-74.04","45.68","MONTREAL MIRABEL INTL A","7034900","2015-05-30 18:00","2015","05","30","18:00","21.6","","21.0","","96","","","","29","","8","","40.2","","100.16","","30","","","","NA"
"-74.04","45.68","MONTREAL MIRABEL INTL A","7034900","2015-05-30 19:00","2015","05","30","19:00","19.9","","18.9","","94","","","","24","","5","","24.1","","100.22","","","","","","Rain Showers"
"-74.04","45.68","MONTREAL MIRABEL INTL A","7034900","2015-05-30 20:00","2015","05","30","20:00","19.5","","19.0","","97","","","","31","","10","","24.1","","100.25","","","","","","Rain Showers"
"-74.04","45.68","MONTREAL MIRABEL INTL A","7034900","2015-05-30 21:00","2015","05","30","21:00","18.1","","16.8","","92","","","","30","","8","","40.2","","100.41","","","","","","NA"
"-74.04","45.68","MONTREAL MIRABEL INTL A","7034900","2015-05-30 22:00","2015","05","30","22:00","17.4","","15.8","","90","","","","30","","7","","40.2","","100.47","","","","","","Cloudy"
"-74.04","45.68","MONTREAL MIRABEL INTL A","7034900","2015-05-30 23:00","2015","05","30","23:00","15.6","","13.8","","89","","","","34","","19","","24.1","","100.58","","","","","","Rain Showers"
"-74.04","45.68","MONTREAL MIRABEL INTL A","7034900","2015-05-31 00:00","2015","05","31","00:00","12.5","","10.8","","89","","","","35","","22","","6.4","","100.75","","","","","","Rain Showers,Fog"
"-74.04","45.68","MONTREAL MIRABEL INTL A","7034900","2015-05-31 01:00","2015","05","31","01:00","10.8","","8.9","","88","","","","34","","20","","16.1","","100.85","","","","","","Rain Showers"
"-74.04","45.68","MONTREAL MIRABEL INTL A","7034900","2015-05-31 02:00","2015","05","31","02:00","9.3","","6.4","","82","","","","35","","18","","24.1","","101.02","","","","","","Rain Showers"
"-74.04","45.68","MONTREAL MIRABEL INTL A","7034900","2015-05-31 03:00","2015","05","31","03:00","8.2","","5.5","","83","","","","36","","15","","16.1","","101.11","","","","","","Rain Showers"
"-74.04","45.68","MONTREAL MIRABEL INTL A","7034900","2015-05-31 04:00","2015","05","31","04:00","8.1","","5.1","","81","","","","35","","14","","24.1","","101.24","","","","","","Rain Showers"
"-74.04","45.68","MONTREAL MIRABEL INTL A","7034900","2015-05-31 05:00","2015","05","31","05:00","8.0","","5.3","","83","","","","2","","6","","32.2","","101.28","","","","","","Rain Showers"
"-74.04","45.68","MONTREAL MIRABEL INTL A","7034900","2015-05-31 06:00","2015","05","31","06:00","7.8","","3.9","","76","","","","2","","8","","40.2","","101.40","","","","","","Rain"
"-74.04","45.68","MONTREAL MIRABEL INTL A","7034900","2015-05-31 07:00","2015","05","31","07:00","8.1","","4.0","","75","","","","2","","9","","72.4","","101.50","","","","","","Cloudy"
"-74.04","45.68","MONTREAL MIRABEL INTL A","7034900","2015-05-31 08:00","2015","05","31","08:00","8.6","","4.3","","74","","","","7","","7","","72.4","","101.52","","","","","","NA"
"-74.04","45.68","MONTREAL MIRABEL INTL A","7034900","2015-05-31 09:00","2015","05","31","09:00","8.4","","2.4","","66","","","","5","","11","","72.4","","101.53","","","","","","NA"
"-74.04","45.68","MONTREAL MIRABEL INTL A","7034900","2015-05-31 10:00","2015","05","31","10:00","9.1","","2.2","","62","","","","4","","8","","72.4","","101.59","","","","","","Cloudy"
"-74.04","45.68","MONTREAL MIRABEL INTL A","7034900","2015-05-31 11:00","2015","05","31","11:00","9.9","","1.8","","57","","","","7","","10","","72.4","","101.65","","","","","","NA"
"-74.04","45.68","MONTREAL MIRABEL INTL A","7034900","2015-05-31 12:00","2015","05","31","12:00","11.4","","3.0","","56","","","","6","","9","","72.4","","101.64","","","","","","NA"
"-74.04","45.68","MONTREAL MIRABEL INTL A","7034900","2015-05-31 13:00","2015","05","31","13:00","12.1","","1.8","","49","","","","8","","9","","72.4","","101.61","","","","","","Cloudy"
"-74.04","45.68","MONTREAL MIRABEL INTL A","7034900","2015-05-31 14:00","2015","05","31","14:00","13.4","","2.7","","48","","","","8","","10","","72.4","","101.58","","","","","","NA"
"-74.04","45.68","MONTREAL MIRABEL INTL A","7034900","2015-05-31 15:00","2015","05","31","15:00","14.0","","4.4","","52","","","","6","","10","","72.4","","101.57","","","","","","NA"
"-74.04","45.68","MONTREAL MIRABEL INTL A","7034900","2015-05-31 16:00","2015","05","31","16:00","13.8","","3.9","","51","","","","5","","8","","72.4","","101.55","","","","","","Mostly Cloudy"
"-74.04","45.68","MONTREAL MIRABEL INTL A","7034900","2015-05-31 17:00","2015","05","31","17:00","13.5","","3.9","","52","","","","7","","10","","72.4","","101.51","","","","","","NA"
"-74.04","45.68","MONTREAL MIRABEL INTL A","7034900","2015-05-31 18:00","2015","05","31","18:00","12.9","","4.1","","55","","","","7","","11","","72.4","","101.52","","","","","","NA"
"-74.04","45.68","MONTREAL MIRABEL INTL A","7034900","2015-05-31 19:00","2015","05","31","19:00","11.9","","5.8","","66","","","","8","","9","","72.4","","101.61","","","","","","Cloudy"
"-74.04","45.68","MONTREAL MIRABEL INTL A","7034900","2015-05-31 20:00","2015","05","31","20:00","11.3","","4.6","","63","","","","8","","8","","40.2","","101.56","","","","","","NA"
"-74.04","45.68","MONTREAL MIRABEL INTL A","7034900","2015-05-31 21:00","2015","05","31","21:00","11.4","","4.7","","63","","","","4","","7","","40.2","","101.61","","","","","","NA"
"-74.04","45.68","MONTREAL MIRABEL INTL A","7034900","2015-05-31 22:00","2015","05","31","22:00","11.2","","5.1","","66","","","","5","","4","","40.2","","101.61","","","","","","Cloudy"
"-74.04","45.68","MONTREAL MIRABEL INTL A","7034900","2015-05-31 23:00","2015","05","31","23:00","10.3","","6.1","","75","","","","5","","5","","40.2","","101.61","","","","","","NA"
