"Longitude (x)","Latitude (y)","Station Name","Climate ID","Date/Time (LST)","Year","Month","Day","Time (LST)","Temp (°C)","Temp Flag","Dew Point Temp (°C)","Dew Point Temp Flag","Rel Hum (%)","Rel Hum Flag","Precip. Amount (mm)","Precip. Amount Flag","Wind Dir (10s deg)","Wind Dir Flag","Wind Spd (km/h)","Wind Spd Flag","Visibility (km)","Visibility Flag","Stn Press (kPa)","Stn Press Flag","Hmdx","Hmdx Flag","Wind Chill","Wind Chill Flag","Weather"
"-74.04","45.68","MONTREAL MIRABEL INTL A","7034900","2018-02-01 00:00","2018","02","01","00:00","-12.8","","-15.1","","83","","","","3","","9","","6.4","","99.87","","","","-18","","Snow"
"-74.04","45.68","MONTREAL MIRABEL INTL A","7034900","2018-02-01 01:00","2018","02","01","01:00","-12.7","","-15.1","","83","","","","5","","10","","8.1","","99.85","","","","-18","","Snow"
"-74.04","45.68","MONTREAL MIRABEL INTL A","7034900","2018-02-01 02:00","2018","02","01","02:00","-12.6","","-15.1","","82","","","","4","","8","","16.1","","99.89","","","","-18","","Snow"
"-74.04","45.68","MONTREAL MIRABEL INTL A","7034900","2018-02-01 03:00","2018","02","01","03:00","-12.3","","-14.8","","82","","","","1","","5","","24.1","","99.89","","","","-16","","NA"
"-74.04","45.68","MONTREAL MIRABEL INTL A","7034900","2018-02-01 04:00","2018","02","01","04:00","-11.8","","-14.5","","81","","","","4","","7","","40.2","","99.81","","","","-16","","Cloudy"
"-74.04","45.68","MONTREAL MIRABEL INTL A","7034900","2018-02-01 05:00","2018","02","01","05:00","-11.5","","-14.0","","82","","","","2","","5","","40.2","","99.83","","","","-15","","NA"
"-74.04","45.68","MONTREAL MIRABEL INTL A","7034900","2018-02-01 06:00","2018","02","01","06:00","-10.9","","-13.3","","82","","","","5","","8","","40.2","","99.80","","","","-16","","NA"
"-74.04","45.68","MONTREAL MIRABEL INTL A","7034900","2018-02-01 07:00","2018","02","01","07:00","-10.6","","-13.0","","83","","","","6","","7","","32.2","","99.79","","","","-15","","Cloudy"
"-74.04","45.68","MONTREAL MIRABEL INTL A","7034900","2018-02-01 08:00","2018","02","01","08:00","-10.0","","-12.6","","82","","","","3","","5","","24.1","","99.83","","","","-13","","NA"
"-74.04","45.68","MONTREAL MIRABEL INTL A","7034900","2018-02-01 09:00","2018","02","01","09:00","-9.6","","-12.1","","82","","","","5","","7","","24.1","","99.80","","","","-14","","NA"
"-74.04","45.68","MONTREAL MIRABEL INTL A","7034900","2018-02-01 10:00","2018","02","01","10:00","-8.6","","-11.4","","80","","","","3","","8","","24.1","","99.74","","","","-13","","Cloudy"
"-74.04","45.68","MONTREAL MIRABEL INTL A","7034900","2018-02-01 11:00","2018","02","01","11:00","-7.9","","-10.8","","80","","","","2","","5","","32.2","","99.71","","","","-11","","NA"
"-74.04","45.68","MONTREAL MIRABEL INTL A","7034900","2018-02-01 12:00","2018","02","01","12:00","-6.9","","-10.2","","78","","","","2","","8","","24.1","","99.61","","","","-11","","NA"
"-74.04","45.68","MONTREAL MIRABEL INTL A","7034900","2018-02-01 13:00","2018","02","01","13:00","-6.0","","-9.6","","76","","","","6","","8","","24.1","","99.51","","","","-10","","Cloudy"
"-74.04","45.68","MONTREAL MIRABEL INTL A","7034900","2018-02-01 14:00","2018","02","01","14:00","-4.8","","-9.0","","73","","","","1","","7","","24.1","","99.46","","","","-8","","NA"
"-74.04","45.68","MONTREAL MIRABEL INTL A","7034900","2018-02-01 15:00","2018","02","01","15:00","-4.3","","-8.2","","74","","","","1","","8","","24.1","","99.41","","","","-8","","NA"
"-74.04","45.68","MONTREAL MIRABEL INTL A","7034900","2018-02-01 16:00","2018","02","01","16:00","-3.6","","-7.5","","75","","","","1","","5","","32.2","","99.45","","","","-6","","Mostly Cloudy"
"-74.04","45.68","MONTREAL MIRABEL INTL A","7034900","2018-02-01 17:00","2018","02","01","17:00","-2.0","","-6.2","","74","","","","16","","9","","32.2","","99.37","","","","-5","","NA"
"-74.04","45.68","MONTREAL MIRABEL INTL A","7034900","2018-02-01 18:00","2018","02","01","18:00","2.3","","-2.3","","72","","","","21","","16","","32.2","","99.37","","","","","","NA"
"-74.04","45.68","MONTREAL MIRABEL INTL A","7034900","2018-02-01 19:00","2018","02","01","19:00","-0.3","","-1.3","","93","","","","27","","10","","3.2","","99.63","","","","-4","","Snow"
"-74.04","45.68","MONTREAL MIRABEL INTL A","7034900","2018-02-01 20:00","2018","02","01","20:00","-1.3","","-3.8","","83","","","","31","","5","","32.2","","99.75","","","","-3","","NA"
"-74.04","45.68","MONTREAL MIRABEL INTL A","7034900","2018-02-01 21:00","2018","02","01","21:00","-3.5","","-9.2","","65","","","","30","","14","","40.2","","99.85","","","","-9","","NA"
"-74.04","45.68","MONTREAL MIRABEL INTL A","7034900","2018-02-01 22:00","2018","02","01","22:00","-5.4","","-11.9","","60","","","","32","","22","","32.2","","100.03","","","","-12","","Cloudy"
"-74.04","45.68","MONTREAL MIRABEL INTL A","7034900","2018-02-01 23:00","2018","02","01","23:00","-7.6","","-13.8","","61","","","","31","","15","","40.2","","100.15","","","","-14","","Snow"
"-74.04","45.68","MONTREAL MIRABEL INTL A","7034900","2018-02-02 00:00","2018","02","02","00:00","-9.2","","-15.8","","59","","","","32","","14","","40.2","","100.24","","","","-16","","Snow"
"-74.04","45.68","MONTREAL MIRABEL INTL A","7034900","2018-02-02 01:00","2018","02","02","01:00","-10.8","","-17.0","","60","","","","32","","15","","40.2","","100.30","","","","-18","","Cloudy"
"-74.04","45.68","MONTREAL MIRABEL INTL A","7034900","2018-02-02 02:00","2018","02","02","02:00","-11.8","","-17.5","","63","","","","31","","14","","40.2","","100.42","","","","-19","","NA"
"-74.04","45.68","MONTREAL MIRABEL INTL A","7034900","2018-02-02 03:00","2018","02","02","03:00","-13.1","","-19.6","","59","","","","33","","23","","40.2","","100.51","","","","-22","","NA"
"-74.04","45.68","MONTREAL MIRABEL INTL A","7034900","2018-02-02 04:00","2018","02","02","04:00","-15.0","","-21.0","","61","","","","29","","8","","40.2","","100.54","","","","-20","","Mainly Clear"
"-74.04","45.68","MONTREAL MIRABEL INTL A","7034900","2018-02-02 05:00","2018","02","02","05:00","-16.4","","-21.8","","63","","","","29","","8","","40.2","","100.65","","","","-22","","NA"
"-74.04","45.68","MONTREAL MIRABEL INTL A","7034900","2018-02-02 06:00","2018","02","02","06:00","-18.1","","-21.8","","73","","","","27","","5","","40.2","","100.68","","","","-22","","NA"
"-74.04","45.68","MONTREAL MIRABEL INTL A","7034900","2018-02-02 07:00","2018","02","02","07:00","-19.7","","-23.6","","72","","","","28","","7","","64.4","","100.72","","","","-25","","Mainly Clear"
"-74.04","45.68","MONTREAL MIRABEL INTL A","7034900","2018-02-02 08:00","2018","02","02","08:00","-18.9","","-23.1","","70","","","","30","","5","","72.4","","100.78","","","","-23","","NA"
"-74.04","45.68","MONTREAL MIRABEL INTL A","7034900","2018-02-02 09:00","2018","02","02","09:00","-17.7","","-23.6","","61","","","","32","","9","","72.4","","100.80","","","","-24","","NA"
"-74.04","45.68","MONTREAL MIRABEL INTL A","7034900","2018-02-02 10:00","2018","02","02","10:00","-16.8","","-23.9","","55","","","","31","","8","","72.4","","100.83","","","","-22","","Mainly Clear"
"-74.04","45.68","MONTREAL MIRABEL INTL A","7034900","2018-02-02 11:00","2018","02","02","11:00","-15.6","","-24.4","","48","","","","31","","17","","72.4","","100.83","","","","-24","","NA"
"-74.04","45.68","MONTREAL MIRABEL INTL A","7034900","2018-02-02 12:00","2018","02","02","12:00","-14.9","","-24.1","","46","","","","33","","12","","72.4","","100.79","","","","-22","","NA"
"-74.04","45.68","MONTREAL MIRABEL INTL A","7034900","2018-02-02 13:00","2018","02","02","13:00","-15.2","","-24.0","","48","","","","28","","17","","48.3","","100.81","","","","-24","","Mostly Cloudy"
"-74.04","45.68","MONTREAL MIRABEL INTL A","7034900","2018-02-02 14:00","2018","02","02","14:00","-14.5","","-23.9","","45","","","","29","","15","","72.4","","100.84","","","","-22","","NA"
"-74.04","45.68","MONTREAL MIRABEL INTL A","7034900","2018-02-02 15:00","2018","02","02","15:00","-14.5","","-23.1","","49","","","","27","","16","","72.4","","100.86","","","","-23","","NA"
"-74.04","45.68","MONTREAL MIRABEL INTL A","7034900","2018-02-02 16:00","2018","02","02","16:00","-14.7","","-23.4","","48","","","","29","","14","","72.4","","100.94","","","","-22","","Mainly Clear"
"-74.04","45.68","MONTREAL MIRABEL INTL A","7034900","2018-02-02 17:00","2018","02","02","17:00","-16.2","","-23.4","","54","","","","27","","12","","72.4","","101.01","","","","-23","","NA"
"-74.04","45.68","MONTREAL MIRABEL INTL A","7034900","2018-02-02 18:00","2018","02","02","18:00","-17.5","","-23.8","","59","","","","27","","9","","40.2","","101.15","","","","-24","","NA"
"-74.04","45.68","MONTREAL MIRABEL INTL A","7034900","2018-02-02 19:00","2018","02","02","19:00","-18.0","","-24.0","","60","","","","25","","7","","40.2","","101.22","","","","-23","","Clear"
"-74.04","45.68","MONTREAL MIRABEL INTL A","7034900","2018-02-02 20:00","2018","02","02","20:00","-18.3","","-24.0","","62","","","","27","","8","","40.2","","101.27","","","","-24","","NA"
"-74.04","45.68","MONTREAL MIRABEL INTL A","7034900","2018-02-02 21:00","2018","02","02","21:00","-19.4","","-24.6","","64","","","","26","","5","","40.2","","101.28","","","","-24","","NA"
"-74.04","45.68","MONTREAL MIRABEL INTL A","7034900","2018-02-02 22:00","2018","02","02","22:00","-20.2","","-24.9","","67","","","","26","","10","","40.2","","101.31","","","","-27","","Mainly Clear"
"-74.04","45.68","MONTREAL MIRABEL INTL A","7034900","2018-02-02 23:00","2018","02","02","23:00","-20.1","","-24.4","","69","","","","25","","7","","40.2","","101.32","","","","-26","","NA"
"-74.04","45.68","MONTREAL MIRABEL INTL A","7034900","2018-02-03 00:00","2018","02","03","00:00","-21.1","","-24.6","","74","","","","24","","8","","40.2","","101.35","","","","-28","","NA"
"-74.04","45.68","MONTREAL MIRABEL INTL A","7034900","2018-02-03 01:00","2018","02","03","01:00","-21.4","","-25.2","","72","","","","26","","4","","40.2","","101.35","","","","-25","","Mainly Clear"
"-74.04","45.68","MONTREAL MIRABEL INTL A","7034900","2018-02-03 02:00","2018","02","03","02:00","-22.4","","-25.9","","74","","","","25","","6","","40.2","","101.35","","","","-28","","NA"
"-74.04","45.68","MONTREAL MIRABEL INTL A","7034900","2018-02-03 03:00","2018","02","03","03:00","-22.5","","-25.8","","75","","","","25","","8","","40.2","","101.33","","","","-29","","NA"
"-74.04","45.68","MONTREAL MIRABEL INTL A","7034900","2018-02-03 04:00","2018","02","03","04:00","-23.4","","-26.4","","76","","","","25","","4","","40.2","","101.30","","","","-27","","Clear"
"-74.04","45.68","MONTREAL MIRABEL INTL A","7034900","2018-02-03 05:00","2018","02","03","05:00","-24.1","","-26.7","","79","","","","","","0","","40.2","","101.28","","","","","","NA"
"-74.04","45.68","MONTREAL MIRABEL INTL A","7034900","2018-02-03 06:00","2018","02","03","06:00","-26.3","","-28.9","","80","","","","1","","3","","40.2","","101.30","","","","-29","","NA"
"-74.04","45.68","MONTREAL MIRABEL INTL A","7034900","2018-02-03 07:00","2018","02","03","07:00","-26.5","","-29.1","","79","","","","","","0","","72.4","","101.33","","","","","","Mostly Cloudy"
"-74.04","45.68","MONTREAL MIRABEL INTL A","7034900","2018-02-03 08:00","2018","02","03","08:00","-26.8","","-29.8","","76","","","","","","0","","32.2","","101.35","","","","","","NA"
"-74.04","45.68","MONTREAL MIRABEL INTL A","7034900","2018-02-03 09:00","2018","02","03","09:00","-23.3","","-26.1","","78","","","","","","0","","40.2","","101.35","","","","","","NA"
"-74.04","45.68","MONTREAL MIRABEL INTL A","7034900","2018-02-03 10:00","2018","02","03","10:00","-21.0","","-24.9","","71","","","","","","0","","40.2","","101.36","","","","","","Mainly Clear"
"-74.04","45.68","MONTREAL MIRABEL INTL A","7034900","2018-02-03 11:00","2018","02","03","11:00","-17.5","","-22.8","","64","","","","3","","4","","40.2","","101.32","","","","-21","","NA"
"-74.04","45.68","MONTREAL MIRABEL INTL A","7034900","2018-02-03 12:00","2018","02","03","12:00","-14.8","","-20.7","","62","","","","18","","7","","32.2","","101.26","","","","-20","","NA"
"-74.04","45.68","MONTREAL MIRABEL INTL A","7034900","2018-02-03 13:00","2018","02","03","13:00","-14.8","","-20.8","","61","","","","19","","4","","24.1","","101.19","","","","-18","","Mostly Cloudy"
"-74.04","45.68","MONTREAL MIRABEL INTL A","7034900","2018-02-03 14:00","2018","02","03","14:00","-13.5","","-19.7","","60","","","","27","","4","","48.3","","101.13","","","","-16","","NA"
"-74.04","45.68","MONTREAL MIRABEL INTL A","7034900","2018-02-03 15:00","2018","02","03","15:00","-12.0","","-17.5","","64","","","","27","","7","","48.3","","101.12","","","","-16","","NA"
"-74.04","45.68","MONTREAL MIRABEL INTL A","7034900","2018-02-03 16:00","2018","02","03","16:00","-11.4","","-17.0","","64","","","","24","","6","","48.3","","101.12","","","","-15","","Mainly Clear"
"-74.04","45.68","MONTREAL MIRABEL INTL A","7034900","2018-02-03 17:00","2018","02","03","17:00","-12.7","","-17.2","","69","","","","18","","3","","32.2","","101.12","","","","-15","","NA"
"-74.04","45.68","MONTREAL MIRABEL INTL A","7034900","2018-02-03 18:00","2018","02","03","18:00","-13.0","","-17.2","","71","","","","","","0","","24.1","","101.13","","","","","","Snow"
"-74.04","45.68","MONTREAL MIRABEL INTL A","7034900","2018-02-03 19:00","2018","02","03","19:00","-12.5","","-14.8","","83","","","","5","","8","","4.0","","101.14","","","","-17","","Snow"
"-74.04","45.68","MONTREAL MIRABEL INTL A","7034900","2018-02-03 20:00","2018","02","03","20:00","-12.7","","-14.7","","85","","","","4","","4","","3.2","","101.13","","","","-15","","Snow"
"-74.04","45.68","MONTREAL MIRABEL INTL A","7034900","2018-02-03 21:00","2018","02","03","21:00","-12.3","","-14.1","","87","","","","4","","8","","3.2","","101.03","","","","-17","","Snow"
"-74.04","45.68","MONTREAL MIRABEL INTL A","7034900","2018-02-03 22:00","2018","02","03","22:00","-12.4","","-14.3","","86","","","","2","","4","","4.0","","100.99","","","","-15","","Snow"
"-74.04","45.68","MONTREAL MIRABEL INTL A","7034900","2018-02-03 23:00","2018","02","03","23:00","-12.3","","-14.1","","87","","","","2","","5","","4.8","","100.92","","","","-16","","Snow"
"-74.04","45.68","MONTREAL MIRABEL INTL A","7034900","2018-02-04 00:00","2018","02","04","00:00","-12.1","","-13.8","","87","","","","2","","6","","4.8","","100.85","","","","-16","","Snow"
"-74.04","45.68","MONTREAL MIRABEL INTL A","7034900","2018-02-04 01:00","2018","02","04","01:00","-11.9","","-13.6","","87","","","","4","","8","","3.2","","100.77","","","","-17","","Snow"
"-74.04","45.68","MONTREAL MIRABEL INTL A","7034900","2018-02-04 02:00","2018","02","04","02:00","-11.7","","-13.4","","87","","","","4","","8","","3.2","","100.69","","","","-16","","Snow"
"-74.04","45.68","MONTREAL MIRABEL INTL A","7034900","2018-02-04 03:00","2018","02","04","03:00","-11.6","","-13.2","","87","","","","4","","9","","3.2","","100.58","","","","-17","","Snow"
"-74.04","45.68","MONTREAL MIRABEL INTL A","7034900","2018-02-04 04:00","2018","02","04","04:00","-11.2","","-12.8","","88","","","","2","","8","","2.4","","100.49","","","","-16","","Snow"
"-74.04","45.68","MONTREAL MIRABEL INTL A","7034900","2018-02-04 05:00","2018","02","04","05:00","-11.0","","-12.6","","88","","","","4","","12","","1.6","","100.42","","","","-17","","Snow"
"-74.04","45.68","MONTREAL MIRABEL INTL A","7034900","2018-02-04 06:00","2018","02","04","06:00","-10.3","","-11.9","","88","","","","4","","10","","6.4","","100.39","","","","-16","","Snow"
"-74.04","45.68","MONTREAL MIRABEL INTL A","7034900","2018-02-04 07:00","2018","02","04","07:00","-9.8","","-11.4","","89","","","","5","","9","","2.4","","100.38","","","","-15","","Snow"
"-74.04","45.68","MONTREAL MIRABEL INTL A","7034900","2018-02-04 08:00","2018","02","04","08:00","-9.4","","-10.9","","89","","","","36","","8","","1.2","","100.39","","","","-14","","Snow"
"-74.04","45.68","MONTREAL MIRABEL INTL A","7034900","2018-02-04 09:00","2018","02","04","09:00","-8.8","","-10.4","","88","","","","1","","7","","1.6","","100.36","","","","-13","","Snow"
"-74.04","45.68","MONTREAL MIRABEL INTL A","7034900","2018-02-04 10:00","2018","02","04","10:00","-8.1","","-9.6","","89","","","","3","","5","","1.2","","100.33","","","","-11","","Snow"
"-74.04","45.68","MONTREAL MIRABEL INTL A","7034900","2018-02-04 11:00","2018","02","04","11:00","-7.2","","-8.9","","88","","","","4","","9","","1.2","","100.29","","","","-12","","Snow"
"-74.04","45.68","MONTREAL MIRABEL INTL A","7034900","2018-02-04 12:00","2018","02","04","12:00","-6.3","","-7.9","","89","","","","4","","8","","1.2","","100.17","","","","-10","","Snow"
"-74.04","45.68","MONTREAL MIRABEL INTL A","7034900","2018-02-04 13:00","2018","02","04","13:00","-5.3","","-6.6","","90","","","","3","","7","","1.2","","100.07","","","","-9","","Snow"
"-74.04","45.68","MONTREAL MIRABEL INTL A","7034900","2018-02-04 14:00","2018","02","04","14:00","-4.8","","-6.0","","91","","","","2","","9","","1.2","","99.99","","","","-9","","Snow"
"-74.04","45.68","MONTREAL MIRABEL INTL A","7034900","2018-02-04 15:00","2018","02","04","15:00","-4.1","","-5.2","","92","","","","2","","5","","1.2","","99.96","","","","-6","","Snow"
"-74.04","45.68","MONTREAL MIRABEL INTL A","7034900","2018-02-04 16:00","2018","02","04","16:00","-3.9","","-4.8","","94","","","","3","","5","","1.2","","99.93","","","","-6","","Snow"
"-74.04","45.68","MONTREAL MIRABEL INTL A","7034900","2018-02-04 17:00","2018","02","04","17:00","-3.8","","-4.6","","94","","","","2","","5","","1.2","","99.90","","","","-6","","Snow"
"-74.04","45.68","MONTREAL MIRABEL INTL A","7034900","2018-02-04 18:00","2018","02","04","18:00","-3.5","","-4.3","","94","","","","8","","3","","1.6","","99.89","","","","-5","","Snow"
"-74.04","45.68","MONTREAL MIRABEL INTL A","7034900","2018-02-04 19:00","2018","02","04","19:00","-1.2","","-1.8","","96","","","","16","","12","","2.4","","99.86","","","","-5","","Snow"
"-74.04","45.68","MONTREAL MIRABEL INTL A","7034900","2018-02-04 20:00","2018","02","04","20:00","-1.2","","-1.8","","96","","","","15","","12","","3.2","","99.77","","","","-5","","Snow"
"-74.04","45.68","MONTREAL MIRABEL INTL A","7034900","2018-02-04 21:00","2018","02","04","21:00","-1.1","","-1.7","","96","","","","15","","10","","3.2","","99.69","","","","-5","","Snow"
"-74.04","45.68","MONTREAL MIRABEL INTL A","7034900","2018-02-04 22:00","2018","02","04","22:00","-1.1","","-1.6","","97","","","","14","","9","","3.2","","99.61","","","","-4","","Snow,Fog"
"-74.04","45.68","MONTREAL MIRABEL INTL A","7034900","2018-02-04 23:00","2018","02","04","23:00","-1.2","","-1.8","","96","","","","14","","4","","4.0","","99.55","","","","-3","","Snow"
"-74.04","45.68","MONTREAL MIRABEL INTL A","7034900","2018-02-05 00:00","2018","02","05","00:00","-1.3","","-1.8","","96","","","","14","","6","","4.8","","99.42","","","","-4","","Snow"
"-74.04","45.68","MONTREAL MIRABEL INTL A","7034900","2018-02-05 01:00","2018","02","05","01:00","-1.4","","-1.9","","96","","","","18","","6","","6.4","","99.36","","","","-4","","Snow"
"-74.04","45.68","MONTREAL MIRABEL INTL A","7034900","2018-02-05 02:00","2018","02","05","02:00","-1.4","","-1.9","","96","","","","17","","8","","4.8","","99.30","","","","-4","","Snow"
"-74.04","45.68","MONTREAL MIRABEL INTL A","7034900","2018-02-05 03:00","2018","02","05","03:00","-1.2","","-1.6","","97","","","","21","","7","","3.2","","99.25","","","","-4","","Snow"
"-74.04","45.68","MONTREAL MIRABEL INTL A","7034900","2018-02-05 04:00","2018","02","05","04:00","-2.0","","-3.2","","91","","","","32","","17","","3.2","","99.27","","","","-7","","Snow"
"-74.04","45.68","MONTREAL MIRABEL INTL A","7034900","2018-02-05 05:00","2018","02","05","05:00","-3.9","","-7.2","","78","","","","30","","15","","16.1","","99.33","","","","-9","","Snow"
"-74.04","45.68","MONTREAL MIRABEL INTL A","7034900","2018-02-05 06:00","2018","02","05","06:00","-6.5","","-10.7","","72","","","","30","","14","","40.2","","99.50","","","","-12","","NA"
"-74.04","45.68","MONTREAL MIRABEL INTL A","7034900","2018-02-05 07:00","2018","02","05","07:00","-8.9","","-13.1","","72","","","","27","","14","","32.2","","99.75","","","","-15","","Cloudy"
"-74.04","45.68","MONTREAL MIRABEL INTL A","7034900","2018-02-05 08:00","2018","02","05","08:00","-11.8","","-15.8","","73","","","","27","","16","","40.2","","100.07","","","","-19","","Blowing Snow"
"-74.04","45.68","MONTREAL MIRABEL INTL A","7034900","2018-02-05 09:00","2018","02","05","09:00","-11.8","","-17.2","","65","","","","26","","17","","56.3","","100.26","","","","-19","","Blowing Snow"
"-74.04","45.68","MONTREAL MIRABEL INTL A","7034900","2018-02-05 10:00","2018","02","05","10:00","-11.5","","-18.6","","56","","","","26","","17","","72.4","","100.41","","","","-19","","Blowing Snow"
"-74.04","45.68","MONTREAL MIRABEL INTL A","7034900","2018-02-05 11:00","2018","02","05","11:00","-11.3","","-19.9","","49","","","","26","","17","","72.4","","100.61","","","","-19","","Blowing Snow"
"-74.04","45.68","MONTREAL MIRABEL INTL A","7034900","2018-02-05 12:00","2018","02","05","12:00","-11.8","","-19.8","","52","","","","24","","19","","72.4","","100.64","","","","-20","","Blowing Snow"
"-74.04","45.68","MONTREAL MIRABEL INTL A","7034900","2018-02-05 13:00","2018","02","05","13:00","-11.4","","-19.8","","50","","","","24","","32","","72.4","","100.71","","","","-22","","Clear"
"-74.04","45.68","MONTREAL MIRABEL INTL A","7034900","2018-02-05 14:00","2018","02","05","14:00","-11.6","","-18.8","","56","","","","24","","20","","72.4","","100.74","","","","-20","","NA"
"-74.04","45.68","MONTREAL MIRABEL INTL A","7034900","2018-02-05 15:00","2018","02","05","15:00","-11.3","","-18.4","","56","","","","24","","20","","72.4","","100.78","","","","-20","","Blowing Snow"
"-74.04","45.68","MONTREAL MIRABEL INTL A","7034900","2018-02-05 16:00","2018","02","05","16:00","-11.3","","-18.0","","58","","","","23","","20","","72.4","","100.89","","","","-20","","Blowing Snow"
"-74.04","45.68","MONTREAL MIRABEL INTL A","7034900","2018-02-05 17:00","2018","02","05","17:00","-11.9","","-18.1","","60","","","","23","","14","","72.4","","100.90","","","","-19","","Blowing Snow"
"-74.04","45.68","MONTREAL MIRABEL INTL A","7034900","2018-02-05 18:00","2018","02","05","18:00","-12.8","","-18.0","","65","","","","22","","10","","40.2","","100.99","","","","-19","","NA"
"-74.04","45.68","MONTREAL MIRABEL INTL A","7034900","2018-02-05 19:00","2018","02","05","19:00","-12.8","","-17.7","","67","","","","23","","10","","40.2","","101.03","","","","-19","","Mainly Clear"
"-74.04","45.68","MONTREAL MIRABEL INTL A","7034900","2018-02-05 20:00","2018","02","05","20:00","-12.5","","-17.1","","69","","","","23","","8","","40.2","","101.08","","","","-17","","NA"
"-74.04","45.68","MONTREAL MIRABEL INTL A","7034900","2018-02-05 21:00","2018","02","05","21:00","-12.0","","-16.2","","71","","","","23","","10","","40.2","","101.10","","","","-18","","NA"
"-74.04","45.68","MONTREAL MIRABEL INTL A","7034900","2018-02-05 22:00","2018","02","05","22:00","-11.8","","-16.1","","71","","","","22","","9","","40.2","","101.10","","","","-17","","Cloudy"
"-74.04","45.68","MONTREAL MIRABEL INTL A","7034900","2018-02-05 23:00","2018","02","05","23:00","-12.3","","-16.2","","73","","","","20","","13","","40.2","","101.07","","","","-19","","NA"
"-74.04","45.68","MONTREAL MIRABEL INTL A","7034900","2018-02-06 00:00","2018","02","06","00:00","-11.6","","-14.3","","80","","","","22","","10","","40.2","","101.09","","","","-17","","NA"
"-74.04","45.68","MONTREAL MIRABEL INTL A","7034900","2018-02-06 01:00","2018","02","06","01:00","-11.9","","-14.1","","84","","","","24","","6","","40.2","","101.06","","","","-16","","Cloudy"
"-74.04","45.68","MONTREAL MIRABEL INTL A","7034900","2018-02-06 02:00","2018","02","06","02:00","-13.4","","-14.8","","89","","","","20","","7","","40.2","","101.11","","","","-18","","NA"
"-74.04","45.68","MONTREAL MIRABEL INTL A","7034900","2018-02-06 03:00","2018","02","06","03:00","-11.8","","-13.9","","84","","","","21","","8","","40.2","","101.10","","","","-17","","NA"
"-74.04","45.68","MONTREAL MIRABEL INTL A","7034900","2018-02-06 04:00","2018","02","06","04:00","-13.3","","-15.3","","85","","","","22","","5","","24.1","","101.08","","","","-17","","Snow"
"-74.04","45.68","MONTREAL MIRABEL INTL A","7034900","2018-02-06 05:00","2018","02","06","05:00","-13.2","","-14.8","","88","","","","22","","3","","8.1","","101.09","","","","-15","","Snow"
"-74.04","45.68","MONTREAL MIRABEL INTL A","7034900","2018-02-06 06:00","2018","02","06","06:00","-12.6","","-14.2","","88","","","","24","","3","","8.1","","101.15","","","","-15","","Snow"
"-74.04","45.68","MONTREAL MIRABEL INTL A","7034900","2018-02-06 07:00","2018","02","06","07:00","-12.4","","-14.0","","88","","","","","","0","","6.4","","101.21","","","","","","Snow"
"-74.04","45.68","MONTREAL MIRABEL INTL A","7034900","2018-02-06 08:00","2018","02","06","08:00","-10.2","","-11.6","","90","","","","20","","7","","6.4","","101.28","","","","-14","","Snow"
"-74.04","45.68","MONTREAL MIRABEL INTL A","7034900","2018-02-06 09:00","2018","02","06","09:00","-8.6","","-10.6","","86","","","","24","","6","","8.1","","101.30","","","","-12","","Snow"
"-74.04","45.68","MONTREAL MIRABEL INTL A","7034900","2018-02-06 10:00","2018","02","06","10:00","-7.2","","-9.8","","82","","","","22","","16","","8.1","","101.33","","","","-14","","Snow"
"-74.04","45.68","MONTREAL MIRABEL INTL A","7034900","2018-02-06 11:00","2018","02","06","11:00","-6.7","","-9.8","","79","","","","23","","14","","4.8","","101.38","","","","-12","","Snow"
"-74.04","45.68","MONTREAL MIRABEL INTL A","7034900","2018-02-06 12:00","2018","02","06","12:00","-6.3","","-9.3","","79","","","","25","","16","","6.4","","101.37","","","","-12","","Snow"
"-74.04","45.68","MONTREAL MIRABEL INTL A","7034900","2018-02-06 13:00","2018","02","06","13:00","-5.6","","-10.0","","71","","","","25","","14","","24.1","","101.38","","","","-11","","Snow"
"-74.04","45.68","MONTREAL MIRABEL INTL A","7034900","2018-02-06 14:00","2018","02","06","14:00","-6.1","","-11.3","","67","","","","23","","21","","32.2","","101.45","","","","-13","","NA"
"-74.04","45.68","MONTREAL MIRABEL INTL A","7034900","2018-02-06 15:00","2018","02","06","15:00","-5.9","","-11.5","","65","","","","25","","16","","48.3","","101.48","","","","-12","","NA"
"-74.04","45.68","MONTREAL MIRABEL INTL A","7034900","2018-02-06 16:00","2018","02","06","16:00","-6.0","","-12.5","","60","","","","25","","16","","40.2","","101.63","","","","-12","","Mostly Cloudy"
"-74.04","45.68","MONTREAL MIRABEL INTL A","7034900","2018-02-06 17:00","2018","02","06","17:00","-6.8","","-12.2","","66","","","","24","","6","","40.2","","101.75","","","","-10","","NA"
"-74.04","45.68","MONTREAL MIRABEL INTL A","7034900","2018-02-06 18:00","2018","02","06","18:00","-7.5","","-13.5","","63","","","","25","","9","","40.2","","101.88","","","","-12","","NA"
"-74.04","45.68","MONTREAL MIRABEL INTL A","7034900","2018-02-06 19:00","2018","02","06","19:00","-11.0","","-15.4","","70","","","","30","","4","","40.2","","101.97","","","","-13","","Clear"
"-74.04","45.68","MONTREAL MIRABEL INTL A","7034900","2018-02-06 20:00","2018","02","06","20:00","-10.3","","-13.9","","75","","","","26","","4","","40.2","","102.05","","","","-13","","NA"
"-74.04","45.68","MONTREAL MIRABEL INTL A","7034900","2018-02-06 21:00","2018","02","06","21:00","-11.8","","-14.2","","83","","","","27","","5","","40.2","","102.13","","","","-15","","NA"
"-74.04","45.68","MONTREAL MIRABEL INTL A","7034900","2018-02-06 22:00","2018","02","06","22:00","-13.3","","-15.6","","83","","","","24","","5","","40.2","","102.21","","","","-17","","Mainly Clear"
"-74.04","45.68","MONTREAL MIRABEL INTL A","7034900","2018-02-06 23:00","2018","02","06","23:00","-16.7","","-18.3","","88","","","","","","0","","40.2","","102.27","","","","","","NA"
"-74.04","45.68","MONTREAL MIRABEL INTL A","7034900","2018-02-07 00:00","2018","02","07","00:00","-16.4","","-18.1","","87","","","","35","","3","","40.2","","102.32","","","","-19","","NA"
"-74.04","45.68","MONTREAL MIRABEL INTL A","7034900","2018-02-07 01:00","2018","02","07","01:00","-17.9","","-19.8","","85","","","","1","","4","","40.2","","102.31","","","","-21","","Clear"
"-74.04","45.68","MONTREAL MIRABEL INTL A","7034900","2018-02-07 02:00","2018","02","07","02:00","-18.8","","-21.0","","84","","","","","","0","","40.2","","102.29","","","","","","NA"
"-74.04","45.68","MONTREAL MIRABEL INTL A","7034900","2018-02-07 03:00","2018","02","07","03:00","-18.6","","-20.8","","83","","","","5","","8","","40.2","","102.25","","","","-25","","NA"
"-74.04","45.68","MONTREAL MIRABEL INTL A","7034900","2018-02-07 04:00","2018","02","07","04:00","-19.4","","-21.7","","82","","","","6","","7","","40.2","","102.27","","","","-25","","Mostly Cloudy"
"-74.04","45.68","MONTREAL MIRABEL INTL A","7034900","2018-02-07 05:00","2018","02","07","05:00","-18.7","","-21.0","","82","","","","5","","7","","40.2","","102.31","","","","-24","","NA"
"-74.04","45.68","MONTREAL MIRABEL INTL A","7034900","2018-02-07 06:00","2018","02","07","06:00","-18.0","","-20.2","","83","","","","4","","3","","40.2","","102.27","","","","-20","","NA"
"-74.04","45.68","MONTREAL MIRABEL INTL A","7034900","2018-02-07 07:00","2018","02","07","07:00","-16.0","","-18.2","","84","","","","2","","5","","40.2","","102.21","","","","-20","","Cloudy"
"-74.04","45.68","MONTREAL MIRABEL INTL A","7034900","2018-02-07 08:00","2018","02","07","08:00","-14.9","","-17.2","","83","","","","6","","7","","32.2","","102.07","","","","-20","","NA"
"-74.04","45.68","MONTREAL MIRABEL INTL A","7034900","2018-02-07 09:00","2018","02","07","09:00","-13.7","","-16.6","","79","","","","3","","5","","32.2","","101.94","","","","-17","","NA"
"-74.04","45.68","MONTREAL MIRABEL INTL A","7034900","2018-02-07 10:00","2018","02","07","10:00","-13.4","","-15.8","","82","","","","5","","9","","3.2","","101.85","","","","-19","","Snow"
"-74.04","45.68","MONTREAL MIRABEL INTL A","7034900","2018-02-07 11:00","2018","02","07","11:00","-13.0","","-15.3","","83","","","","5","","9","","2.0","","101.78","","","","-18","","Snow"
"-74.04","45.68","MONTREAL MIRABEL INTL A","7034900","2018-02-07 12:00","2018","02","07","12:00","-12.8","","-15.0","","84","","","","5","","7","","1.6","","101.55","","","","-17","","Snow"
"-74.04","45.68","MONTREAL MIRABEL INTL A","7034900","2018-02-07 13:00","2018","02","07","13:00","-12.6","","-14.7","","84","","","","6","","8","","1.2","","101.37","","","","-18","","Snow"
"-74.04","45.68","MONTREAL MIRABEL INTL A","7034900","2018-02-07 14:00","2018","02","07","14:00","-12.3","","-14.5","","84","","","","5","","10","","1.2","","101.15","","","","-18","","Snow"
"-74.04","45.68","MONTREAL MIRABEL INTL A","7034900","2018-02-07 15:00","2018","02","07","15:00","-12.0","","-14.0","","85","","","","4","","5","","1.6","","101.00","","","","-15","","Snow"
"-74.04","45.68","MONTREAL MIRABEL INTL A","7034900","2018-02-07 16:00","2018","02","07","16:00","-11.7","","-13.8","","85","","","","4","","9","","2.8","","100.85","","","","-17","","Snow"
"-74.04","45.68","MONTREAL MIRABEL INTL A","7034900","2018-02-07 17:00","2018","02","07","17:00","-11.5","","-13.5","","85","","","","3","","7","","1.6","","100.75","","","","-16","","Snow"
"-74.04","45.68","MONTREAL MIRABEL INTL A","7034900","2018-02-07 18:00","2018","02","07","18:00","-11.1","","-13.1","","85","","","","2","","10","","2.4","","100.69","","","","-17","","Snow"
"-74.04","45.68","MONTREAL MIRABEL INTL A","7034900","2018-02-07 19:00","2018","02","07","19:00","-10.6","","-12.8","","84","","","","1","","10","","12.9","","100.70","","","","-16","","Snow"
"-74.04","45.68","MONTREAL MIRABEL INTL A","7034900","2018-02-07 20:00","2018","02","07","20:00","-10.2","","-12.5","","83","","","","34","","10","","4.8","","100.78","","","","-15","","Snow"
"-74.04","45.68","MONTREAL MIRABEL INTL A","7034900","2018-02-07 21:00","2018","02","07","21:00","-10.2","","-12.0","","86","","","","31","","5","","4.8","","100.78","","","","-13","","Snow"
"-74.04","45.68","MONTREAL MIRABEL INTL A","7034900","2018-02-07 22:00","2018","02","07","22:00","-10.5","","-12.2","","87","","","","25","","7","","8.1","","100.88","","","","-15","","Snow"
"-74.04","45.68","MONTREAL MIRABEL INTL A","7034900","2018-02-07 23:00","2018","02","07","23:00","-11.1","","-12.9","","87","","","","20","","7","","24.1","","100.92","","","","-15","","NA"
"-74.04","45.68","MONTREAL MIRABEL INTL A","7034900","2018-02-08 00:00","2018","02","08","00:00","-11.8","","-13.5","","88","","","","21","","11","","24.1","","101.00","","","","-18","","NA"
"-74.04","45.68","MONTREAL MIRABEL INTL A","7034900","2018-02-08 01:00","2018","02","08","01:00","-13.1","","-14.9","","86","","","","23","","8","","40.2","","101.09","","","","-18","","Mainly Clear"
"-74.04","45.68","MONTREAL MIRABEL INTL A","7034900","2018-02-08 02:00","2018","02","08","02:00","-13.9","","-15.9","","85","","","","26","","7","","40.2","","101.20","","","","-19","","NA"
"-74.04","45.68","MONTREAL MIRABEL INTL A","7034900","2018-02-08 03:00","2018","02","08","03:00","-15.9","","-17.7","","86","","","","26","","8","","40.2","","101.23","","","","-21","","NA"
"-74.04","45.68","MONTREAL MIRABEL INTL A","7034900","2018-02-08 04:00","2018","02","08","04:00","-16.2","","-18.1","","85","","","","25","","8","","40.2","","101.24","","","","-22","","Clear"
"-74.04","45.68","MONTREAL MIRABEL INTL A","7034900","2018-02-08 05:00","2018","02","08","05:00","-18.4","","-20.4","","85","","","","26","","9","","40.2","","101.32","","","","-25","","NA"
"-74.04","45.68","MONTREAL MIRABEL INTL A","7034900","2018-02-08 06:00","2018","02","08","06:00","-17.7","","-19.7","","85","","","","23","","10","","40.2","","101.40","","","","-24","","NA"
"-74.04","45.68","MONTREAL MIRABEL INTL A","7034900","2018-02-08 07:00","2018","02","08","07:00","-17.6","","-19.6","","85","","","","25","","14","","48.3","","101.50","","","","-26","","Mostly Cloudy"
"-74.04","45.68","MONTREAL MIRABEL INTL A","7034900","2018-02-08 08:00","2018","02","08","08:00","-17.2","","-19.3","","84","","","","24","","10","","48.3","","101.58","","","","-24","","NA"
"-74.04","45.68","MONTREAL MIRABEL INTL A","7034900","2018-02-08 09:00","2018","02","08","09:00","-16.2","","-18.3","","84","","","","25","","11","","48.3","","101.65","","","","-23","","NA"
"-74.04","45.68","MONTREAL MIRABEL INTL A","7034900","2018-02-08 10:00","2018","02","08","10:00","-15.1","","-17.4","","82","","","","25","","11","","32.2","","101.67","","","","-22","","Clear"
"-74.04","45.68","MONTREAL MIRABEL INTL A","7034900","2018-02-08 11:00","2018","02","08","11:00","-12.9","","-16.4","","76","","","","24","","11","","48.3","","101.66","","","","-19","","NA"
"-74.04","45.68","MONTREAL MIRABEL INTL A","7034900","2018-02-08 12:00","2018","02","08","12:00","-11.1","","-15.7","","69","","","","24","","9","","56.3","","101.59","","","","-16","","NA"
"-74.04","45.68","MONTREAL MIRABEL INTL A","7034900","2018-02-08 13:00","2018","02","08","13:00","-10.1","","-15.2","","67","","","","24","","16","","48.3","","101.51","","","","-17","","Mainly Clear"
"-74.04","45.68","MONTREAL MIRABEL INTL A","7034900","2018-02-08 14:00","2018","02","08","14:00","-9.2","","-15.4","","61","","","","23","","13","","56.3","","101.46","","","","-15","","NA"
"-74.04","45.68","MONTREAL MIRABEL INTL A","7034900","2018-02-08 15:00","2018","02","08","15:00","-8.8","","-14.5","","64","","","","23","","9","","48.3","","101.41","","","","-13","","NA"
"-74.04","45.68","MONTREAL MIRABEL INTL A","7034900","2018-02-08 16:00","2018","02","08","16:00","-8.8","","-14.4","","64","","","","25","","9","","56.3","","101.40","","","","-13","","Mostly Cloudy"
"-74.04","45.68","MONTREAL MIRABEL INTL A","7034900","2018-02-08 17:00","2018","02","08","17:00","-10.0","","-15.4","","65","","","","24","","7","","40.2","","101.40","","","","-14","","NA"
"-74.04","45.68","MONTREAL MIRABEL INTL A","7034900","2018-02-08 18:00","2018","02","08","18:00","-12.6","","-15.9","","76","","","","21","","6","","40.2","","101.42","","","","-17","","NA"
"-74.04","45.68","MONTREAL MIRABEL INTL A","7034900","2018-02-08 19:00","2018","02","08","19:00","-12.3","","-15.8","","76","","","","23","","6","","40.2","","101.47","","","","-16","","Cloudy"
"-74.04","45.68","MONTREAL MIRABEL INTL A","7034900","2018-02-08 20:00","2018","02","08","20:00","-11.7","","-14.5","","80","","","","21","","6","","8.1","","101.49","","","","-15","","Snow Showers"
"-74.04","45.68","MONTREAL MIRABEL INTL A","7034900","2018-02-08 21:00","2018","02","08","21:00","-10.6","","-12.7","","85","","","","22","","7","","6.4","","101.49","","","","-15","","Snow Showers"
"-74.04","45.68","MONTREAL MIRABEL INTL A","7034900","2018-02-08 22:00","2018","02","08","22:00","-11.3","","-13.0","","87","","","","24","","4","","4.8","","101.48","","","","-14","","Snow Showers"
"-74.04","45.68","MONTREAL MIRABEL INTL A","7034900","2018-02-08 23:00","2018","02","08","23:00","-9.7","","-11.6","","86","","","","24","","11","","16.1","","101.54","","","","-15","","Snow Showers"
"-74.04","45.68","MONTREAL MIRABEL INTL A","7034900","2018-02-09 00:00","2018","02","09","00:00","-9.8","","-11.6","","87","","","","23","","16","","24.1","","101.59","","","","-17","","Snow Showers"
"-74.04","45.68","MONTREAL MIRABEL INTL A","7034900","2018-02-09 01:00","2018","02","09","01:00","-11.5","","-13.2","","88","","","","23","","13","","40.2","","101.60","","","","-18","","Mostly Cloudy"
"-74.04","45.68","MONTREAL MIRABEL INTL A","7034900","2018-02-09 02:00","2018","02","09","02:00","-12.5","","-14.6","","85","","","","25","","17","","40.2","","101.64","","","","-20","","NA"
"-74.04","45.68","MONTREAL MIRABEL INTL A","7034900","2018-02-09 03:00","2018","02","09","03:00","-13.4","","-15.6","","83","","","","25","","10","","40.2","","101.68","","","","-19","","NA"
"-74.04","45.68","MONTREAL MIRABEL INTL A","7034900","2018-02-09 04:00","2018","02","09","04:00","-14.2","","-16.3","","84","","","","24","","13","","40.2","","101.72","","","","-21","","Clear"
"-74.04","45.68","MONTREAL MIRABEL INTL A","7034900","2018-02-09 05:00","2018","02","09","05:00","-15.1","","-17.0","","85","","","","24","","10","","40.2","","101.78","","","","-21","","NA"
"-74.04","45.68","MONTREAL MIRABEL INTL A","7034900","2018-02-09 06:00","2018","02","09","06:00","-15.8","","-17.7","","85","","","","23","","10","","40.2","","101.83","","","","-22","","NA"
"-74.04","45.68","MONTREAL MIRABEL INTL A","7034900","2018-02-09 07:00","2018","02","09","07:00","-15.7","","-17.6","","85","","","","23","","10","","40.2","","101.88","","","","-22","","Mostly Cloudy"
"-74.04","45.68","MONTREAL MIRABEL INTL A","7034900","2018-02-09 08:00","2018","02","09","08:00","-16.5","","-18.4","","86","","","","24","","7","","40.2","","101.99","","","","-22","","NA"
"-74.04","45.68","MONTREAL MIRABEL INTL A","7034900","2018-02-09 09:00","2018","02","09","09:00","-14.7","","-16.8","","84","","","","25","","9","","24.1","","102.04","","","","-20","","NA"
"-74.04","45.68","MONTREAL MIRABEL INTL A","7034900","2018-02-09 10:00","2018","02","09","10:00","-13.9","","-16.5","","81","","","","21","","10","","32.2","","102.08","","","","-20","","Mostly Cloudy"
"-74.04","45.68","MONTREAL MIRABEL INTL A","7034900","2018-02-09 11:00","2018","02","09","11:00","-12.1","","-15.9","","74","","","","22","","9","","24.1","","102.06","","","","-17","","NA"
"-74.04","45.68","MONTREAL MIRABEL INTL A","7034900","2018-02-09 12:00","2018","02","09","12:00","-10.8","","-15.6","","68","","","","22","","13","","40.2","","102.04","","","","-17","","NA"
"-74.04","45.68","MONTREAL MIRABEL INTL A","7034900","2018-02-09 13:00","2018","02","09","13:00","-10.2","","-15.2","","67","","","","27","","12","","24.1","","101.99","","","","-16","","Mostly Cloudy"
"-74.04","45.68","MONTREAL MIRABEL INTL A","7034900","2018-02-09 14:00","2018","02","09","14:00","-9.3","","-15.4","","61","","","","25","","8","","72.4","","101.94","","","","-14","","NA"
"-74.04","45.68","MONTREAL MIRABEL INTL A","7034900","2018-02-09 15:00","2018","02","09","15:00","-9.0","","-15.2","","61","","","","27","","7","","32.2","","101.89","","","","-13","","NA"
"-74.04","45.68","MONTREAL MIRABEL INTL A","7034900","2018-02-09 16:00","2018","02","09","16:00","-8.8","","-14.7","","62","","","","20","","4","","32.2","","101.86","","","","-11","","Cloudy"
"-74.04","45.68","MONTREAL MIRABEL INTL A","7034900","2018-02-09 17:00","2018","02","09","17:00","-9.0","","-14.3","","66","","","","","","0","","8.1","","101.83","","","","","","Snow Showers"
"-74.04","45.68","MONTREAL MIRABEL INTL A","7034900","2018-02-09 18:00","2018","02","09","18:00","-9.8","","-13.6","","74","","","","5","","4","","16.1","","101.79","","","","-12","","Snow Showers"
"-74.04","45.68","MONTREAL MIRABEL INTL A","7034900","2018-02-09 19:00","2018","02","09","19:00","-9.7","","-12.3","","82","","","","4","","5","","8.1","","101.76","","","","-13","","Snow Showers"
"-74.04","45.68","MONTREAL MIRABEL INTL A","7034900","2018-02-09 20:00","2018","02","09","20:00","-10.2","","-12.0","","87","","","","3","","4","","8.1","","101.70","","","","-13","","Snow Showers"
"-74.04","45.68","MONTREAL MIRABEL INTL A","7034900","2018-02-09 21:00","2018","02","09","21:00","-10.3","","-12.0","","88","","","","3","","7","","12.9","","101.66","","","","-14","","Snow Showers"
"-74.04","45.68","MONTREAL MIRABEL INTL A","7034900","2018-02-09 22:00","2018","02","09","22:00","-10.2","","-11.8","","88","","","","2","","10","","9.7","","101.57","","","","-15","","Snow"
"-74.04","45.68","MONTREAL MIRABEL INTL A","7034900","2018-02-09 23:00","2018","02","09","23:00","-10.1","","-11.7","","88","","","","3","","9","","8.1","","101.53","","","","-15","","Snow"
"-74.04","45.68","MONTREAL MIRABEL INTL A","7034900","2018-02-10 00:00","2018","02","10","00:00","-10.2","","-11.8","","88","","","","4","","7","","6.4","","101.49","","","","-14","","Snow"
"-74.04","45.68","MONTREAL MIRABEL INTL A","7034900","2018-02-10 01:00","2018","02","10","01:00","-10.3","","-11.9","","88","","","","4","","4","","6.4","","101.43","","","","-13","","Snow"
"-74.04","45.68","MONTREAL MIRABEL INTL A","7034900","2018-02-10 02:00","2018","02","10","02:00","-10.2","","-11.9","","88","","","","4","","8","","6.4","","101.40","","","","-15","","Snow"
"-74.04","45.68","MONTREAL MIRABEL INTL A","7034900","2018-02-10 03:00","2018","02","10","03:00","-10.2","","-11.9","","88","","","","3","","7","","9.7","","101.34","","","","-14","","Snow"
"-74.04","45.68","MONTREAL MIRABEL INTL A","7034900","2018-02-10 04:00","2018","02","10","04:00","-10.2","","-11.9","","87","","","","4","","4","","12.9","","101.28","","","","-13","","Snow"
"-74.04","45.68","MONTREAL MIRABEL INTL A","7034900","2018-02-10 05:00","2018","02","10","05:00","-9.9","","-11.7","","87","","","","3","","6","","16.1","","101.25","","","","-13","","Snow"
"-74.04","45.68","MONTREAL MIRABEL INTL A","7034900","2018-02-10 06:00","2018","02","10","06:00","-9.5","","-11.5","","85","","","","2","","7","","24.1","","101.25","","","","-13","","Snow"
"-74.04","45.68","MONTREAL MIRABEL INTL A","7034900","2018-02-10 07:00","2018","02","10","07:00","-9.4","","-11.3","","86","","","","4","","6","","12.9","","101.28","","","","-13","","Snow"
"-74.04","45.68","MONTREAL MIRABEL INTL A","7034900","2018-02-10 08:00","2018","02","10","08:00","-9.1","","-11.0","","86","","","","5","","4","","9.7","","101.30","","","","-11","","Snow"
"-74.04","45.68","MONTREAL MIRABEL INTL A","7034900","2018-02-10 09:00","2018","02","10","09:00","-8.8","","-10.9","","85","","","","4","","5","","4.8","","101.32","","","","-12","","Snow,Fog"
"-74.04","45.68","MONTREAL MIRABEL INTL A","7034900","2018-02-10 10:00","2018","02","10","10:00","-8.2","","-10.5","","83","","","","5","","6","","9.7","","101.31","","","","-11","","Snow"
"-74.04","45.68","MONTREAL MIRABEL INTL A","7034900","2018-02-10 11:00","2018","02","10","11:00","-7.5","","-10.2","","81","","","","4","","5","","9.7","","101.25","","","","-10","","Snow"
"-74.04","45.68","MONTREAL MIRABEL INTL A","7034900","2018-02-10 12:00","2018","02","10","12:00","-7.1","","-9.8","","81","","","","","","0","","12.9","","101.21","","","","","","Snow"
"-74.04","45.68","MONTREAL MIRABEL INTL A","7034900","2018-02-10 13:00","2018","02","10","13:00","-6.4","","-9.5","","79","","","","11","","4","","12.9","","101.11","","","","-8","","Snow"
"-74.04","45.68","MONTREAL MIRABEL INTL A","7034900","2018-02-10 14:00","2018","02","10","14:00","-6.5","","-8.9","","83","","","","","","0","","4.8","","101.08","","","","","","Snow"
"-74.04","45.68","MONTREAL MIRABEL INTL A","7034900","2018-02-10 15:00","2018","02","10","15:00","-5.8","","-7.7","","87","","","","","","0","","2.4","","101.07","","","","","","Snow"
"-74.04","45.68","MONTREAL MIRABEL INTL A","7034900","2018-02-10 16:00","2018","02","10","16:00","-5.8","","-7.6","","87","","","","22","","7","","1.6","","101.10","","","","-9","","Snow"
"-74.04","45.68","MONTREAL MIRABEL INTL A","7034900","2018-02-10 17:00","2018","02","10","17:00","-5.9","","-7.2","","90","","","","24","","4","","1.2","","101.12","","","","-8","","Snow"
"-74.04","45.68","MONTREAL MIRABEL INTL A","7034900","2018-02-10 18:00","2018","02","10","18:00","-6.1","","-7.2","","92","","","","27","","4","","2.4","","101.15","","","","-8","","Snow"
"-74.04","45.68","MONTREAL MIRABEL INTL A","7034900","2018-02-10 19:00","2018","02","10","19:00","-5.8","","-6.8","","92","","","","25","","6","","1.6","","101.23","","","","-9","","Snow"
"-74.04","45.68","MONTREAL MIRABEL INTL A","7034900","2018-02-10 20:00","2018","02","10","20:00","-5.9","","-6.9","","93","","","","28","","5","","2.4","","101.19","","","","-8","","Snow"
"-74.04","45.68","MONTREAL MIRABEL INTL A","7034900","2018-02-10 21:00","2018","02","10","21:00","-6.0","","-6.9","","93","","","","28","","5","","2.4","","101.20","","","","-8","","Snow"
"-74.04","45.68","MONTREAL MIRABEL INTL A","7034900","2018-02-10 22:00","2018","02","10","22:00","-5.9","","-6.8","","93","","","","31","","3","","2.4","","101.20","","","","-7","","Snow"
"-74.04","45.68","MONTREAL MIRABEL INTL A","7034900","2018-02-10 23:00","2018","02","10","23:00","-5.8","","-6.8","","93","","","","34","","3","","16.1","","101.20","","","","-7","","Snow"
"-74.04","45.68","MONTREAL MIRABEL INTL A","7034900","2018-02-11 00:00","2018","02","11","00:00","-5.8","","-7.2","","90","","","","1","","3","","8.1","","101.25","","","","-7","","Snow"
"-74.04","45.68","MONTREAL MIRABEL INTL A","7034900","2018-02-11 01:00","2018","02","11","01:00","-6.3","","-7.6","","91","","","","6","","4","","9.7","","101.25","","","","-8","","Snow"
"-74.04","45.68","MONTREAL MIRABEL INTL A","7034900","2018-02-11 02:00","2018","02","11","02:00","-7.5","","-8.3","","94","","","","2","","3","","12.9","","101.26","","","","-9","","Snow"
"-74.04","45.68","MONTREAL MIRABEL INTL A","7034900","2018-02-11 03:00","2018","02","11","03:00","-8.0","","-8.8","","94","","","","36","","5","","16.1","","101.31","","","","-11","","Snow"
"-74.04","45.68","MONTREAL MIRABEL INTL A","7034900","2018-02-11 04:00","2018","02","11","04:00","-8.5","","-9.5","","92","","","","7","","5","","24.1","","101.25","","","","-11","","Cloudy"
"-74.04","45.68","MONTREAL MIRABEL INTL A","7034900","2018-02-11 05:00","2018","02","11","05:00","-8.3","","-9.5","","92","","","","","","0","","24.1","","101.28","","","","","","NA"
"-74.04","45.68","MONTREAL MIRABEL INTL A","7034900","2018-02-11 06:00","2018","02","11","06:00","-8.6","","-10.0","","90","","","","","","0","","40.2","","101.31","","","","","","NA"
"-74.04","45.68","MONTREAL MIRABEL INTL A","7034900","2018-02-11 07:00","2018","02","11","07:00","-8.8","","-10.2","","89","","","","5","","4","","24.1","","101.27","","","","-11","","Cloudy"
"-74.04","45.68","MONTREAL MIRABEL INTL A","7034900","2018-02-11 08:00","2018","02","11","08:00","-8.9","","-10.9","","86","","","","5","","4","","40.2","","101.30","","","","-11","","NA"
"-74.04","45.68","MONTREAL MIRABEL INTL A","7034900","2018-02-11 09:00","2018","02","11","09:00","-8.5","","-11.5","","79","","","","4","","8","","40.2","","101.22","","","","-13","","NA"
"-74.04","45.68","MONTREAL MIRABEL INTL A","7034900","2018-02-11 10:00","2018","02","11","10:00","-7.8","","-11.5","","75","","","","6","","13","","40.2","","101.08","","","","-14","","Cloudy"
"-74.04","45.68","MONTREAL MIRABEL INTL A","7034900","2018-02-11 11:00","2018","02","11","11:00","-7.1","","-11.1","","73","","","","6","","13","","32.2","","101.03","","","","-13","","NA"
"-74.04","45.68","MONTREAL MIRABEL INTL A","7034900","2018-02-11 12:00","2018","02","11","12:00","-6.7","","-10.5","","75","","","","6","","14","","32.2","","100.79","","","","-12","","Blowing Snow"
"-74.04","45.68","MONTREAL MIRABEL INTL A","7034900","2018-02-11 13:00","2018","02","11","13:00","-5.8","","-9.2","","77","","","","6","","15","","32.2","","100.54","","","","-12","","Cloudy"
"-74.04","45.68","MONTREAL MIRABEL INTL A","7034900","2018-02-11 14:00","2018","02","11","14:00","-5.3","","-7.5","","85","","","","7","","19","","9.7","","100.27","","","","-12","","Freezing Rain,Snow,Blowing Snow"
"-74.04","45.68","MONTREAL MIRABEL INTL A","7034900","2018-02-11 15:00","2018","02","11","15:00","-5.0","","-6.5","","90","","","","6","","15","","4.8","","100.09","","","","-11","","Freezing Rain,Snow,Ice Pellets"
"-74.04","45.68","MONTREAL MIRABEL INTL A","7034900","2018-02-11 16:00","2018","02","11","16:00","-3.6","","-4.6","","93","","","","7","","18","","3.2","","99.89","","","","-9","","Freezing Rain,Snow,Ice Pellets,Fog"
"-74.04","45.68","MONTREAL MIRABEL INTL A","7034900","2018-02-11 17:00","2018","02","11","17:00","-3.4","","-4.3","","94","","","","6","","18","","12.9","","99.71","","","","-9","","Freezing Drizzle,Snow"
"-74.04","45.68","MONTREAL MIRABEL INTL A","7034900","2018-02-11 18:00","2018","02","11","18:00","-3.3","","-4.1","","95","","","","5","","12","","9.7","","99.56","","","","-8","","Freezing Drizzle,Snow"
"-74.04","45.68","MONTREAL MIRABEL INTL A","7034900","2018-02-11 19:00","2018","02","11","19:00","-3.5","","-4.1","","95","","","","5","","5","","4.8","","99.48","","","","-6","","Freezing Drizzle,Fog"
"-74.04","45.68","MONTREAL MIRABEL INTL A","7034900","2018-02-11 20:00","2018","02","11","20:00","-3.1","","-3.8","","95","","","","1","","10","","4.8","","99.42","","","","-7","","Freezing Rain,Fog"
"-74.04","45.68","MONTREAL MIRABEL INTL A","7034900","2018-02-11 21:00","2018","02","11","21:00","-2.3","","-2.8","","96","","","","3","","3","","3.2","","99.52","","","","-3","","Freezing Rain,Fog"
"-74.04","45.68","MONTREAL MIRABEL INTL A","7034900","2018-02-11 22:00","2018","02","11","22:00","-1.3","","-1.8","","96","","","","23","","14","","8.1","","99.59","","","","-6","","Freezing Rain,Fog"
"-74.04","45.68","MONTREAL MIRABEL INTL A","7034900","2018-02-11 23:00","2018","02","11","23:00","-0.7","","-2.2","","90","","","","24","","28","","32.2","","99.81","","","","-7","","NA"
"-74.04","45.68","MONTREAL MIRABEL INTL A","7034900","2018-02-12 00:00","2018","02","12","00:00","-1.8","","-3.8","","86","","","","25","","26","","40.2","","100.04","","","","-8","","NA"
"-74.04","45.68","MONTREAL MIRABEL INTL A","7034900","2018-02-12 01:00","2018","02","12","01:00","-3.4","","-5.2","","88","","","","25","","24","","40.2","","100.23","","","","-10","","Cloudy"
"-74.04","45.68","MONTREAL MIRABEL INTL A","7034900","2018-02-12 02:00","2018","02","12","02:00","-5.1","","-6.9","","87","","","","25","","20","","40.2","","100.46","","","","-12","","NA"
"-74.04","45.68","MONTREAL MIRABEL INTL A","7034900","2018-02-12 03:00","2018","02","12","03:00","-5.7","","-8.0","","84","","","","25","","11","","40.2","","100.71","","","","-10","","NA"
"-74.04","45.68","MONTREAL MIRABEL INTL A","7034900","2018-02-12 04:00","2018","02","12","04:00","-6.4","","-8.9","","83","","","","26","","13","","40.2","","100.91","","","","-12","","Mainly Clear"
"-74.04","45.68","MONTREAL MIRABEL INTL A","7034900","2018-02-12 05:00","2018","02","12","05:00","-7.7","","-10.1","","83","","","","23","","19","","40.2","","101.13","","","","-15","","NA"
"-74.04","45.68","MONTREAL MIRABEL INTL A","7034900","2018-02-12 06:00","2018","02","12","06:00","-8.4","","-11.2","","81","","","","25","","13","","40.2","","101.20","","","","-14","","NA"
"-74.04","45.68","MONTREAL MIRABEL INTL A","7034900","2018-02-12 07:00","2018","02","12","07:00","-9.2","","-11.5","","83","","","","24","","18","","72.4","","101.35","","","","-16","","Mainly Clear"
"-74.04","45.68","MONTREAL MIRABEL INTL A","7034900","2018-02-12 08:00","2018","02","12","08:00","-9.2","","-11.4","","84","","","","24","","16","","48.3","","101.53","","","","-16","","NA"
"-74.04","45.68","MONTREAL MIRABEL INTL A","7034900","2018-02-12 09:00","2018","02","12","09:00","-8.3","","-10.7","","83","","","","25","","17","","72.4","","101.60","","","","-15","","NA"
"-74.04","45.68","MONTREAL MIRABEL INTL A","7034900","2018-02-12 10:00","2018","02","12","10:00","-6.5","","-9.7","","78","","","","25","","17","","72.4","","101.66","","","","-13","","Mostly Cloudy"
"-74.04","45.68","MONTREAL MIRABEL INTL A","7034900","2018-02-12 11:00","2018","02","12","11:00","-5.1","","-9.0","","74","","","","25","","21","","56.3","","101.73","","","","-12","","NA"
"-74.04","45.68","MONTREAL MIRABEL INTL A","7034900","2018-02-12 12:00","2018","02","12","12:00","-4.6","","-9.3","","70","","","","25","","25","","56.3","","101.78","","","","-12","","Snow Showers"
"-74.04","45.68","MONTREAL MIRABEL INTL A","7034900","2018-02-12 13:00","2018","02","12","13:00","-4.8","","-9.6","","69","","","","26","","20","","56.3","","101.84","","","","-11","","Snow Showers"
"-74.04","45.68","MONTREAL MIRABEL INTL A","7034900","2018-02-12 14:00","2018","02","12","14:00","-4.7","","-10.0","","67","","","","25","","21","","40.2","","101.87","","","","-11","","Snow Showers"
"-74.04","45.68","MONTREAL MIRABEL INTL A","7034900","2018-02-12 15:00","2018","02","12","15:00","-4.9","","-10.0","","68","","","","27","","20","","40.2","","101.97","","","","-11","","Snow Showers"
"-74.04","45.68","MONTREAL MIRABEL INTL A","7034900","2018-02-12 16:00","2018","02","12","16:00","-5.2","","-9.7","","71","","","","27","","11","","56.3","","102.09","","","","-10","","Snow Showers"
"-74.04","45.68","MONTREAL MIRABEL INTL A","7034900","2018-02-12 17:00","2018","02","12","17:00","-5.8","","-11.0","","67","","","","27","","16","","56.3","","102.25","","","","-12","","Snow Showers"
"-74.04","45.68","MONTREAL MIRABEL INTL A","7034900","2018-02-12 18:00","2018","02","12","18:00","-7.5","","-11.6","","73","","","","26","","9","","40.2","","102.37","","","","-12","","NA"
"-74.04","45.68","MONTREAL MIRABEL INTL A","7034900","2018-02-12 19:00","2018","02","12","19:00","-8.9","","-12.6","","75","","","","26","","3","","40.2","","102.49","","","","-11","","Mainly Clear"
"-74.04","45.68","MONTREAL MIRABEL INTL A","7034900","2018-02-12 20:00","2018","02","12","20:00","-10.1","","-14.0","","74","","","","29","","5","","40.2","","102.60","","","","-13","","NA"
"-74.04","45.68","MONTREAL MIRABEL INTL A","7034900","2018-02-12 21:00","2018","02","12","21:00","-9.7","","-15.0","","66","","","","30","","8","","40.2","","102.74","","","","-14","","NA"
"-74.04","45.68","MONTREAL MIRABEL INTL A","7034900","2018-02-12 22:00","2018","02","12","22:00","-11.2","","-15.4","","71","","","","31","","5","","40.2","","102.82","","","","-14","","Clear"
"-74.04","45.68","MONTREAL MIRABEL INTL A","7034900","2018-02-12 23:00","2018","02","12","23:00","-11.1","","-16.4","","65","","","","35","","12","","40.2","","102.87","","","","-17","","NA"
"-74.04","45.68","MONTREAL MIRABEL INTL A","7034900","2018-02-13 00:00","2018","02","13","00:00","-14.3","","-17.2","","79","","","","33","","10","","40.2","","102.96","","","","-20","","NA"
"-74.04","45.68","MONTREAL MIRABEL INTL A","7034900","2018-02-13 01:00","2018","02","13","01:00","-16.7","","-18.6","","86","","","","23","","5","","40.2","","103.07","","","","-21","","Clear"
"-74.04","45.68","MONTREAL MIRABEL INTL A","7034900","2018-02-13 02:00","2018","02","13","02:00","-16.9","","-18.7","","86","","","","26","","4","","40.2","","103.14","","","","-20","","NA"
"-74.04","45.68","MONTREAL MIRABEL INTL A","7034900","2018-02-13 03:00","2018","02","13","03:00","-18.7","","-20.9","","83","","","","26","","5","","40.2","","103.17","","","","-23","","NA"
"-74.04","45.68","MONTREAL MIRABEL INTL A","7034900","2018-02-13 04:00","2018","02","13","04:00","-19.8","","-21.6","","86","","","","","","0","","40.2","","103.19","","","","","","Clear"
"-74.04","45.68","MONTREAL MIRABEL INTL A","7034900","2018-02-13 05:00","2018","02","13","05:00","-19.8","","-21.7","","85","","","","","","0","","40.2","","103.23","","","","","","NA"
"-74.04","45.68","MONTREAL MIRABEL INTL A","7034900","2018-02-13 06:00","2018","02","13","06:00","-22.1","","-24.4","","82","","","","26","","7","","40.2","","103.27","","","","-28","","NA"
"-74.04","45.68","MONTREAL MIRABEL INTL A","7034900","2018-02-13 07:00","2018","02","13","07:00","-24.3","","-26.9","","80","","","","27","","7","","72.4","","103.31","","","","-31","","Mainly Clear"
"-74.04","45.68","MONTREAL MIRABEL INTL A","7034900","2018-02-13 08:00","2018","02","13","08:00","-21.9","","-24.1","","82","","","","27","","6","","40.2","","103.36","","","","-27","","NA"
"-74.04","45.68","MONTREAL MIRABEL INTL A","7034900","2018-02-13 09:00","2018","02","13","09:00","-16.1","","-17.9","","85","","","","24","","8","","40.2","","103.37","","","","-22","","NA"
"-74.04","45.68","MONTREAL MIRABEL INTL A","7034900","2018-02-13 10:00","2018","02","13","10:00","-14.0","","-16.9","","79","","","","25","","10","","40.2","","103.36","","","","-20","","Mainly Clear"
"-74.04","45.68","MONTREAL MIRABEL INTL A","7034900","2018-02-13 11:00","2018","02","13","11:00","-12.4","","-16.9","","70","","","","22","","12","","40.2","","103.31","","","","-19","","NA"
"-74.04","45.68","MONTREAL MIRABEL INTL A","7034900","2018-02-13 12:00","2018","02","13","12:00","-11.2","","-16.4","","66","","","","25","","12","","40.2","","103.24","","","","-17","","NA"
"-74.04","45.68","MONTREAL MIRABEL INTL A","7034900","2018-02-13 13:00","2018","02","13","13:00","-9.7","","-15.7","","62","","","","22","","14","","40.2","","103.14","","","","-16","","Mostly Cloudy"
"-74.04","45.68","MONTREAL MIRABEL INTL A","7034900","2018-02-13 14:00","2018","02","13","14:00","-8.9","","-15.0","","62","","","","24","","8","","72.4","","103.02","","","","-13","","NA"
"-74.04","45.68","MONTREAL MIRABEL INTL A","7034900","2018-02-13 15:00","2018","02","13","15:00","-8.3","","-15.1","","58","","","","25","","12","","40.2","","102.97","","","","-14","","NA"
"-74.04","45.68","MONTREAL MIRABEL INTL A","7034900","2018-02-13 16:00","2018","02","13","16:00","-8.2","","-14.8","","59","","","","25","","8","","72.4","","102.89","","","","-12","","Cloudy"
"-74.04","45.68","MONTREAL MIRABEL INTL A","7034900","2018-02-13 17:00","2018","02","13","17:00","-8.6","","-14.3","","63","","","","25","","4","","40.2","","102.77","","","","-11","","NA"
"-74.04","45.68","MONTREAL MIRABEL INTL A","7034900","2018-02-13 18:00","2018","02","13","18:00","-10.1","","-14.0","","73","","","","16","","5","","40.2","","102.65","","","","-13","","NA"
"-74.04","45.68","MONTREAL MIRABEL INTL A","7034900","2018-02-13 19:00","2018","02","13","19:00","-11.0","","-14.0","","79","","","","","","0","","40.2","","102.54","","","","","","Mostly Cloudy"
"-74.04","45.68","MONTREAL MIRABEL INTL A","7034900","2018-02-13 20:00","2018","02","13","20:00","-12.3","","-14.7","","82","","","","32","","4","","40.2","","102.43","","","","-15","","NA"
"-74.04","45.68","MONTREAL MIRABEL INTL A","7034900","2018-02-13 21:00","2018","02","13","21:00","-12.9","","-15.0","","84","","","","","","0","","40.2","","102.29","","","","","","NA"
"-74.04","45.68","MONTREAL MIRABEL INTL A","7034900","2018-02-13 22:00","2018","02","13","22:00","-12.5","","-14.2","","87","","","","","","0","","40.2","","102.12","","","","","","Mostly Cloudy"
"-74.04","45.68","MONTREAL MIRABEL INTL A","7034900","2018-02-13 23:00","2018","02","13","23:00","-12.3","","-14.4","","85","","","","27","","3","","40.2","","102.00","","","","-14","","NA"
"-74.04","45.68","MONTREAL MIRABEL INTL A","7034900","2018-02-14 00:00","2018","02","14","00:00","-12.9","","-14.8","","86","","","","19","","3","","40.2","","101.81","","","","-15","","NA"
"-74.04","45.68","MONTREAL MIRABEL INTL A","7034900","2018-02-14 01:00","2018","02","14","01:00","-14.2","","-15.6","","89","","","","","","0","","40.2","","101.67","","","","","","Mostly Cloudy"
"-74.04","45.68","MONTREAL MIRABEL INTL A","7034900","2018-02-14 02:00","2018","02","14","02:00","-14.2","","-15.7","","89","","","","8","","4","","40.2","","101.50","","","","-17","","NA"
"-74.04","45.68","MONTREAL MIRABEL INTL A","7034900","2018-02-14 03:00","2018","02","14","03:00","-13.5","","-15.4","","86","","","","36","","5","","40.2","","101.42","","","","-17","","NA"
"-74.04","45.68","MONTREAL MIRABEL INTL A","7034900","2018-02-14 04:00","2018","02","14","04:00","-13.3","","-15.5","","84","","","","","","0","","40.2","","101.25","","","","","","Mostly Cloudy"
"-74.04","45.68","MONTREAL MIRABEL INTL A","7034900","2018-02-14 05:00","2018","02","14","05:00","-13.3","","-15.3","","85","","","","1","","3","","40.2","","101.20","","","","-15","","NA"
"-74.04","45.68","MONTREAL MIRABEL INTL A","7034900","2018-02-14 06:00","2018","02","14","06:00","-12.6","","-14.8","","84","","","","","","0","","40.2","","101.11","","","","","","NA"
"-74.04","45.68","MONTREAL MIRABEL INTL A","7034900","2018-02-14 07:00","2018","02","14","07:00","-11.9","","-14.0","","85","","","","","","0","","56.3","","101.06","","","","","","Mostly Cloudy"
"-74.04","45.68","MONTREAL MIRABEL INTL A","7034900","2018-02-14 08:00","2018","02","14","08:00","-10.7","","-13.6","","80","","","","23","","5","","40.2","","101.02","","","","-14","","NA"
"-74.04","45.68","MONTREAL MIRABEL INTL A","7034900","2018-02-14 09:00","2018","02","14","09:00","-9.8","","-12.9","","78","","","","","","0","","40.2","","100.99","","","","","","NA"
"-74.04","45.68","MONTREAL MIRABEL INTL A","7034900","2018-02-14 10:00","2018","02","14","10:00","-4.6","","-10.6","","63","","","","20","","8","","40.2","","100.87","","","","-8","","Cloudy"
"-74.04","45.68","MONTREAL MIRABEL INTL A","7034900","2018-02-14 11:00","2018","02","14","11:00","-4.2","","-10.1","","63","","","","28","","8","","32.2","","100.79","","","","-8","","NA"
"-74.04","45.68","MONTREAL MIRABEL INTL A","7034900","2018-02-14 12:00","2018","02","14","12:00","-1.8","","-6.9","","68","","","","24","","8","","24.1","","100.70","","","","-5","","NA"
"-74.04","45.68","MONTREAL MIRABEL INTL A","7034900","2018-02-14 13:00","2018","02","14","13:00","0.6","","-4.5","","69","","","","24","","14","","32.2","","100.57","","","","","","Mostly Cloudy"
"-74.04","45.68","MONTREAL MIRABEL INTL A","7034900","2018-02-14 14:00","2018","02","14","14:00","1.3","","-3.5","","71","","","","27","","10","","24.1","","100.50","","","","","","NA"
"-74.04","45.68","MONTREAL MIRABEL INTL A","7034900","2018-02-14 15:00","2018","02","14","15:00","3.4","","-1.5","","71","","","","23","","18","","19.3","","100.42","","","","","","NA"
"-74.04","45.68","MONTREAL MIRABEL INTL A","7034900","2018-02-14 16:00","2018","02","14","16:00","3.6","","-1.4","","70","","","","23","","17","","24.1","","100.36","","","","","","Mostly Cloudy"
"-74.04","45.68","MONTREAL MIRABEL INTL A","7034900","2018-02-14 17:00","2018","02","14","17:00","3.7","","-1.3","","70","","","","23","","19","","24.1","","100.31","","","","","","NA"
"-74.04","45.68","MONTREAL MIRABEL INTL A","7034900","2018-02-14 18:00","2018","02","14","18:00","3.5","","-1.6","","69","","","","23","","27","","40.2","","100.31","","","","","","NA"
"-74.04","45.68","MONTREAL MIRABEL INTL A","7034900","2018-02-14 19:00","2018","02","14","19:00","2.8","","-2.1","","70","","","","23","","24","","40.2","","100.30","","","","","","Mainly Clear"
"-74.04","45.68","MONTREAL MIRABEL INTL A","7034900","2018-02-14 20:00","2018","02","14","20:00","1.8","","-2.2","","75","","","","24","","18","","40.2","","100.32","","","","","","NA"
"-74.04","45.68","MONTREAL MIRABEL INTL A","7034900","2018-02-14 21:00","2018","02","14","21:00","0.9","","-2.6","","78","","","","24","","12","","40.2","","100.32","","","","","","NA"
"-74.04","45.68","MONTREAL MIRABEL INTL A","7034900","2018-02-14 22:00","2018","02","14","22:00","0.4","","-2.8","","79","","","","24","","10","","40.2","","100.26","","","","","","Mainly Clear"
"-74.04","45.68","MONTREAL MIRABEL INTL A","7034900","2018-02-14 23:00","2018","02","14","23:00","-0.9","","-3.3","","83","","","","22","","10","","40.2","","100.26","","","","-4","","NA"
"-74.04","45.68","MONTREAL MIRABEL INTL A","7034900","2018-02-15 00:00","2018","02","15","00:00","-0.8","","-3.3","","83","","","","22","","11","","40.2","","100.23","","","","-5","","NA"
"-74.04","45.68","MONTREAL MIRABEL INTL A","7034900","2018-02-15 01:00","2018","02","15","01:00","-2.8","","-4.1","","90","","","","23","","4","","40.2","","100.18","","","","-4","","Clear"
"-74.04","45.68","MONTREAL MIRABEL INTL A","7034900","2018-02-15 02:00","2018","02","15","02:00","-3.7","","-4.8","","92","","","","25","","7","","40.2","","100.13","","","","-7","","NA"
"-74.04","45.68","MONTREAL MIRABEL INTL A","7034900","2018-02-15 03:00","2018","02","15","03:00","-3.0","","-4.0","","93","","","","27","","10","","40.2","","100.09","","","","-7","","NA"
"-74.04","45.68","MONTREAL MIRABEL INTL A","7034900","2018-02-15 04:00","2018","02","15","04:00","-2.8","","-3.6","","94","","","","24","","7","","16.1","","100.03","","","","-6","","Mainly Clear"
"-74.04","45.68","MONTREAL MIRABEL INTL A","7034900","2018-02-15 05:00","2018","02","15","05:00","-4.5","","-5.0","","96","","","","20","","7","","8.1","","99.98","","","","-8","","Fog"
"-74.04","45.68","MONTREAL MIRABEL INTL A","7034900","2018-02-15 06:00","2018","02","15","06:00","-5.6","","-6.1","","96","","","","21","","5","","1.6","","99.94","","","","-8","","Fog"
"-74.04","45.68","MONTREAL MIRABEL INTL A","7034900","2018-02-15 07:00","2018","02","15","07:00","-7.3","","-8.0","","95","","","","","","0","","0.4","","99.83","","","","","","Freezing Fog"
"-74.04","45.68","MONTREAL MIRABEL INTL A","7034900","2018-02-15 08:00","2018","02","15","08:00","-6.0","","-6.9","","94","","","","","","0","","2.4","","99.79","","","","","","Fog"
"-74.04","45.68","MONTREAL MIRABEL INTL A","7034900","2018-02-15 09:00","2018","02","15","09:00","-4.4","","-5.1","","95","","","","3","","4","","3.2","","99.70","","","","-6","","Fog"
"-74.04","45.68","MONTREAL MIRABEL INTL A","7034900","2018-02-15 10:00","2018","02","15","10:00","-2.5","","-3.2","","95","","","","6","","5","","3.2","","99.53","","","","-4","","Fog"
"-74.04","45.68","MONTREAL MIRABEL INTL A","7034900","2018-02-15 11:00","2018","02","15","11:00","-1.5","","-1.9","","97","","","","4","","7","","0.8","","99.39","","","","-4","","Freezing Drizzle,Freezing Fog"
"-74.04","45.68","MONTREAL MIRABEL INTL A","7034900","2018-02-15 12:00","2018","02","15","12:00","-0.8","","-1.2","","97","","","","4","","7","","0.8","","99.23","","","","-3","","Freezing Drizzle,Freezing Fog"
"-74.04","45.68","MONTREAL MIRABEL INTL A","7034900","2018-02-15 13:00","2018","02","15","13:00","-0.4","","-0.8","","98","","","","35","","6","","0.8","","99.11","","","","-2","","Freezing Drizzle,Freezing Fog"
"-74.04","45.68","MONTREAL MIRABEL INTL A","7034900","2018-02-15 14:00","2018","02","15","14:00","-0.1","","-0.4","","98","","","","","","0","","0.8","","99.08","","","","","","Freezing Drizzle,Freezing Fog"
"-74.04","45.68","MONTREAL MIRABEL INTL A","7034900","2018-02-15 15:00","2018","02","15","15:00","1.5","","1.3","","98","","","","25","","12","","0.6","","99.08","","","","","","Drizzle,Fog"
"-74.04","45.68","MONTREAL MIRABEL INTL A","7034900","2018-02-15 16:00","2018","02","15","16:00","2.7","","2.5","","98","","","","24","","15","","3.2","","99.11","","","","","","Fog"
"-74.04","45.68","MONTREAL MIRABEL INTL A","7034900","2018-02-15 17:00","2018","02","15","17:00","2.9","","2.1","","95","","","","24","","14","","6.4","","99.16","","","","","","Fog"
"-74.04","45.68","MONTREAL MIRABEL INTL A","7034900","2018-02-15 18:00","2018","02","15","18:00","3.0","","2.0","","93","","","","23","","14","","9.7","","99.21","","","","","","Fog"
"-74.04","45.68","MONTREAL MIRABEL INTL A","7034900","2018-02-15 19:00","2018","02","15","19:00","2.7","","1.7","","93","","","","24","","10","","24.1","","99.18","","","","","","Mostly Cloudy"
"-74.04","45.68","MONTREAL MIRABEL INTL A","7034900","2018-02-15 20:00","2018","02","15","20:00","3.0","","1.9","","93","","","","25","","10","","19.3","","99.18","","","","","","NA"
"-74.04","45.68","MONTREAL MIRABEL INTL A","7034900","2018-02-15 21:00","2018","02","15","21:00","2.4","","1.7","","95","","","","24","","9","","19.3","","99.17","","","","","","NA"
"-74.04","45.68","MONTREAL MIRABEL INTL A","7034900","2018-02-15 22:00","2018","02","15","22:00","2.5","","1.8","","95","","","","26","","3","","19.3","","99.15","","","","","","Cloudy"
"-74.04","45.68","MONTREAL MIRABEL INTL A","7034900","2018-02-15 23:00","2018","02","15","23:00","2.9","","2.0","","94","","","","25","","9","","19.3","","99.17","","","","","","NA"
"-74.04","45.68","MONTREAL MIRABEL INTL A","7034900","2018-02-16 00:00","2018","02","16","00:00","2.4","","1.6","","95","","","","26","","7","","24.1","","99.22","","","","","","NA"
"-74.04","45.68","MONTREAL MIRABEL INTL A","7034900","2018-02-16 01:00","2018","02","16","01:00","2.8","","1.4","","91","","","","25","","8","","24.1","","99.24","","","","","","Cloudy"
"-74.04","45.68","MONTREAL MIRABEL INTL A","7034900","2018-02-16 02:00","2018","02","16","02:00","2.2","","0.7","","90","","","","26","","4","","24.1","","99.24","","","","","","NA"
"-74.04","45.68","MONTREAL MIRABEL INTL A","7034900","2018-02-16 03:00","2018","02","16","03:00","1.7","","0.6","","92","","","","24","","4","","24.1","","99.28","","","","","","NA"
"-74.04","45.68","MONTREAL MIRABEL INTL A","7034900","2018-02-16 04:00","2018","02","16","04:00","1.4","","0.4","","93","","","","23","","8","","24.1","","99.24","","","","","","Cloudy"
"-74.04","45.68","MONTREAL MIRABEL INTL A","7034900","2018-02-16 05:00","2018","02","16","05:00","0.9","","-0.2","","93","","","","27","","5","","24.1","","99.23","","","","","","NA"
"-74.04","45.68","MONTREAL MIRABEL INTL A","7034900","2018-02-16 06:00","2018","02","16","06:00","0.4","","-0.2","","96","","","","26","","7","","12.9","","99.26","","","","","","NA"
"-74.04","45.68","MONTREAL MIRABEL INTL A","7034900","2018-02-16 07:00","2018","02","16","07:00","0.6","","-0.6","","91","","","","28","","6","","24.1","","99.27","","","","","","Mostly Cloudy"
"-74.04","45.68","MONTREAL MIRABEL INTL A","7034900","2018-02-16 08:00","2018","02","16","08:00","0.9","","-0.7","","89","","","","28","","5","","24.1","","99.31","","","","","","NA"
"-74.04","45.68","MONTREAL MIRABEL INTL A","7034900","2018-02-16 09:00","2018","02","16","09:00","1.4","","-1.6","","81","","","","26","","6","","24.1","","99.29","","","","","","NA"
"-74.04","45.68","MONTREAL MIRABEL INTL A","7034900","2018-02-16 10:00","2018","02","16","10:00","1.6","","-1.1","","83","","","","30","","4","","24.1","","99.32","","","","","","Snow"
"-74.04","45.68","MONTREAL MIRABEL INTL A","7034900","2018-02-16 11:00","2018","02","16","11:00","1.6","","-2.2","","76","","","","","","0","","9.7","","99.33","","","","","","Snow"
"-74.04","45.68","MONTREAL MIRABEL INTL A","7034900","2018-02-16 12:00","2018","02","16","12:00","-0.1","","-1.1","","93","","","","27","","10","","1.2","","99.40","","","","-3","","Snow"
"-74.04","45.68","MONTREAL MIRABEL INTL A","7034900","2018-02-16 13:00","2018","02","16","13:00","-1.1","","-2.5","","90","","","","30","","9","","1.6","","99.50","","","","-4","","Snow"
"-74.04","45.68","MONTREAL MIRABEL INTL A","7034900","2018-02-16 14:00","2018","02","16","14:00","-0.8","","-4.6","","75","","","","33","","14","","56.3","","99.61","","","","-5","","NA"
"-74.04","45.68","MONTREAL MIRABEL INTL A","7034900","2018-02-16 15:00","2018","02","16","15:00","-0.6","","-8.0","","57","","","","32","","16","","48.3","","99.81","","","","-5","","NA"
"-74.04","45.68","MONTREAL MIRABEL INTL A","7034900","2018-02-16 16:00","2018","02","16","16:00","-0.8","","-10.5","","48","","","","32","","18","","56.3","","100.00","","","","-6","","Mostly Cloudy"
"-74.04","45.68","MONTREAL MIRABEL INTL A","7034900","2018-02-16 17:00","2018","02","16","17:00","-2.8","","-12.3","","48","","","","28","","12","","48.3","","100.19","","","","-7","","NA"
"-74.04","45.68","MONTREAL MIRABEL INTL A","7034900","2018-02-16 18:00","2018","02","16","18:00","-4.1","","-14.6","","44","","","","31","","12","","40.2","","100.39","","","","-9","","NA"
"-74.04","45.68","MONTREAL MIRABEL INTL A","7034900","2018-02-16 19:00","2018","02","16","19:00","-5.3","","-15.9","","43","","","","32","","13","","40.2","","100.63","","","","-10","","Mainly Clear"
"-74.04","45.68","MONTREAL MIRABEL INTL A","7034900","2018-02-16 20:00","2018","02","16","20:00","-6.6","","-15.9","","48","","","","30","","5","","40.2","","100.77","","","","-9","","NA"
"-74.04","45.68","MONTREAL MIRABEL INTL A","7034900","2018-02-16 21:00","2018","02","16","21:00","-8.1","","-16.6","","50","","","","27","","5","","40.2","","100.91","","","","-11","","NA"
"-74.04","45.68","MONTREAL MIRABEL INTL A","7034900","2018-02-16 22:00","2018","02","16","22:00","-10.0","","-17.6","","54","","","","27","","7","","40.2","","101.00","","","","-14","","Clear"
"-74.04","45.68","MONTREAL MIRABEL INTL A","7034900","2018-02-16 23:00","2018","02","16","23:00","-9.6","","-17.2","","54","","","","28","","6","","40.2","","101.12","","","","-13","","NA"
"-74.04","45.68","MONTREAL MIRABEL INTL A","7034900","2018-02-17 00:00","2018","02","17","00:00","-11.4","","-17.2","","63","","","","21","","5","","40.2","","101.23","","","","-15","","NA"
"-74.04","45.68","MONTREAL MIRABEL INTL A","7034900","2018-02-17 01:00","2018","02","17","01:00","-12.6","","-17.7","","66","","","","19","","8","","40.2","","101.29","","","","-18","","Clear"
"-74.04","45.68","MONTREAL MIRABEL INTL A","7034900","2018-02-17 02:00","2018","02","17","02:00","-13.3","","-17.2","","73","","","","28","","6","","40.2","","101.41","","","","-17","","NA"
"-74.04","45.68","MONTREAL MIRABEL INTL A","7034900","2018-02-17 03:00","2018","02","17","03:00","-13.8","","-17.5","","73","","","","24","","5","","40.2","","101.48","","","","-17","","NA"
"-74.04","45.68","MONTREAL MIRABEL INTL A","7034900","2018-02-17 04:00","2018","02","17","04:00","-15.3","","-17.8","","81","","","","27","","3","","40.2","","101.50","","","","-17","","Clear"
"-74.04","45.68","MONTREAL MIRABEL INTL A","7034900","2018-02-17 05:00","2018","02","17","05:00","-17.3","","-19.2","","85","","","","","","0","","40.2","","101.54","","","","","","NA"
"-74.04","45.68","MONTREAL MIRABEL INTL A","7034900","2018-02-17 06:00","2018","02","17","06:00","-17.9","","-19.6","","86","","","","28","","4","","72.4","","101.56","","","","-21","","NA"
"-74.04","45.68","MONTREAL MIRABEL INTL A","7034900","2018-02-17 07:00","2018","02","17","07:00","-17.7","","-19.4","","87","","","","26","","4","","72.4","","101.64","","","","-21","","Clear"
"-74.04","45.68","MONTREAL MIRABEL INTL A","7034900","2018-02-17 08:00","2018","02","17","08:00","-17.1","","-19.2","","84","","","","23","","4","","72.4","","101.67","","","","-20","","NA"
"-74.04","45.68","MONTREAL MIRABEL INTL A","7034900","2018-02-17 09:00","2018","02","17","09:00","-13.4","","-16.5","","78","","","","","","0","","72.4","","101.65","","","","","","NA"
"-74.04","45.68","MONTREAL MIRABEL INTL A","7034900","2018-02-17 10:00","2018","02","17","10:00","-9.0","","-14.6","","64","","","","22","","16","","72.4","","101.67","","","","-16","","Mainly Clear"
"-74.04","45.68","MONTREAL MIRABEL INTL A","7034900","2018-02-17 11:00","2018","02","17","11:00","-8.2","","-14.6","","60","","","","24","","14","","72.4","","101.63","","","","-14","","NA"
"-74.04","45.68","MONTREAL MIRABEL INTL A","7034900","2018-02-17 12:00","2018","02","17","12:00","-7.2","","-14.5","","57","","","","25","","17","","72.4","","101.50","","","","-14","","NA"
"-74.04","45.68","MONTREAL MIRABEL INTL A","7034900","2018-02-17 13:00","2018","02","17","13:00","-6.7","","-14.0","","57","","","","22","","9","","72.4","","101.46","","","","-11","","Cloudy"
"-74.04","45.68","MONTREAL MIRABEL INTL A","7034900","2018-02-17 14:00","2018","02","17","14:00","-5.9","","-13.4","","56","","","","17","","4","","72.4","","101.30","","","","-8","","NA"
"-74.04","45.68","MONTREAL MIRABEL INTL A","7034900","2018-02-17 15:00","2018","02","17","15:00","-5.4","","-13.2","","54","","","","15","","10","","72.4","","101.18","","","","-10","","NA"
"-74.04","45.68","MONTREAL MIRABEL INTL A","7034900","2018-02-17 16:00","2018","02","17","16:00","-5.0","","-12.5","","56","","","","13","","4","","72.4","","101.10","","","","-7","","Cloudy"
"-74.04","45.68","MONTREAL MIRABEL INTL A","7034900","2018-02-17 17:00","2018","02","17","17:00","-5.5","","-12.4","","58","","","","9","","10","","72.4","","100.92","","","","-10","","NA"
"-74.04","45.68","MONTREAL MIRABEL INTL A","7034900","2018-02-17 18:00","2018","02","17","18:00","-6.2","","-11.6","","66","","","","3","","5","","40.2","","100.88","","","","-9","","NA"
"-74.04","45.68","MONTREAL MIRABEL INTL A","7034900","2018-02-17 19:00","2018","02","17","19:00","-6.5","","-11.7","","67","","","","2","","6","","40.2","","100.82","","","","-9","","Cloudy"
"-74.04","45.68","MONTREAL MIRABEL INTL A","7034900","2018-02-17 20:00","2018","02","17","20:00","-6.8","","-11.6","","69","","","","2","","7","","40.2","","100.70","","","","-10","","NA"
"-74.04","45.68","MONTREAL MIRABEL INTL A","7034900","2018-02-17 21:00","2018","02","17","21:00","-6.7","","-12.2","","65","","","","1","","8","","40.2","","100.63","","","","-11","","NA"
"-74.04","45.68","MONTREAL MIRABEL INTL A","7034900","2018-02-17 22:00","2018","02","17","22:00","-7.4","","-11.5","","73","","","","6","","3","","40.2","","100.58","","","","-9","","Cloudy"
"-74.04","45.68","MONTREAL MIRABEL INTL A","7034900","2018-02-17 23:00","2018","02","17","23:00","-6.7","","-11.9","","67","","","","4","","10","","40.2","","100.48","","","","-11","","NA"
"-74.04","45.68","MONTREAL MIRABEL INTL A","7034900","2018-02-18 00:00","2018","02","18","00:00","-6.9","","-12.1","","67","","","","5","","3","","40.2","","100.43","","","","-8","","NA"
"-74.04","45.68","MONTREAL MIRABEL INTL A","7034900","2018-02-18 01:00","2018","02","18","01:00","-7.1","","-11.7","","70","","","","32","","3","","40.2","","100.43","","","","-9","","Cloudy"
"-74.04","45.68","MONTREAL MIRABEL INTL A","7034900","2018-02-18 02:00","2018","02","18","02:00","-7.3","","-11.7","","71","","","","","","0","","40.2","","100.44","","","","","","NA"
"-74.04","45.68","MONTREAL MIRABEL INTL A","7034900","2018-02-18 03:00","2018","02","18","03:00","-7.6","","-11.6","","73","","","","","","0","","40.2","","100.45","","","","","","NA"
"-74.04","45.68","MONTREAL MIRABEL INTL A","7034900","2018-02-18 04:00","2018","02","18","04:00","-8.3","","-11.7","","77","","","","","","0","","40.2","","100.50","","","","","","Cloudy"
"-74.04","45.68","MONTREAL MIRABEL INTL A","7034900","2018-02-18 05:00","2018","02","18","05:00","-8.6","","-11.4","","80","","","","25","","4","","40.2","","100.57","","","","-11","","NA"
"-74.04","45.68","MONTREAL MIRABEL INTL A","7034900","2018-02-18 06:00","2018","02","18","06:00","-6.7","","-11.6","","68","","","","22","","6","","40.2","","100.69","","","","-10","","NA"
"-74.04","45.68","MONTREAL MIRABEL INTL A","7034900","2018-02-18 07:00","2018","02","18","07:00","-7.5","","-11.9","","71","","","","25","","4","","48.3","","100.78","","","","-10","","Mainly Clear"
"-74.04","45.68","MONTREAL MIRABEL INTL A","7034900","2018-02-18 08:00","2018","02","18","08:00","-6.5","","-11.4","","68","","","","25","","12","","40.2","","101.00","","","","-12","","NA"
"-74.04","45.68","MONTREAL MIRABEL INTL A","7034900","2018-02-18 09:00","2018","02","18","09:00","-5.5","","-9.3","","74","","","","26","","16","","40.2","","101.15","","","","-11","","NA"
"-74.04","45.68","MONTREAL MIRABEL INTL A","7034900","2018-02-18 10:00","2018","02","18","10:00","-4.4","","-8.3","","74","","","","25","","16","","32.2","","101.24","","","","-10","","Mainly Clear"
"-74.04","45.68","MONTREAL MIRABEL INTL A","7034900","2018-02-18 11:00","2018","02","18","11:00","-3.2","","-7.3","","73","","","","25","","19","","40.2","","101.34","","","","-9","","NA"
"-74.04","45.68","MONTREAL MIRABEL INTL A","7034900","2018-02-18 12:00","2018","02","18","12:00","-1.8","","-6.7","","69","","","","25","","16","","40.2","","101.33","","","","-7","","NA"
"-74.04","45.68","MONTREAL MIRABEL INTL A","7034900","2018-02-18 13:00","2018","02","18","13:00","-0.5","","-6.3","","65","","","","24","","19","","40.2","","101.36","","","","-6","","Mainly Clear"
"-74.04","45.68","MONTREAL MIRABEL INTL A","7034900","2018-02-18 14:00","2018","02","18","14:00","0.2","","-6.1","","63","","","","24","","15","","56.3","","101.33","","","","","","NA"
"-74.04","45.68","MONTREAL MIRABEL INTL A","7034900","2018-02-18 15:00","2018","02","18","15:00","1.3","","-6.3","","57","","","","24","","18","","48.3","","101.45","","","","","","NA"
"-74.04","45.68","MONTREAL MIRABEL INTL A","7034900","2018-02-18 16:00","2018","02","18","16:00","1.6","","-6.6","","55","","","","24","","13","","40.2","","101.56","","","","","","Mostly Cloudy"
"-74.04","45.68","MONTREAL MIRABEL INTL A","7034900","2018-02-18 17:00","2018","02","18","17:00","1.1","","-7.6","","52","","","","25","","8","","40.2","","101.66","","","","","","NA"
"-74.04","45.68","MONTREAL MIRABEL INTL A","7034900","2018-02-18 18:00","2018","02","18","18:00","-1.1","","-8.2","","58","","","","20","","8","","40.2","","101.76","","","","-4","","NA"
"-74.04","45.68","MONTREAL MIRABEL INTL A","7034900","2018-02-18 19:00","2018","02","18","19:00","-3.0","","-8.9","","64","","","","18","","11","","40.2","","101.80","","","","-7","","Mainly Clear"
"-74.04","45.68","MONTREAL MIRABEL INTL A","7034900","2018-02-18 20:00","2018","02","18","20:00","-2.9","","-8.7","","64","","","","18","","10","","40.2","","101.83","","","","-7","","NA"
"-74.04","45.68","MONTREAL MIRABEL INTL A","7034900","2018-02-18 21:00","2018","02","18","21:00","-3.2","","-8.8","","66","","","","19","","10","","40.2","","101.87","","","","-7","","NA"
"-74.04","45.68","MONTREAL MIRABEL INTL A","7034900","2018-02-18 22:00","2018","02","18","22:00","-2.0","","-6.3","","73","","","","22","","15","","40.2","","101.86","","","","-7","","Clear"
"-74.04","45.68","MONTREAL MIRABEL INTL A","7034900","2018-02-18 23:00","2018","02","18","23:00","-5.0","","-8.0","","80","","","","25","","7","","40.2","","101.89","","","","-8","","NA"
"-74.04","45.68","MONTREAL MIRABEL INTL A","7034900","2018-02-19 00:00","2018","02","19","00:00","-5.2","","-6.3","","92","","","","21","","8","","40.2","","101.82","","","","-9","","NA"
"-74.04","45.68","MONTREAL MIRABEL INTL A","7034900","2018-02-19 01:00","2018","02","19","01:00","-3.4","","-6.0","","82","","","","19","","6","","40.2","","101.76","","","","-6","","Clear"
"-74.04","45.68","MONTREAL MIRABEL INTL A","7034900","2018-02-19 02:00","2018","02","19","02:00","-6.0","","-7.9","","87","","","","","","0","","40.2","","101.76","","","","","","NA"
"-74.04","45.68","MONTREAL MIRABEL INTL A","7034900","2018-02-19 03:00","2018","02","19","03:00","-6.5","","-8.1","","89","","","","35","","3","","40.2","","101.74","","","","-8","","NA"
"-74.04","45.68","MONTREAL MIRABEL INTL A","7034900","2018-02-19 04:00","2018","02","19","04:00","-7.1","","-8.7","","89","","","","1","","6","","40.2","","101.73","","","","-10","","Cloudy"
"-74.04","45.68","MONTREAL MIRABEL INTL A","7034900","2018-02-19 05:00","2018","02","19","05:00","-7.7","","-8.6","","93","","","","3","","6","","40.2","","101.69","","","","-11","","NA"
"-74.04","45.68","MONTREAL MIRABEL INTL A","7034900","2018-02-19 06:00","2018","02","19","06:00","-7.9","","-8.9","","92","","","","5","","8","","40.2","","101.66","","","","-12","","NA"
"-74.04","45.68","MONTREAL MIRABEL INTL A","7034900","2018-02-19 07:00","2018","02","19","07:00","-7.9","","-9.4","","89","","","","4","","9","","56.3","","101.58","","","","-12","","Mostly Cloudy"
"-74.04","45.68","MONTREAL MIRABEL INTL A","7034900","2018-02-19 08:00","2018","02","19","08:00","-7.1","","-8.6","","89","","","","4","","9","","56.3","","101.56","","","","-11","","NA"
"-74.04","45.68","MONTREAL MIRABEL INTL A","7034900","2018-02-19 09:00","2018","02","19","09:00","-5.0","","-8.0","","80","","","","4","","8","","40.2","","101.48","","","","-9","","NA"
"-74.04","45.68","MONTREAL MIRABEL INTL A","7034900","2018-02-19 10:00","2018","02","19","10:00","-2.7","","-6.9","","73","","","","5","","7","","40.2","","101.37","","","","-6","","Mostly Cloudy"
"-74.04","45.68","MONTREAL MIRABEL INTL A","7034900","2018-02-19 11:00","2018","02","19","11:00","-0.7","","-6.2","","67","","","","1","","8","","32.2","","101.35","","","","-4","","NA"
"-74.04","45.68","MONTREAL MIRABEL INTL A","7034900","2018-02-19 12:00","2018","02","19","12:00","1.2","","-5.5","","61","","","","1","","6","","40.2","","101.27","","","","","","NA"
"-74.04","45.68","MONTREAL MIRABEL INTL A","7034900","2018-02-19 13:00","2018","02","19","13:00","2.7","","-5.2","","56","","","","2","","7","","40.2","","101.19","","","","","","Mostly Cloudy"
"-74.04","45.68","MONTREAL MIRABEL INTL A","7034900","2018-02-19 14:00","2018","02","19","14:00","3.8","","-4.9","","53","","","","36","","5","","40.2","","101.12","","","","","","NA"
"-74.04","45.68","MONTREAL MIRABEL INTL A","7034900","2018-02-19 15:00","2018","02","19","15:00","4.2","","-4.2","","54","","","","11","","3","","40.2","","101.11","","","","","","NA"
"-74.04","45.68","MONTREAL MIRABEL INTL A","7034900","2018-02-19 16:00","2018","02","19","16:00","4.0","","-3.2","","60","","","","4","","4","","40.2","","101.09","","","","","","Cloudy"
"-74.04","45.68","MONTREAL MIRABEL INTL A","7034900","2018-02-19 17:00","2018","02","19","17:00","3.0","","-2.9","","65","","","","31","","5","","40.2","","101.11","","","","","","NA"
"-74.04","45.68","MONTREAL MIRABEL INTL A","7034900","2018-02-19 18:00","2018","02","19","18:00","1.7","","-0.9","","82","","","","36","","6","","24.1","","101.11","","","","","","Drizzle"
"-74.04","45.68","MONTREAL MIRABEL INTL A","7034900","2018-02-19 19:00","2018","02","19","19:00","0.9","","0.1","","95","","","","5","","5","","9.7","","101.13","","","","","","Drizzle"
"-74.04","45.68","MONTREAL MIRABEL INTL A","7034900","2018-02-19 20:00","2018","02","19","20:00","0.8","","0.4","","97","","","","2","","5","","2.0","","101.10","","","","","","Drizzle,Fog"
"-74.04","45.68","MONTREAL MIRABEL INTL A","7034900","2018-02-19 21:00","2018","02","19","21:00","0.6","","0.3","","98","","","","2","","5","","1.2","","101.13","","","","","","Drizzle,Fog"
"-74.04","45.68","MONTREAL MIRABEL INTL A","7034900","2018-02-19 22:00","2018","02","19","22:00","0.6","","0.3","","98","","","","2","","3","","1.2","","101.12","","","","","","Drizzle,Fog"
"-74.04","45.68","MONTREAL MIRABEL INTL A","7034900","2018-02-19 23:00","2018","02","19","23:00","0.6","","0.3","","98","","","","6","","5","","1.6","","101.10","","","","","","Rain,Drizzle,Fog"
"-74.04","45.68","MONTREAL MIRABEL INTL A","7034900","2018-02-20 00:00","2018","02","20","00:00","0.7","","0.4","","98","","","","4","","3","","1.6","","101.08","","","","","","Rain,Fog"
"-74.04","45.68","MONTREAL MIRABEL INTL A","7034900","2018-02-20 01:00","2018","02","20","01:00","0.8","","0.6","","98","","","","5","","5","","1.6","","101.12","","","","","","Rain,Fog"
"-74.04","45.68","MONTREAL MIRABEL INTL A","7034900","2018-02-20 02:00","2018","02","20","02:00","0.8","","0.5","","98","","","","2","","5","","2.0","","101.08","","","","","","Rain,Fog"
"-74.04","45.68","MONTREAL MIRABEL INTL A","7034900","2018-02-20 03:00","2018","02","20","03:00","0.8","","0.6","","98","","","","2","","4","","2.0","","101.12","","","","","","Fog"
"-74.04","45.68","MONTREAL MIRABEL INTL A","7034900","2018-02-20 04:00","2018","02","20","04:00","0.8","","0.6","","98","","","","4","","5","","2.0","","101.11","","","","","","Fog"
"-74.04","45.68","MONTREAL MIRABEL INTL A","7034900","2018-02-20 05:00","2018","02","20","05:00","0.9","","0.6","","98","","","","6","","5","","2.0","","101.14","","","","","","Fog"
"-74.04","45.68","MONTREAL MIRABEL INTL A","7034900","2018-02-20 06:00","2018","02","20","06:00","0.8","","0.6","","98","","","","5","","11","","1.6","","101.13","","","","","","Rain,Fog"
"-74.04","45.68","MONTREAL MIRABEL INTL A","7034900","2018-02-20 07:00","2018","02","20","07:00","0.9","","0.6","","98","","","","6","","16","","4.8","","101.19","","","","","","Rain,Fog"
"-74.04","45.68","MONTREAL MIRABEL INTL A","7034900","2018-02-20 08:00","2018","02","20","08:00","1.0","","0.6","","97","","","","6","","10","","4.8","","101.25","","","","","","Rain,Fog"
"-74.04","45.68","MONTREAL MIRABEL INTL A","7034900","2018-02-20 09:00","2018","02","20","09:00","1.1","","0.7","","97","","","","3","","7","","6.4","","101.21","","","","","","Rain,Fog"
"-74.04","45.68","MONTREAL MIRABEL INTL A","7034900","2018-02-20 10:00","2018","02","20","10:00","1.4","","0.9","","96","","","","5","","10","","6.4","","101.15","","","","","","Rain,Fog"
"-74.04","45.68","MONTREAL MIRABEL INTL A","7034900","2018-02-20 11:00","2018","02","20","11:00","1.6","","1.1","","96","","","","6","","13","","6.4","","101.06","","","","","","Rain,Fog"
"-74.04","45.68","MONTREAL MIRABEL INTL A","7034900","2018-02-20 12:00","2018","02","20","12:00","1.6","","1.2","","97","","","","7","","8","","4.8","","101.01","","","","","","Rain,Fog"
"-74.04","45.68","MONTREAL MIRABEL INTL A","7034900","2018-02-20 13:00","2018","02","20","13:00","1.6","","1.1","","96","","","","6","","9","","8.1","","100.99","","","","","","Rain,Fog"
"-74.04","45.68","MONTREAL MIRABEL INTL A","7034900","2018-02-20 14:00","2018","02","20","14:00","1.6","","0.9","","95","","","","5","","8","","8.1","","100.96","","","","","","Rain,Fog"
"-74.04","45.68","MONTREAL MIRABEL INTL A","7034900","2018-02-20 15:00","2018","02","20","15:00","1.4","","0.8","","96","","","","6","","11","","6.4","","100.93","","","","","","Rain,Fog"
"-74.04","45.68","MONTREAL MIRABEL INTL A","7034900","2018-02-20 16:00","2018","02","20","16:00","1.0","","0.5","","97","","","","5","","7","","3.2","","100.97","","","","","","Rain,Fog"
"-74.04","45.68","MONTREAL MIRABEL INTL A","7034900","2018-02-20 17:00","2018","02","20","17:00","0.8","","0.4","","97","","","","6","","8","","2.4","","101.00","","","","","","Rain,Fog"
"-74.04","45.68","MONTREAL MIRABEL INTL A","7034900","2018-02-20 18:00","2018","02","20","18:00","0.6","","0.3","","97","","","","6","","10","","3.2","","100.98","","","","","","Rain,Fog"
"-74.04","45.68","MONTREAL MIRABEL INTL A","7034900","2018-02-20 19:00","2018","02","20","19:00","0.5","","0.1","","98","","","","6","","8","","3.2","","100.96","","","","","","Rain,Fog"
"-74.04","45.68","MONTREAL MIRABEL INTL A","7034900","2018-02-20 20:00","2018","02","20","20:00","0.3","","0.0","","98","","","","5","","13","","3.2","","100.97","","","","","","Drizzle,Fog"
"-74.04","45.68","MONTREAL MIRABEL INTL A","7034900","2018-02-20 21:00","2018","02","20","21:00","0.4","","0.1","","98","","","","4","","6","","4.8","","100.96","","","","","","Drizzle,Fog"
"-74.04","45.68","MONTREAL MIRABEL INTL A","7034900","2018-02-20 22:00","2018","02","20","22:00","0.3","","0.0","","98","","","","6","","6","","4.0","","100.98","","","","","","Drizzle,Fog"
"-74.04","45.68","MONTREAL MIRABEL INTL A","7034900","2018-02-20 23:00","2018","02","20","23:00","0.2","","-0.1","","98","","","","5","","4","","2.0","","100.95","","","","","","Drizzle,Fog"
"-74.04","45.68","MONTREAL MIRABEL INTL A","7034900","2018-02-21 00:00","2018","02","21","00:00","0.0","","-0.3","","98","","","","4","","5","","2.0","","100.88","","","","-2","","Drizzle,Fog"
"-74.04","45.68","MONTREAL MIRABEL INTL A","7034900","2018-02-21 01:00","2018","02","21","01:00","-0.1","","-0.3","","98","","","","5","","4","","2.4","","100.78","","","","-1","","Freezing Rain,Fog"
"-74.04","45.68","MONTREAL MIRABEL INTL A","7034900","2018-02-21 02:00","2018","02","21","02:00","0.0","","-0.3","","98","","","","4","","8","","4.0","","100.72","","","","-3","","Rain,Fog"
"-74.04","45.68","MONTREAL MIRABEL INTL A","7034900","2018-02-21 03:00","2018","02","21","03:00","0.4","","0.0","","98","","","","6","","6","","12.9","","100.60","","","","","","NA"
"-74.04","45.68","MONTREAL MIRABEL INTL A","7034900","2018-02-21 04:00","2018","02","21","04:00","0.3","","0.0","","97","","","","6","","5","","16.1","","100.57","","","","","","Cloudy"
"-74.04","45.68","MONTREAL MIRABEL INTL A","7034900","2018-02-21 05:00","2018","02","21","05:00","0.3","","-0.1","","97","","","","10","","7","","12.9","","100.50","","","","","","NA"
"-74.04","45.68","MONTREAL MIRABEL INTL A","7034900","2018-02-21 06:00","2018","02","21","06:00","0.2","","-0.2","","97","","","","35","","12","","2.4","","100.53","","","","","","Fog"
"-74.04","45.68","MONTREAL MIRABEL INTL A","7034900","2018-02-21 07:00","2018","02","21","07:00","0.2","","0.0","","98","","","","","","0","","3.2","","100.57","","","","","","Fog"
"-74.04","45.68","MONTREAL MIRABEL INTL A","7034900","2018-02-21 08:00","2018","02","21","08:00","1.0","","0.7","","98","","","","","","0","","8.1","","100.58","","","","","","Fog"
"-74.04","45.68","MONTREAL MIRABEL INTL A","7034900","2018-02-21 09:00","2018","02","21","09:00","5.4","","4.8","","96","","","","24","","8","","8.1","","100.57","","","","","","Fog"
"-74.04","45.68","MONTREAL MIRABEL INTL A","7034900","2018-02-21 10:00","2018","02","21","10:00","7.1","","6.7","","97","","","","24","","12","","4.8","","100.59","","","","","","Rain,Fog"
"-74.04","45.68","MONTREAL MIRABEL INTL A","7034900","2018-02-21 11:00","2018","02","21","11:00","7.3","","6.9","","97","","","","25","","17","","1.6","","100.61","","","","","","Rain,Fog"
"-74.04","45.68","MONTREAL MIRABEL INTL A","7034900","2018-02-21 12:00","2018","02","21","12:00","6.3","","6.0","","98","","","","24","","12","","0.8","","100.68","","","","","","Rain,Fog"
"-74.04","45.68","MONTREAL MIRABEL INTL A","7034900","2018-02-21 13:00","2018","02","21","13:00","6.2","","5.9","","98","","","","25","","18","","1.2","","100.77","","","","","","Rain,Fog"
"-74.04","45.68","MONTREAL MIRABEL INTL A","7034900","2018-02-21 14:00","2018","02","21","14:00","6.5","","6.0","","96","","","","26","","13","","24.1","","100.97","","","","","","Rain"
"-74.04","45.68","MONTREAL MIRABEL INTL A","7034900","2018-02-21 15:00","2018","02","21","15:00","5.2","","1.6","","78","","","","27","","11","","40.2","","101.24","","","","","","NA"
"-74.04","45.68","MONTREAL MIRABEL INTL A","7034900","2018-02-21 16:00","2018","02","21","16:00","4.6","","-4.0","","54","","","","30","","20","","72.4","","101.51","","","","","","Mostly Cloudy"
"-74.04","45.68","MONTREAL MIRABEL INTL A","7034900","2018-02-21 17:00","2018","02","21","17:00","3.6","","-6.3","","48","","","","31","","10","","72.4","","101.72","","","","","","NA"
"-74.04","45.68","MONTREAL MIRABEL INTL A","7034900","2018-02-21 18:00","2018","02","21","18:00","2.5","","-6.7","","51","","","","31","","7","","40.2","","101.95","","","","","","NA"
"-74.04","45.68","MONTREAL MIRABEL INTL A","7034900","2018-02-21 19:00","2018","02","21","19:00","1.3","","-8.0","","50","","","","29","","10","","40.2","","102.12","","","","","","Mostly Cloudy"
"-74.04","45.68","MONTREAL MIRABEL INTL A","7034900","2018-02-21 20:00","2018","02","21","20:00","-0.2","","-8.0","","56","","","","26","","9","","40.2","","102.23","","","","-3","","NA"
"-74.04","45.68","MONTREAL MIRABEL INTL A","7034900","2018-02-21 21:00","2018","02","21","21:00","-0.4","","-10.0","","48","","","","29","","7","","40.2","","102.35","","","","-3","","NA"
"-74.04","45.68","MONTREAL MIRABEL INTL A","7034900","2018-02-21 22:00","2018","02","21","22:00","-1.3","","-10.1","","51","","","","29","","6","","40.2","","102.46","","","","-4","","Clear"
"-74.04","45.68","MONTREAL MIRABEL INTL A","7034900","2018-02-21 23:00","2018","02","21","23:00","-2.1","","-11.0","","51","","","","31","","10","","40.2","","102.58","","","","-6","","NA"
"-74.04","45.68","MONTREAL MIRABEL INTL A","7034900","2018-02-22 00:00","2018","02","22","00:00","-3.0","","-13.1","","46","","","","31","","14","","40.2","","102.68","","","","-8","","NA"
"-74.04","45.68","MONTREAL MIRABEL INTL A","7034900","2018-02-22 01:00","2018","02","22","01:00","-3.8","","-13.8","","46","","","","31","","8","","40.2","","102.78","","","","-7","","Clear"
"-74.04","45.68","MONTREAL MIRABEL INTL A","7034900","2018-02-22 02:00","2018","02","22","02:00","-5.0","","-13.1","","53","","","","32","","11","","40.2","","102.83","","","","-10","","NA"
"-74.04","45.68","MONTREAL MIRABEL INTL A","7034900","2018-02-22 03:00","2018","02","22","03:00","-5.5","","-13.1","","55","","","","32","","10","","40.2","","102.86","","","","-10","","NA"
"-74.04","45.68","MONTREAL MIRABEL INTL A","7034900","2018-02-22 04:00","2018","02","22","04:00","-6.3","","-13.2","","58","","","","34","","9","","40.2","","102.88","","","","-11","","Mainly Clear"
"-74.04","45.68","MONTREAL MIRABEL INTL A","7034900","2018-02-22 05:00","2018","02","22","05:00","-7.2","","-13.2","","62","","","","3","","8","","40.2","","102.92","","","","-11","","NA"
"-74.04","45.68","MONTREAL MIRABEL INTL A","7034900","2018-02-22 06:00","2018","02","22","06:00","-8.5","","-13.6","","67","","","","12","","7","","40.2","","102.99","","","","-12","","NA"
"-74.04","45.68","MONTREAL MIRABEL INTL A","7034900","2018-02-22 07:00","2018","02","22","07:00","-8.6","","-14.0","","66","","","","7","","7","","72.4","","103.04","","","","-12","","Mostly Cloudy"
"-74.04","45.68","MONTREAL MIRABEL INTL A","7034900","2018-02-22 08:00","2018","02","22","08:00","-8.0","","-14.1","","62","","","","7","","6","","48.3","","103.14","","","","-11","","NA"
"-74.04","45.68","MONTREAL MIRABEL INTL A","7034900","2018-02-22 09:00","2018","02","22","09:00","-7.3","","-14.4","","57","","","","7","","9","","56.3","","103.17","","","","-12","","NA"
"-74.04","45.68","MONTREAL MIRABEL INTL A","7034900","2018-02-22 10:00","2018","02","22","10:00","-7.0","","-13.4","","60","","","","3","","8","","72.4","","103.17","","","","-11","","Cloudy"
"-74.04","45.68","MONTREAL MIRABEL INTL A","7034900","2018-02-22 11:00","2018","02","22","11:00","-6.5","","-13.3","","58","","","","5","","7","","72.4","","103.20","","","","-10","","NA"
"-74.04","45.68","MONTREAL MIRABEL INTL A","7034900","2018-02-22 12:00","2018","02","22","12:00","-6.0","","-13.6","","55","","","","5","","5","","72.4","","103.14","","","","-8","","NA"
"-74.04","45.68","MONTREAL MIRABEL INTL A","7034900","2018-02-22 13:00","2018","02","22","13:00","-5.8","","-13.1","","56","","","","","","0","","56.3","","103.14","","","","","","Cloudy"
"-74.04","45.68","MONTREAL MIRABEL INTL A","7034900","2018-02-22 14:00","2018","02","22","14:00","-5.6","","-12.8","","57","","","","15","","8","","40.2","","103.07","","","","-9","","NA"
"-74.04","45.68","MONTREAL MIRABEL INTL A","7034900","2018-02-22 15:00","2018","02","22","15:00","-5.1","","-12.8","","55","","","","20","","6","","40.2","","103.08","","","","-8","","NA"
"-74.04","45.68","MONTREAL MIRABEL INTL A","7034900","2018-02-22 16:00","2018","02","22","16:00","-4.9","","-13.7","","50","","","","27","","9","","40.2","","103.03","","","","-9","","Mainly Clear"
"-74.04","45.68","MONTREAL MIRABEL INTL A","7034900","2018-02-22 17:00","2018","02","22","17:00","-5.0","","-12.9","","54","","","","21","","6","","40.2","","103.02","","","","-8","","NA"
"-74.04","45.68","MONTREAL MIRABEL INTL A","7034900","2018-02-22 18:00","2018","02","22","18:00","-6.5","","-13.1","","60","","","","17","","5","","40.2","","103.02","","","","-9","","NA"
"-74.04","45.68","MONTREAL MIRABEL INTL A","7034900","2018-02-22 19:00","2018","02","22","19:00","-7.3","","-13.0","","64","","","","23","","4","","40.2","","103.05","","","","-9","","Clear"
"-74.04","45.68","MONTREAL MIRABEL INTL A","7034900","2018-02-22 20:00","2018","02","22","20:00","-8.6","","-13.0","","71","","","","","","0","","40.2","","103.07","","","","","","NA"
"-74.04","45.68","MONTREAL MIRABEL INTL A","7034900","2018-02-22 21:00","2018","02","22","21:00","-10.2","","-13.5","","77","","","","","","0","","40.2","","103.05","","","","","","NA"
"-74.04","45.68","MONTREAL MIRABEL INTL A","7034900","2018-02-22 22:00","2018","02","22","22:00","-9.4","","-12.9","","76","","","","","","0","","40.2","","103.09","","","","","","Clear"
"-74.04","45.68","MONTREAL MIRABEL INTL A","7034900","2018-02-22 23:00","2018","02","22","23:00","-11.6","","-13.6","","86","","","","33","","4","","40.2","","103.12","","","","-14","","NA"
"-74.04","45.68","MONTREAL MIRABEL INTL A","7034900","2018-02-23 00:00","2018","02","23","00:00","-11.7","","-13.6","","86","","","","1","","3","","40.2","","103.10","","","","-14","","NA"
"-74.04","45.68","MONTREAL MIRABEL INTL A","7034900","2018-02-23 01:00","2018","02","23","01:00","-11.1","","-13.1","","85","","","","","","0","","40.2","","103.09","","","","","","Mostly Cloudy"
"-74.04","45.68","MONTREAL MIRABEL INTL A","7034900","2018-02-23 02:00","2018","02","23","02:00","-11.3","","-13.3","","85","","","","4","","8","","40.2","","103.02","","","","-16","","NA"
"-74.04","45.68","MONTREAL MIRABEL INTL A","7034900","2018-02-23 03:00","2018","02","23","03:00","-11.1","","-13.3","","84","","","","3","","9","","40.2","","102.98","","","","-16","","NA"
"-74.04","45.68","MONTREAL MIRABEL INTL A","7034900","2018-02-23 04:00","2018","02","23","04:00","-11.3","","-13.6","","84","","","","4","","8","","40.2","","102.91","","","","-16","","Mostly Cloudy"
"-74.04","45.68","MONTREAL MIRABEL INTL A","7034900","2018-02-23 05:00","2018","02","23","05:00","-10.8","","-13.4","","82","","","","4","","5","","40.2","","102.83","","","","-14","","NA"
"-74.04","45.68","MONTREAL MIRABEL INTL A","7034900","2018-02-23 06:00","2018","02","23","06:00","-11.0","","-13.8","","80","","","","5","","6","","40.2","","102.75","","","","-15","","NA"
"-74.04","45.68","MONTREAL MIRABEL INTL A","7034900","2018-02-23 07:00","2018","02","23","07:00","-11.4","","-14.1","","81","","","","4","","4","","72.4","","102.68","","","","-14","","Cloudy"
"-74.04","45.68","MONTREAL MIRABEL INTL A","7034900","2018-02-23 08:00","2018","02","23","08:00","-10.6","","-13.7","","78","","","","7","","5","","72.4","","102.64","","","","-14","","NA"
"-74.04","45.68","MONTREAL MIRABEL INTL A","7034900","2018-02-23 09:00","2018","02","23","09:00","-9.3","","-13.1","","74","","","","4","","8","","40.2","","102.55","","","","-14","","NA"
"-74.04","45.68","MONTREAL MIRABEL INTL A","7034900","2018-02-23 10:00","2018","02","23","10:00","-7.4","","-12.6","","66","","","","5","","13","","40.2","","102.37","","","","-13","","Mostly Cloudy"
"-74.04","45.68","MONTREAL MIRABEL INTL A","7034900","2018-02-23 11:00","2018","02","23","11:00","-7.0","","-12.6","","65","","","","5","","15","","40.2","","102.18","","","","-13","","NA"
"-74.04","45.68","MONTREAL MIRABEL INTL A","7034900","2018-02-23 12:00","2018","02","23","12:00","-6.2","","-11.6","","66","","","","6","","12","","40.2","","101.94","","","","-11","","NA"
"-74.04","45.68","MONTREAL MIRABEL INTL A","7034900","2018-02-23 13:00","2018","02","23","13:00","-5.6","","-10.8","","67","","","","4","","11","","32.2","","101.63","","","","-10","","Cloudy"
"-74.04","45.68","MONTREAL MIRABEL INTL A","7034900","2018-02-23 14:00","2018","02","23","14:00","-5.6","","-10.4","","69","","","","5","","11","","24.1","","101.41","","","","-10","","Snow"
"-74.04","45.68","MONTREAL MIRABEL INTL A","7034900","2018-02-23 15:00","2018","02","23","15:00","-5.5","","-8.1","","82","","","","6","","15","","8.1","","101.21","","","","-11","","Freezing Rain,Fog"
"-74.04","45.68","MONTREAL MIRABEL INTL A","7034900","2018-02-23 16:00","2018","02","23","16:00","-4.2","","-5.7","","90","","","","7","","16","","8.1","","101.07","","","","-10","","Freezing Rain,Fog"
"-74.04","45.68","MONTREAL MIRABEL INTL A","7034900","2018-02-23 17:00","2018","02","23","17:00","-3.6","","-4.4","","94","","","","4","","13","","4.8","","100.92","","","","-8","","Freezing Rain,Fog"
"-74.04","45.68","MONTREAL MIRABEL INTL A","7034900","2018-02-23 18:00","2018","02","23","18:00","-3.1","","-3.7","","96","","","","3","","7","","3.2","","100.75","","","","-6","","Freezing Rain,Fog"
"-74.04","45.68","MONTREAL MIRABEL INTL A","7034900","2018-02-23 19:00","2018","02","23","19:00","-2.9","","-3.4","","96","","","","36","","8","","3.2","","100.67","","","","-6","","Freezing Rain,Fog"
"-74.04","45.68","MONTREAL MIRABEL INTL A","7034900","2018-02-23 20:00","2018","02","23","20:00","-2.5","","-2.9","","97","","","","3","","3","","2.0","","100.60","","","","-4","","Freezing Drizzle,Fog"
"-74.04","45.68","MONTREAL MIRABEL INTL A","7034900","2018-02-23 21:00","2018","02","23","21:00","-1.9","","-2.3","","97","","","","26","","3","","2.4","","100.55","","","","-3","","Freezing Drizzle,Fog"
"-74.04","45.68","MONTREAL MIRABEL INTL A","7034900","2018-02-23 22:00","2018","02","23","22:00","-0.8","","-1.2","","97","","","","20","","9","","2.0","","100.48","","","","-4","","Freezing Drizzle,Fog"
"-74.04","45.68","MONTREAL MIRABEL INTL A","7034900","2018-02-23 23:00","2018","02","23","23:00","-0.3","","-0.7","","97","","","","24","","12","","2.0","","100.43","","","","-4","","Freezing Drizzle,Fog"
"-74.04","45.68","MONTREAL MIRABEL INTL A","7034900","2018-02-24 00:00","2018","02","24","00:00","-0.1","","-0.5","","97","","","","25","","14","","2.0","","100.44","","","","-4","","Fog"
"-74.04","45.68","MONTREAL MIRABEL INTL A","7034900","2018-02-24 01:00","2018","02","24","01:00","0.6","","0.2","","98","","","","25","","15","","2.0","","100.48","","","","","","Fog"
"-74.04","45.68","MONTREAL MIRABEL INTL A","7034900","2018-02-24 02:00","2018","02","24","02:00","0.9","","0.5","","98","","","","25","","15","","4.8","","100.54","","","","","","Fog"
"-74.04","45.68","MONTREAL MIRABEL INTL A","7034900","2018-02-24 03:00","2018","02","24","03:00","0.8","","0.4","","97","","","","25","","15","","2.4","","100.59","","","","","","Fog"
"-74.04","45.68","MONTREAL MIRABEL INTL A","7034900","2018-02-24 04:00","2018","02","24","04:00","1.0","","0.5","","97","","","","25","","13","","4.8","","100.63","","","","","","Fog"
"-74.04","45.68","MONTREAL MIRABEL INTL A","7034900","2018-02-24 05:00","2018","02","24","05:00","1.3","","0.5","","94","","","","25","","15","","12.9","","100.69","","","","","","NA"
"-74.04","45.68","MONTREAL MIRABEL INTL A","7034900","2018-02-24 06:00","2018","02","24","06:00","1.4","","0.4","","93","","","","25","","16","","40.2","","100.77","","","","","","NA"
"-74.04","45.68","MONTREAL MIRABEL INTL A","7034900","2018-02-24 07:00","2018","02","24","07:00","1.6","","0.1","","89","","","","25","","16","","40.2","","100.83","","","","","","Rain Showers"
"-74.04","45.68","MONTREAL MIRABEL INTL A","7034900","2018-02-24 08:00","2018","02","24","08:00","1.3","","0.1","","92","","","","26","","12","","56.3","","100.97","","","","","","NA"
"-74.04","45.68","MONTREAL MIRABEL INTL A","7034900","2018-02-24 09:00","2018","02","24","09:00","1.6","","-3.5","","69","","","","31","","14","","72.4","","101.09","","","","","","NA"
"-74.04","45.68","MONTREAL MIRABEL INTL A","7034900","2018-02-24 10:00","2018","02","24","10:00","1.7","","-5.1","","61","","","","32","","22","","72.4","","101.15","","","","","","Mostly Cloudy"
"-74.04","45.68","MONTREAL MIRABEL INTL A","7034900","2018-02-24 11:00","2018","02","24","11:00","1.7","","-4.8","","62","","","","31","","13","","56.3","","101.22","","","","","","NA"
"-74.04","45.68","MONTREAL MIRABEL INTL A","7034900","2018-02-24 12:00","2018","02","24","12:00","1.7","","-4.7","","62","","","","32","","18","","72.4","","101.28","","","","","","NA"
"-74.04","45.68","MONTREAL MIRABEL INTL A","7034900","2018-02-24 13:00","2018","02","24","13:00","1.4","","-5.2","","62","","","","31","","11","","40.2","","101.33","","","","","","Mostly Cloudy"
"-74.04","45.68","MONTREAL MIRABEL INTL A","7034900","2018-02-24 14:00","2018","02","24","14:00","1.0","","-6.8","","56","","","","30","","13","","72.4","","101.34","","","","","","NA"
"-74.04","45.68","MONTREAL MIRABEL INTL A","7034900","2018-02-24 15:00","2018","02","24","15:00","1.1","","-6.4","","57","","","","33","","11","","72.4","","101.37","","","","","","NA"
"-74.04","45.68","MONTREAL MIRABEL INTL A","7034900","2018-02-24 16:00","2018","02","24","16:00","1.0","","-6.4","","58","","","","27","","5","","72.4","","101.42","","","","","","Mostly Cloudy"
"-74.04","45.68","MONTREAL MIRABEL INTL A","7034900","2018-02-24 17:00","2018","02","24","17:00","0.5","","-6.6","","59","","","","34","","10","","40.2","","101.45","","","","","","NA"
"-74.04","45.68","MONTREAL MIRABEL INTL A","7034900","2018-02-24 18:00","2018","02","24","18:00","-1.3","","-6.6","","67","","","","31","","6","","40.2","","101.49","","","","-4","","NA"
"-74.04","45.68","MONTREAL MIRABEL INTL A","7034900","2018-02-24 19:00","2018","02","24","19:00","-2.1","","-6.8","","70","","","","32","","8","","40.2","","101.53","","","","-5","","Mainly Clear"
"-74.04","45.68","MONTREAL MIRABEL INTL A","7034900","2018-02-24 20:00","2018","02","24","20:00","-2.8","","-7.2","","72","","","","33","","7","","40.2","","101.59","","","","-6","","NA"
"-74.04","45.68","MONTREAL MIRABEL INTL A","7034900","2018-02-24 21:00","2018","02","24","21:00","-3.7","","-7.4","","76","","","","35","","5","","40.2","","101.62","","","","-6","","NA"
"-74.04","45.68","MONTREAL MIRABEL INTL A","7034900","2018-02-24 22:00","2018","02","24","22:00","-4.5","","-7.6","","79","","","","3","","3","","40.2","","101.64","","","","-6","","Clear"
"-74.04","45.68","MONTREAL MIRABEL INTL A","7034900","2018-02-24 23:00","2018","02","24","23:00","-5.2","","-7.5","","84","","","","4","","5","","40.2","","101.63","","","","-7","","NA"
"-74.04","45.68","MONTREAL MIRABEL INTL A","7034900","2018-02-25 00:00","2018","02","25","00:00","-6.0","","-8.5","","83","","","","5","","5","","40.2","","101.61","","","","-8","","NA"
"-74.04","45.68","MONTREAL MIRABEL INTL A","7034900","2018-02-25 01:00","2018","02","25","01:00","-5.2","","-9.4","","72","","","","6","","10","","40.2","","101.60","","","","-10","","Mostly Cloudy"
"-74.04","45.68","MONTREAL MIRABEL INTL A","7034900","2018-02-25 02:00","2018","02","25","02:00","-5.4","","-10.4","","68","","","","6","","11","","40.2","","101.56","","","","-10","","NA"
"-74.04","45.68","MONTREAL MIRABEL INTL A","7034900","2018-02-25 03:00","2018","02","25","03:00","-5.9","","-10.9","","68","","","","6","","10","","40.2","","101.48","","","","-10","","NA"
"-74.04","45.68","MONTREAL MIRABEL INTL A","7034900","2018-02-25 04:00","2018","02","25","04:00","-5.8","","-11.7","","64","","","","5","","10","","40.2","","101.41","","","","-10","","Cloudy"
"-74.04","45.68","MONTREAL MIRABEL INTL A","7034900","2018-02-25 05:00","2018","02","25","05:00","-5.5","","-11.9","","61","","","","6","","12","","40.2","","101.16","","","","-10","","NA"
"-74.04","45.68","MONTREAL MIRABEL INTL A","7034900","2018-02-25 06:00","2018","02","25","06:00","-5.8","","-11.7","","63","","","","6","","17","","40.2","","100.99","","","","-12","","NA"
"-74.04","45.68","MONTREAL MIRABEL INTL A","7034900","2018-02-25 07:00","2018","02","25","07:00","-6.3","","-11.4","","67","","","","6","","14","","72.4","","100.92","","","","-12","","Cloudy"
"-74.04","45.68","MONTREAL MIRABEL INTL A","7034900","2018-02-25 08:00","2018","02","25","08:00","-6.1","","-11.0","","69","","","","6","","15","","72.4","","100.76","","","","-12","","NA"
"-74.04","45.68","MONTREAL MIRABEL INTL A","7034900","2018-02-25 09:00","2018","02","25","09:00","-6.0","","-10.3","","71","","","","7","","18","","72.4","","100.60","","","","-12","","NA"
"-74.04","45.68","MONTREAL MIRABEL INTL A","7034900","2018-02-25 10:00","2018","02","25","10:00","-4.7","","-7.0","","84","","","","6","","13","","16.1","","100.41","","","","-10","","Freezing Rain,Snow"
"-74.04","45.68","MONTREAL MIRABEL INTL A","7034900","2018-02-25 11:00","2018","02","25","11:00","-3.8","","-5.0","","92","","","","7","","18","","2.4","","100.22","","","","-10","","Freezing Rain,Ice Pellets,Fog"
"-74.04","45.68","MONTREAL MIRABEL INTL A","7034900","2018-02-25 12:00","2018","02","25","12:00","-0.4","","-1.6","","92","","","","11","","23","","4.0","","100.06","","","","-6","","Freezing Rain,Fog"
"-74.04","45.68","MONTREAL MIRABEL INTL A","7034900","2018-02-25 13:00","2018","02","25","13:00","0.2","","-0.8","","93","","","","12","","22","","3.2","","99.93","","","","","","Rain,Snow,Fog"
"-74.04","45.68","MONTREAL MIRABEL INTL A","7034900","2018-02-25 14:00","2018","02","25","14:00","0.9","","0.0","","93","","","","13","","16","","24.1","","99.75","","","","","","Rain"
"-74.04","45.68","MONTREAL MIRABEL INTL A","7034900","2018-02-25 15:00","2018","02","25","15:00","2.5","","0.2","","85","","","","15","","13","","72.4","","99.80","","","","","","NA"
"-74.04","45.68","MONTREAL MIRABEL INTL A","7034900","2018-02-25 16:00","2018","02","25","16:00","2.8","","0.3","","84","","","","16","","14","","72.4","","99.76","","","","","","Cloudy"
"-74.04","45.68","MONTREAL MIRABEL INTL A","7034900","2018-02-25 17:00","2018","02","25","17:00","2.9","","0.4","","83","","","","15","","14","","72.4","","99.76","","","","","","NA"
"-74.04","45.68","MONTREAL MIRABEL INTL A","7034900","2018-02-25 18:00","2018","02","25","18:00","2.9","","0.4","","84","","","","17","","11","","40.2","","99.82","","","","","","NA"
"-74.04","45.68","MONTREAL MIRABEL INTL A","7034900","2018-02-25 19:00","2018","02","25","19:00","2.2","","0.3","","87","","","","15","","9","","40.2","","99.87","","","","","","Mainly Clear"
"-74.04","45.68","MONTREAL MIRABEL INTL A","7034900","2018-02-25 20:00","2018","02","25","20:00","2.2","","0.4","","88","","","","18","","13","","40.2","","99.90","","","","","","NA"
"-74.04","45.68","MONTREAL MIRABEL INTL A","7034900","2018-02-25 21:00","2018","02","25","21:00","3.5","","0.8","","82","","","","21","","13","","40.2","","99.96","","","","","","NA"
"-74.04","45.68","MONTREAL MIRABEL INTL A","7034900","2018-02-25 22:00","2018","02","25","22:00","3.5","","-0.6","","74","","","","24","","14","","40.2","","100.03","","","","","","Mainly Clear"
"-74.04","45.68","MONTREAL MIRABEL INTL A","7034900","2018-02-25 23:00","2018","02","25","23:00","3.2","","-0.8","","75","","","","24","","14","","40.2","","100.08","","","","","","NA"
"-74.04","45.68","MONTREAL MIRABEL INTL A","7034900","2018-02-26 00:00","2018","02","26","00:00","2.0","","-0.9","","81","","","","25","","9","","40.2","","100.13","","","","","","NA"
"-74.04","45.68","MONTREAL MIRABEL INTL A","7034900","2018-02-26 01:00","2018","02","26","01:00","0.6","","-0.7","","91","","","","25","","5","","40.2","","100.13","","","","","","Clear"
"-74.04","45.68","MONTREAL MIRABEL INTL A","7034900","2018-02-26 02:00","2018","02","26","02:00","0.7","","-1.1","","88","","","","26","","7","","40.2","","100.18","","","","","","NA"
"-74.04","45.68","MONTREAL MIRABEL INTL A","7034900","2018-02-26 03:00","2018","02","26","03:00","1.2","","-1.4","","83","","","","22","","9","","40.2","","100.24","","","","","","NA"
"-74.04","45.68","MONTREAL MIRABEL INTL A","7034900","2018-02-26 04:00","2018","02","26","04:00","1.6","","-1.5","","80","","","","23","","14","","40.2","","100.26","","","","","","Mostly Cloudy"
"-74.04","45.68","MONTREAL MIRABEL INTL A","7034900","2018-02-26 05:00","2018","02","26","05:00","1.2","","-2.0","","80","","","","24","","12","","40.2","","100.36","","","","","","NA"
"-74.04","45.68","MONTREAL MIRABEL INTL A","7034900","2018-02-26 06:00","2018","02","26","06:00","1.3","","-2.2","","78","","","","22","","18","","40.2","","100.37","","","","","","NA"
"-74.04","45.68","MONTREAL MIRABEL INTL A","7034900","2018-02-26 07:00","2018","02","26","07:00","1.3","","-2.7","","75","","","","23","","22","","56.3","","100.45","","","","","","Mostly Cloudy"
"-74.04","45.68","MONTREAL MIRABEL INTL A","7034900","2018-02-26 08:00","2018","02","26","08:00","1.6","","-3.0","","71","","","","23","","22","","72.4","","100.49","","","","","","NA"
"-74.04","45.68","MONTREAL MIRABEL INTL A","7034900","2018-02-26 09:00","2018","02","26","09:00","2.4","","-3.3","","66","","","","24","","21","","64.4","","100.51","","","","","","NA"
"-74.04","45.68","MONTREAL MIRABEL INTL A","7034900","2018-02-26 10:00","2018","02","26","10:00","3.3","","-4.0","","59","","","","25","","30","","56.3","","100.55","","","","","","Mostly Cloudy"
"-74.04","45.68","MONTREAL MIRABEL INTL A","7034900","2018-02-26 11:00","2018","02","26","11:00","3.3","","-3.6","","61","","","","24","","21","","72.4","","100.62","","","","","","NA"
"-74.04","45.68","MONTREAL MIRABEL INTL A","7034900","2018-02-26 12:00","2018","02","26","12:00","3.3","","-5.2","","54","","","","25","","23","","72.4","","100.65","","","","","","NA"
"-74.04","45.68","MONTREAL MIRABEL INTL A","7034900","2018-02-26 13:00","2018","02","26","13:00","3.4","","-6.1","","50","","","","25","","25","","72.4","","100.67","","","","","","Mostly Cloudy"
"-74.04","45.68","MONTREAL MIRABEL INTL A","7034900","2018-02-26 14:00","2018","02","26","14:00","4.2","","-6.4","","46","","","","25","","21","","72.4","","100.70","","","","","","NA"
"-74.04","45.68","MONTREAL MIRABEL INTL A","7034900","2018-02-26 15:00","2018","02","26","15:00","3.8","","-7.2","","44","","","","25","","17","","72.4","","100.75","","","","","","NA"
"-74.04","45.68","MONTREAL MIRABEL INTL A","7034900","2018-02-26 16:00","2018","02","26","16:00","3.7","","-7.1","","45","","","","24","","16","","72.4","","100.79","","","","","","Mainly Clear"
"-74.04","45.68","MONTREAL MIRABEL INTL A","7034900","2018-02-26 17:00","2018","02","26","17:00","3.6","","-7.2","","45","","","","25","","14","","72.4","","100.87","","","","","","NA"
"-74.04","45.68","MONTREAL MIRABEL INTL A","7034900","2018-02-26 18:00","2018","02","26","18:00","2.5","","-6.9","","50","","","","25","","12","","40.2","","100.94","","","","","","NA"
"-74.04","45.68","MONTREAL MIRABEL INTL A","7034900","2018-02-26 19:00","2018","02","26","19:00","1.8","","-6.9","","53","","","","26","","9","","40.2","","100.99","","","","","","Clear"
"-74.04","45.68","MONTREAL MIRABEL INTL A","7034900","2018-02-26 20:00","2018","02","26","20:00","0.7","","-7.0","","57","","","","25","","7","","40.2","","101.03","","","","","","NA"
"-74.04","45.68","MONTREAL MIRABEL INTL A","7034900","2018-02-26 21:00","2018","02","26","21:00","-0.2","","-7.0","","60","","","","23","","5","","40.2","","101.07","","","","-2","","NA"
"-74.04","45.68","MONTREAL MIRABEL INTL A","7034900","2018-02-26 22:00","2018","02","26","22:00","-0.9","","-7.2","","62","","","","22","","7","","40.2","","101.10","","","","-3","","Clear"
"-74.04","45.68","MONTREAL MIRABEL INTL A","7034900","2018-02-26 23:00","2018","02","26","23:00","-1.5","","-7.4","","64","","","","27","","8","","40.2","","101.13","","","","-5","","NA"
"-74.04","45.68","MONTREAL MIRABEL INTL A","7034900","2018-02-27 00:00","2018","02","27","00:00","-1.7","","-7.5","","64","","","","25","","7","","40.2","","101.17","","","","-4","","NA"
"-74.04","45.68","MONTREAL MIRABEL INTL A","7034900","2018-02-27 01:00","2018","02","27","01:00","-2.4","","-7.5","","68","","","","25","","8","","40.2","","101.20","","","","-6","","Mostly Cloudy"
"-74.04","45.68","MONTREAL MIRABEL INTL A","7034900","2018-02-27 02:00","2018","02","27","02:00","-3.0","","-7.7","","70","","","","25","","8","","40.2","","101.25","","","","-6","","NA"
"-74.04","45.68","MONTREAL MIRABEL INTL A","7034900","2018-02-27 03:00","2018","02","27","03:00","-2.8","","-7.4","","71","","","","25","","13","","40.2","","101.30","","","","-7","","NA"
"-74.04","45.68","MONTREAL MIRABEL INTL A","7034900","2018-02-27 04:00","2018","02","27","04:00","-3.2","","-7.3","","73","","","","25","","10","","40.2","","101.34","","","","-7","","Mostly Cloudy"
"-74.04","45.68","MONTREAL MIRABEL INTL A","7034900","2018-02-27 05:00","2018","02","27","05:00","-3.1","","-7.2","","74","","","","25","","10","","40.2","","101.44","","","","-7","","NA"
"-74.04","45.68","MONTREAL MIRABEL INTL A","7034900","2018-02-27 06:00","2018","02","27","06:00","-3.8","","-7.4","","76","","","","23","","7","","72.4","","101.46","","","","-7","","NA"
"-74.04","45.68","MONTREAL MIRABEL INTL A","7034900","2018-02-27 07:00","2018","02","27","07:00","-3.7","","-7.2","","76","","","","24","","9","","72.4","","101.48","","","","-7","","Clear"
"-74.04","45.68","MONTREAL MIRABEL INTL A","7034900","2018-02-27 08:00","2018","02","27","08:00","-3.3","","-7.0","","75","","","","25","","8","","72.4","","101.55","","","","-7","","NA"
"-74.04","45.68","MONTREAL MIRABEL INTL A","7034900","2018-02-27 09:00","2018","02","27","09:00","-1.7","","-6.3","","71","","","","24","","10","","72.4","","101.53","","","","-5","","NA"
"-74.04","45.68","MONTREAL MIRABEL INTL A","7034900","2018-02-27 10:00","2018","02","27","10:00","-0.1","","-5.7","","66","","","","24","","13","","56.3","","101.45","","","","-4","","Mainly Clear"
"-74.04","45.68","MONTREAL MIRABEL INTL A","7034900","2018-02-27 11:00","2018","02","27","11:00","1.2","","-5.1","","63","","","","22","","9","","72.4","","101.37","","","","","","NA"
"-74.04","45.68","MONTREAL MIRABEL INTL A","7034900","2018-02-27 12:00","2018","02","27","12:00","1.8","","-4.4","","64","","","","27","","12","","72.4","","101.28","","","","","","NA"
"-74.04","45.68","MONTREAL MIRABEL INTL A","7034900","2018-02-27 13:00","2018","02","27","13:00","3.6","","-3.9","","58","","","","23","","15","","72.4","","101.15","","","","","","Mainly Clear"
"-74.04","45.68","MONTREAL MIRABEL INTL A","7034900","2018-02-27 14:00","2018","02","27","14:00","4.2","","-3.6","","57","","","","27","","9","","56.3","","101.01","","","","","","NA"
"-74.04","45.68","MONTREAL MIRABEL INTL A","7034900","2018-02-27 15:00","2018","02","27","15:00","6.3","","-3.3","","50","","","","22","","9","","72.4","","100.83","","","","","","NA"
"-74.04","45.68","MONTREAL MIRABEL INTL A","7034900","2018-02-27 16:00","2018","02","27","16:00","5.9","","-3.1","","52","","","","26","","6","","72.4","","100.82","","","","","","Mainly Clear"
"-74.04","45.68","MONTREAL MIRABEL INTL A","7034900","2018-02-27 17:00","2018","02","27","17:00","5.4","","-2.9","","55","","","","19","","8","","72.4","","100.70","","","","","","NA"
"-74.04","45.68","MONTREAL MIRABEL INTL A","7034900","2018-02-27 18:00","2018","02","27","18:00","5.9","","-2.6","","54","","","","22","","13","","40.2","","100.62","","","","","","NA"
"-74.04","45.68","MONTREAL MIRABEL INTL A","7034900","2018-02-27 19:00","2018","02","27","19:00","5.7","","-1.6","","59","","","","22","","14","","40.2","","100.60","","","","","","Mainly Clear"
"-74.04","45.68","MONTREAL MIRABEL INTL A","7034900","2018-02-27 20:00","2018","02","27","20:00","4.8","","-1.5","","64","","","","25","","10","","40.2","","100.58","","","","","","NA"
"-74.04","45.68","MONTREAL MIRABEL INTL A","7034900","2018-02-27 21:00","2018","02","27","21:00","4.6","","-1.5","","65","","","","25","","13","","40.2","","100.56","","","","","","NA"
"-74.04","45.68","MONTREAL MIRABEL INTL A","7034900","2018-02-27 22:00","2018","02","27","22:00","4.0","","-1.2","","69","","","","24","","13","","40.2","","100.52","","","","","","Mostly Cloudy"
"-74.04","45.68","MONTREAL MIRABEL INTL A","7034900","2018-02-27 23:00","2018","02","27","23:00","4.4","","-1.8","","64","","","","24","","15","","40.2","","100.48","","","","","","NA"
"-74.04","45.68","MONTREAL MIRABEL INTL A","7034900","2018-02-28 00:00","2018","02","28","00:00","4.3","","-2.3","","62","","","","25","","13","","40.2","","100.47","","","","","","NA"
"-74.04","45.68","MONTREAL MIRABEL INTL A","7034900","2018-02-28 01:00","2018","02","28","01:00","2.4","","-2.0","","73","","","","25","","8","","40.2","","100.50","","","","","","Mainly Clear"
"-74.04","45.68","MONTREAL MIRABEL INTL A","7034900","2018-02-28 02:00","2018","02","28","02:00","2.3","","-2.1","","73","","","","25","","10","","40.2","","100.51","","","","","","NA"
"-74.04","45.68","MONTREAL MIRABEL INTL A","7034900","2018-02-28 03:00","2018","02","28","03:00","2.8","","-2.3","","69","","","","26","","9","","40.2","","100.49","","","","","","NA"
"-74.04","45.68","MONTREAL MIRABEL INTL A","7034900","2018-02-28 04:00","2018","02","28","04:00","2.4","","-2.4","","71","","","","24","","7","","40.2","","100.47","","","","","","Cloudy"
"-74.04","45.68","MONTREAL MIRABEL INTL A","7034900","2018-02-28 05:00","2018","02","28","05:00","2.0","","-2.5","","72","","","","26","","7","","40.2","","100.50","","","","","","NA"
"-74.04","45.68","MONTREAL MIRABEL INTL A","7034900","2018-02-28 06:00","2018","02","28","06:00","0.7","","-2.3","","80","","","","28","","4","","40.2","","100.50","","","","","","NA"
"-74.04","45.68","MONTREAL MIRABEL INTL A","7034900","2018-02-28 07:00","2018","02","28","07:00","-0.4","","-2.4","","86","","","","","","0","","64.4","","100.48","","","","","","Cloudy"
"-74.04","45.68","MONTREAL MIRABEL INTL A","7034900","2018-02-28 08:00","2018","02","28","08:00","0.8","","-2.3","","80","","","","8","","6","","40.2","","100.46","","","","","","NA"
"-74.04","45.68","MONTREAL MIRABEL INTL A","7034900","2018-02-28 09:00","2018","02","28","09:00","2.0","","-2.0","","75","","","","1","","6","","32.2","","100.45","","","","","","NA"
"-74.04","45.68","MONTREAL MIRABEL INTL A","7034900","2018-02-28 10:00","2018","02","28","10:00","2.4","","-1.5","","75","","","","1","","9","","40.2","","100.37","","","","","","Cloudy"
"-74.04","45.68","MONTREAL MIRABEL INTL A","7034900","2018-02-28 11:00","2018","02","28","11:00","3.5","","-1.3","","71","","","","5","","8","","40.2","","100.30","","","","","","NA"
"-74.04","45.68","MONTREAL MIRABEL INTL A","7034900","2018-02-28 12:00","2018","02","28","12:00","4.3","","-1.3","","67","","","","7","","10","","40.2","","100.18","","","","","","NA"
"-74.04","45.68","MONTREAL MIRABEL INTL A","7034900","2018-02-28 13:00","2018","02","28","13:00","4.1","","-0.9","","70","","","","5","","8","","40.2","","100.04","","","","","","Cloudy"
"-74.04","45.68","MONTREAL MIRABEL INTL A","7034900","2018-02-28 14:00","2018","02","28","14:00","3.7","","-1.0","","72","","","","2","","7","","32.2","","99.99","","","","","","NA"
"-74.04","45.68","MONTREAL MIRABEL INTL A","7034900","2018-02-28 15:00","2018","02","28","15:00","3.3","","-1.2","","72","","","","4","","9","","32.2","","99.96","","","","","","NA"
"-74.04","45.68","MONTREAL MIRABEL INTL A","7034900","2018-02-28 16:00","2018","02","28","16:00","2.8","","-1.2","","75","","","","5","","10","","40.2","","99.88","","","","","","Cloudy"
"-74.04","45.68","MONTREAL MIRABEL INTL A","7034900","2018-02-28 17:00","2018","02","28","17:00","2.1","","0.0","","86","","","","7","","16","","24.1","","99.84","","","","","","Rain"
"-74.04","45.68","MONTREAL MIRABEL INTL A","7034900","2018-02-28 18:00","2018","02","28","18:00","1.3","","0.2","","93","","","","5","","11","","16.1","","99.83","","","","","","Rain"
"-74.04","45.68","MONTREAL MIRABEL INTL A","7034900","2018-02-28 19:00","2018","02","28","19:00","1.0","","0.2","","94","","","","5","","12","","24.1","","99.86","","","","","","Cloudy"
"-74.04","45.68","MONTREAL MIRABEL INTL A","7034900","2018-02-28 20:00","2018","02","28","20:00","1.3","","0.0","","91","","","","4","","16","","40.2","","99.83","","","","","","NA"
"-74.04","45.68","MONTREAL MIRABEL INTL A","7034900","2018-02-28 21:00","2018","02","28","21:00","1.2","","-0.2","","90","","","","3","","6","","40.2","","99.86","","","","","","NA"
"-74.04","45.68","MONTREAL MIRABEL INTL A","7034900","2018-02-28 22:00","2018","02","28","22:00","1.2","","-0.4","","89","","","","4","","6","","40.2","","99.90","","","","","","Cloudy"
"-74.04","45.68","MONTREAL MIRABEL INTL A","7034900","2018-02-28 23:00","2018","02","28","23:00","1.3","","-0.5","","88","","","","3","","5","","40.2","","99.93","","","","","","NA"
