"Longitude (x)","Latitude (y)","Station Name","Climate ID","Date/Time (LST)","Year","Month","Day","Time (LST)","Temp (°C)","Temp Flag","Dew Point Temp (°C)","Dew Point Temp Flag","Rel Hum (%)","Rel Hum Flag","Precip. Amount (mm)","Precip. Amount Flag","Wind Dir (10s deg)","Wind Dir Flag","Wind Spd (km/h)","Wind Spd Flag","Visibility (km)","Visibility Flag","Stn Press (kPa)","Stn Press Flag","Hmdx","Hmdx Flag","Wind Chill","Wind Chill Flag","Weather"
"-73.74","45.47","MONTREAL/PIERRE ELLIOTT TRUDEAU INTL","702S006","2017-02-01 00:00","2017","02","01","00:00","-13.2","","-15.8","","81","","0.0","","2","","17","","","","100.59","","","","-21","","NA"
"-73.74","45.47","MONTREAL/PIERRE ELLIOTT TRUDEAU INTL","702S006","2017-02-01 01:00","2017","02","01","01:00","-13.3","","-15.7","","82","","0.0","","2","","16","","","","100.55","","","","-21","","NA"
"-73.74","45.47","MONTREAL/PIERRE ELLIOTT TRUDEAU INTL","702S006","2017-02-01 02:00","2017","02","01","02:00","-13.4","","-15.7","","83","","0.0","","2","","18","","","","100.55","","","","-22","","NA"
"-73.74","45.47","MONTREAL/PIERRE ELLIOTT TRUDEAU INTL","702S006","2017-02-01 03:00","2017","02","01","03:00","-13.7","","-15.8","","84","","0.0","","2","","18","","","","100.54","","","","-22","","NA"
"-73.74","45.47","MONTREAL/PIERRE ELLIOTT TRUDEAU INTL","702S006","2017-02-01 04:00","2017","02","01","04:00","-13.2","","-15.3","","84","","0.0","","3","","15","","","","100.54","","","","-21","","NA"
"-73.74","45.47","MONTREAL/PIERRE ELLIOTT TRUDEAU INTL","702S006","2017-02-01 05:00","2017","02","01","05:00","-13.5","","-15.3","","86","","0.0","","2","","19","","","","100.53","","","","-22","","NA"
"-73.74","45.47","MONTREAL/PIERRE ELLIOTT TRUDEAU INTL","702S006","2017-02-01 06:00","2017","02","01","06:00","-13.2","","-15.2","","85","","0.0","","2","","19","","","","100.50","","","","-22","","NA"
"-73.74","45.47","MONTREAL/PIERRE ELLIOTT TRUDEAU INTL","702S006","2017-02-01 07:00","2017","02","01","07:00","-13.1","","-15.1","","85","","0.0","","2","","18","","","","100.52","","","","-21","","NA"
"-73.74","45.47","MONTREAL/PIERRE ELLIOTT TRUDEAU INTL","702S006","2017-02-01 08:00","2017","02","01","08:00","-12.7","","-14.8","","84","","0.0","","2","","17","","","","100.54","","","","-21","","NA"
"-73.74","45.47","MONTREAL/PIERRE ELLIOTT TRUDEAU INTL","702S006","2017-02-01 09:00","2017","02","01","09:00","-12.2","","-14.6","","82","","0.0","","2","","17","","","","100.53","","","","-20","","NA"
"-73.74","45.47","MONTREAL/PIERRE ELLIOTT TRUDEAU INTL","702S006","2017-02-01 10:00","2017","02","01","10:00","-11.6","","-14.1","","82","","0.0","","2","","13","","","","100.55","","","","-18","","NA"
"-73.74","45.47","MONTREAL/PIERRE ELLIOTT TRUDEAU INTL","702S006","2017-02-01 11:00","2017","02","01","11:00","-10.9","","-13.7","","80","","0.0","","1","","10","","","","100.57","","","","-16","","NA"
"-73.74","45.47","MONTREAL/PIERRE ELLIOTT TRUDEAU INTL","702S006","2017-02-01 12:00","2017","02","01","12:00","-10.1","","-13.2","","78","","0.0","","1","","9","","","","100.55","","","","-15","","NA"
"-73.74","45.47","MONTREAL/PIERRE ELLIOTT TRUDEAU INTL","702S006","2017-02-01 13:00","2017","02","01","13:00","-8.8","","-12.3","","76","","0.0","","2","","4","","","","100.53","","","","-11","","NA"
"-73.74","45.47","MONTREAL/PIERRE ELLIOTT TRUDEAU INTL","702S006","2017-02-01 14:00","2017","02","01","14:00","-8.1","","-11.8","","74","","0.0","","24","","4","","","","100.55","","","","-10","","NA"
"-73.74","45.47","MONTREAL/PIERRE ELLIOTT TRUDEAU INTL","702S006","2017-02-01 15:00","2017","02","01","15:00","-7.0","","-10.7","","75","","0.0","","24","","4","","","","100.62","","","","-9","","NA"
"-73.74","45.47","MONTREAL/PIERRE ELLIOTT TRUDEAU INTL","702S006","2017-02-01 16:00","2017","02","01","16:00","-7.9","","-10.8","","80","","0.0","","18","","9","","","","100.68","","","","-12","","NA"
"-73.74","45.47","MONTREAL/PIERRE ELLIOTT TRUDEAU INTL","702S006","2017-02-01 17:00","2017","02","01","17:00","-7.5","","-10.7","","78","","0.0","","23","","10","","","","100.79","","","","-12","","NA"
"-73.74","45.47","MONTREAL/PIERRE ELLIOTT TRUDEAU INTL","702S006","2017-02-01 18:00","2017","02","01","18:00","-8.6","","-11.8","","78","","0.0","","27","","3","","","","100.84","","","","-10","","NA"
"-73.74","45.47","MONTREAL/PIERRE ELLIOTT TRUDEAU INTL","702S006","2017-02-01 19:00","2017","02","01","19:00","-7.9","","-10.9","","79","","0.0","","26","","3","","","","100.86","","","","-9","","NA"
"-73.74","45.47","MONTREAL/PIERRE ELLIOTT TRUDEAU INTL","702S006","2017-02-01 20:00","2017","02","01","20:00","-6.9","","-10.1","","78","","0.0","","23","","7","","","","100.87","","","","-10","","NA"
"-73.74","45.47","MONTREAL/PIERRE ELLIOTT TRUDEAU INTL","702S006","2017-02-01 21:00","2017","02","01","21:00","-6.6","","-8.6","","86","","0.0","","19","","7","","","","100.87","","","","-10","","NA"
"-73.74","45.47","MONTREAL/PIERRE ELLIOTT TRUDEAU INTL","702S006","2017-02-01 22:00","2017","02","01","22:00","-6.7","","-7.8","","92","","0.0","","20","","9","","","","100.88","","","","-11","","NA"
"-73.74","45.47","MONTREAL/PIERRE ELLIOTT TRUDEAU INTL","702S006","2017-02-01 23:00","2017","02","01","23:00","-6.6","","-8.0","","90","","0.0","","21","","7","","","","100.88","","","","-10","","NA"
"-73.74","45.47","MONTREAL/PIERRE ELLIOTT TRUDEAU INTL","702S006","2017-02-02 00:00","2017","02","02","00:00","-6.9","","-8.2","","90","","0.0","","15","","6","","","","100.81","","","","-10","","NA"
"-73.74","45.47","MONTREAL/PIERRE ELLIOTT TRUDEAU INTL","702S006","2017-02-02 01:00","2017","02","02","01:00","-6.3","","-7.7","","90","","0.0","","20","","11","","","","100.83","","","","-11","","NA"
"-73.74","45.47","MONTREAL/PIERRE ELLIOTT TRUDEAU INTL","702S006","2017-02-02 02:00","2017","02","02","02:00","-6.3","","-7.8","","89","","0.0","","17","","5","","","","100.83","","","","-9","","NA"
"-73.74","45.47","MONTREAL/PIERRE ELLIOTT TRUDEAU INTL","702S006","2017-02-02 03:00","2017","02","02","03:00","-5.8","","-7.4","","88","","0.0","","24","","7","","","","100.83","","","","-9","","NA"
"-73.74","45.47","MONTREAL/PIERRE ELLIOTT TRUDEAU INTL","702S006","2017-02-02 04:00","2017","02","02","04:00","-5.7","","-7.4","","88","","0.0","","28","","8","","","","100.83","","","","-9","","NA"
"-73.74","45.47","MONTREAL/PIERRE ELLIOTT TRUDEAU INTL","702S006","2017-02-02 05:00","2017","02","02","05:00","-6.1","","-7.7","","89","","0.0","","27","","10","","","","100.87","","","","-11","","NA"
"-73.74","45.47","MONTREAL/PIERRE ELLIOTT TRUDEAU INTL","702S006","2017-02-02 06:00","2017","02","02","06:00","-6.4","","-8.6","","85","","0.0","","28","","20","","","","100.94","","","","-13","","NA"
"-73.74","45.47","MONTREAL/PIERRE ELLIOTT TRUDEAU INTL","702S006","2017-02-02 07:00","2017","02","02","07:00","-7.7","","-10.3","","82","","0.0","","27","","17","","","","101.04","","","","-14","","NA"
"-73.74","45.47","MONTREAL/PIERRE ELLIOTT TRUDEAU INTL","702S006","2017-02-02 08:00","2017","02","02","08:00","-10.2","","-14.1","","73","","0.0","","29","","24","","","","101.17","","","","-19","","NA"
"-73.74","45.47","MONTREAL/PIERRE ELLIOTT TRUDEAU INTL","702S006","2017-02-02 09:00","2017","02","02","09:00","-10.4","","-14.8","","70","","0.0","","28","","17","","","","101.21","","","","-18","","NA"
"-73.74","45.47","MONTREAL/PIERRE ELLIOTT TRUDEAU INTL","702S006","2017-02-02 10:00","2017","02","02","10:00","-10.7","","-16.1","","65","","0.0","","27","","19","","","","101.30","","","","-19","","NA"
"-73.74","45.47","MONTREAL/PIERRE ELLIOTT TRUDEAU INTL","702S006","2017-02-02 11:00","2017","02","02","11:00","-10.5","","-16.5","","62","","0.0","","27","","23","","","","101.31","","","","-19","","NA"
"-73.74","45.47","MONTREAL/PIERRE ELLIOTT TRUDEAU INTL","702S006","2017-02-02 12:00","2017","02","02","12:00","-9.7","","-16.7","","56","","0.0","","27","","18","","","","101.27","","","","-17","","NA"
"-73.74","45.47","MONTREAL/PIERRE ELLIOTT TRUDEAU INTL","702S006","2017-02-02 13:00","2017","02","02","13:00","-8.8","","-16.6","","54","","0.0","","24","","15","","","","101.20","","","","-15","","NA"
"-73.74","45.47","MONTREAL/PIERRE ELLIOTT TRUDEAU INTL","702S006","2017-02-02 14:00","2017","02","02","14:00","-7.7","","-16.5","","49","","0.0","","24","","13","","","","101.15","","","","-13","","NA"
"-73.74","45.47","MONTREAL/PIERRE ELLIOTT TRUDEAU INTL","702S006","2017-02-02 15:00","2017","02","02","15:00","-7.2","","-15.2","","53","","0.0","","23","","14","","","","101.12","","","","-13","","NA"
"-73.74","45.47","MONTREAL/PIERRE ELLIOTT TRUDEAU INTL","702S006","2017-02-02 16:00","2017","02","02","16:00","-6.9","","-14.0","","57","","0.0","","25","","13","","","","101.15","","","","-12","","NA"
"-73.74","45.47","MONTREAL/PIERRE ELLIOTT TRUDEAU INTL","702S006","2017-02-02 17:00","2017","02","02","17:00","-7.4","","-11.7","","71","","0.0","","29","","12","","","","101.14","","","","-13","","NA"
"-73.74","45.47","MONTREAL/PIERRE ELLIOTT TRUDEAU INTL","702S006","2017-02-02 18:00","2017","02","02","18:00","-8.1","","-14.1","","62","","0.0","","29","","19","","","","101.49","","","","-15","","NA"
"-73.74","45.47","MONTREAL/PIERRE ELLIOTT TRUDEAU INTL","702S006","2017-02-02 19:00","2017","02","02","19:00","-8.3","","-14.3","","62","","0.0","","28","","11","","","","101.47","","","","-14","","NA"
"-73.74","45.47","MONTREAL/PIERRE ELLIOTT TRUDEAU INTL","702S006","2017-02-02 20:00","2017","02","02","20:00"
"-73.74","45.47","MONTREAL/PIERRE ELLIOTT TRUDEAU INTL","702S006","2017-02-02 21:00","2017","02","02","21:00"
"-73.74","45.47","MONTREAL/PIERRE ELLIOTT TRUDEAU INTL","702S006","2017-02-02 22:00","2017","02","02","22:00"
"-73.74","45.47","MONTREAL/PIERRE ELLIOTT TRUDEAU INTL","702S006","2017-02-02 23:00","2017","02","02","23:00"
"-73.74","45.47","MONTREAL/PIERRE ELLIOTT TRUDEAU INTL","702S006","2017-02-03 00:00","2017","02","03","00:00"
"-73.74","45.47","MONTREAL/PIERRE ELLIOTT TRUDEAU INTL","702S006","2017-02-03 01:00","2017","02","03","01:00","-8.0","","-13.9","","63","","0.0","","24","","10","","","","101.45","","","","-13","","NA"
"-73.74","45.47","MONTREAL/PIERRE ELLIOTT TRUDEAU INTL","702S006","2017-02-03 02:00","2017","02","03","02:00","-7.7","","-13.6","","62","","0.0","","27","","13","","","","101.44","","","","-13","","NA"
"-73.74","45.47","MONTREAL/PIERRE ELLIOTT TRUDEAU INTL","702S006","2017-02-03 03:00","2017","02","03","03:00","-7.0","","-12.4","","66","","0.0","","27","","15","","","","101.40","","","","-13","","NA"
"-73.74","45.47","MONTREAL/PIERRE ELLIOTT TRUDEAU INTL","702S006","2017-02-03 04:00","2017","02","03","04:00","-7.5","","-10.3","","80","","0.0","","23","","12","","","","101.35","","","","-13","","NA"
"-73.74","45.47","MONTREAL/PIERRE ELLIOTT TRUDEAU INTL","702S006","2017-02-03 05:00","2017","02","03","05:00","-7.3","","-10.2","","80","","0.0","","24","","11","","","","101.36","","","","-12","","NA"
"-73.74","45.47","MONTREAL/PIERRE ELLIOTT TRUDEAU INTL","702S006","2017-02-03 06:00","2017","02","03","06:00","-7.1","","-10.7","","75","","0.0","","25","","15","","","","101.35","","","","-13","","NA"
"-73.74","45.47","MONTREAL/PIERRE ELLIOTT TRUDEAU INTL","702S006","2017-02-03 07:00","2017","02","03","07:00","-7.0","","-11.1","","73","","0.0","","26","","11","","","","101.39","","","","-12","","NA"
"-73.74","45.47","MONTREAL/PIERRE ELLIOTT TRUDEAU INTL","702S006","2017-02-03 08:00","2017","02","03","08:00","-8.9","","-12.8","","74","","0.0","","29","","10","","","","101.42","","","","-14","","NA"
"-73.74","45.47","MONTREAL/PIERRE ELLIOTT TRUDEAU INTL","702S006","2017-02-03 09:00","2017","02","03","09:00","-8.3","","-12.8","","70","","0.0","","34","","18","","","","101.46","","","","-15","","NA"
"-73.74","45.47","MONTREAL/PIERRE ELLIOTT TRUDEAU INTL","702S006","2017-02-03 10:00","2017","02","03","10:00","-8.6","","-14.0","","65","","0.0","","33","","11","","","","101.48","","","","-14","","NA"
"-73.74","45.47","MONTREAL/PIERRE ELLIOTT TRUDEAU INTL","702S006","2017-02-03 11:00","2017","02","03","11:00","-7.2","","-13.6","","60","","0.0","","28","","13","","","","101.46","","","","-13","","NA"
"-73.74","45.47","MONTREAL/PIERRE ELLIOTT TRUDEAU INTL","702S006","2017-02-03 12:00","2017","02","03","12:00","-6.5","","-14.1","","55","","0.0","","27","","23","","","","101.39","","","","-14","","NA"
"-73.74","45.47","MONTREAL/PIERRE ELLIOTT TRUDEAU INTL","702S006","2017-02-03 13:00","2017","02","03","13:00","-5.8","","-14.7","","50","","0.3","","27","","22","","","","101.32","","","","-13","","NA"
"-73.74","45.47","MONTREAL/PIERRE ELLIOTT TRUDEAU INTL","702S006","2017-02-03 14:00","2017","02","03","14:00","-6.0","","-14.4","","52","","0.2","","27","","21","","","","101.27","","","","-13","","NA"
"-73.74","45.47","MONTREAL/PIERRE ELLIOTT TRUDEAU INTL","702S006","2017-02-03 15:00","2017","02","03","15:00","-5.3","","-14.1","","50","","0.0","","26","","25","","","","101.24","","","","-13","","NA"
"-73.74","45.47","MONTREAL/PIERRE ELLIOTT TRUDEAU INTL","702S006","2017-02-03 16:00","2017","02","03","16:00","-5.6","","-14.6","","49","","0.0","","27","","21","","","","101.24","","","","-12","","NA"
"-73.74","45.47","MONTREAL/PIERRE ELLIOTT TRUDEAU INTL","702S006","2017-02-03 17:00","2017","02","03","17:00","-5.9","","-14.8","","50","","0.0","","27","","14","","","","101.28","","","","-11","","NA"
"-73.74","45.47","MONTREAL/PIERRE ELLIOTT TRUDEAU INTL","702S006","2017-02-03 18:00","2017","02","03","18:00","-5.9","","-14.4","","51","","0.0","","26","","15","","","","101.32","","","","-12","","NA"
"-73.74","45.47","MONTREAL/PIERRE ELLIOTT TRUDEAU INTL","702S006","2017-02-03 19:00","2017","02","03","19:00","-6.2","","-14.1","","53","","0.0","","27","","13","","","","101.34","","","","-12","","NA"
"-73.74","45.47","MONTREAL/PIERRE ELLIOTT TRUDEAU INTL","702S006","2017-02-03 20:00","2017","02","03","20:00","-6.2","","-13.8","","55","","0.0","","27","","14","","","","101.37","","","","-12","","NA"
"-73.74","45.47","MONTREAL/PIERRE ELLIOTT TRUDEAU INTL","702S006","2017-02-03 21:00","2017","02","03","21:00","-6.8","","-14.3","","55","","0.0","","27","","12","","","","101.38","","","","-12","","NA"
"-73.74","45.47","MONTREAL/PIERRE ELLIOTT TRUDEAU INTL","702S006","2017-02-03 22:00","2017","02","03","22:00","-6.9","","-13.9","","57","","0.0","","27","","10","","","","101.42","","","","-12","","NA"
"-73.74","45.47","MONTREAL/PIERRE ELLIOTT TRUDEAU INTL","702S006","2017-02-03 23:00","2017","02","03","23:00","-7.7","","-15.4","","54","","0.0","","27","","16","","","","101.48","","","","-14","","NA"
"-73.74","45.47","MONTREAL/PIERRE ELLIOTT TRUDEAU INTL","702S006","2017-02-04 00:00","2017","02","04","00:00","-8.5","","-15.8","","56","","0.0","","27","","13","","","","101.52","","","","-14","","NA"
"-73.74","45.47","MONTREAL/PIERRE ELLIOTT TRUDEAU INTL","702S006","2017-02-04 01:00","2017","02","04","01:00","-9.1","","-16.0","","58","","0.0","","26","","11","","","","101.54","","","","-15","","NA"
"-73.74","45.47","MONTREAL/PIERRE ELLIOTT TRUDEAU INTL","702S006","2017-02-04 02:00","2017","02","04","02:00","-9.7","","-16.2","","59","","0.0","","26","","8","","","","101.59","","","","-14","","NA"
"-73.74","45.47","MONTREAL/PIERRE ELLIOTT TRUDEAU INTL","702S006","2017-02-04 03:00","2017","02","04","03:00","-9.9","","-16.2","","60","","0.0","","28","","14","","","","101.64","","","","-16","","NA"
"-73.74","45.47","MONTREAL/PIERRE ELLIOTT TRUDEAU INTL","702S006","2017-02-04 04:00","2017","02","04","04:00","-10.5","","-15.9","","64","","0.0","","27","","14","","","","101.67","","","","-17","","NA"
"-73.74","45.47","MONTREAL/PIERRE ELLIOTT TRUDEAU INTL","702S006","2017-02-04 05:00","2017","02","04","05:00","-11.0","","-16.0","","66","","0.0","","26","","10","","","","101.72","","","","-16","","NA"
"-73.74","45.47","MONTREAL/PIERRE ELLIOTT TRUDEAU INTL","702S006","2017-02-04 06:00","2017","02","04","06:00","-11.5","","-16.3","","68","","0.0","","26","","11","","","","101.74","","","","-17","","NA"
"-73.74","45.47","MONTREAL/PIERRE ELLIOTT TRUDEAU INTL","702S006","2017-02-04 07:00","2017","02","04","07:00","-11.7","","-16.2","","69","","0.0","","25","","15","","","","101.77","","","","-19","","NA"
"-73.74","45.47","MONTREAL/PIERRE ELLIOTT TRUDEAU INTL","702S006","2017-02-04 08:00","2017","02","04","08:00","-11.0","","-15.7","","68","","0.0","","26","","14","","","","101.79","","","","-18","","NA"
"-73.74","45.47","MONTREAL/PIERRE ELLIOTT TRUDEAU INTL","702S006","2017-02-04 09:00","2017","02","04","09:00","-9.9","","-15.0","","66","","0.0","","26","","18","","","","101.83","","","","-17","","NA"
"-73.74","45.47","MONTREAL/PIERRE ELLIOTT TRUDEAU INTL","702S006","2017-02-04 10:00","2017","02","04","10:00","-8.8","","-14.3","","64","","0.0","","25","","19","","","","101.86","","","","-16","","NA"
"-73.74","45.47","MONTREAL/PIERRE ELLIOTT TRUDEAU INTL","702S006","2017-02-04 11:00","2017","02","04","11:00","-7.1","","-12.6","","65","","0.0","","25","","18","","","","101.80","","","","-14","","NA"
"-73.74","45.47","MONTREAL/PIERRE ELLIOTT TRUDEAU INTL","702S006","2017-02-04 12:00","2017","02","04","12:00","-5.9","","-10.7","","69","","0.0","","25","","22","","","","101.67","","","","-13","","NA"
"-73.74","45.47","MONTREAL/PIERRE ELLIOTT TRUDEAU INTL","702S006","2017-02-04 13:00","2017","02","04","13:00","-4.8","","-8.3","","77","","0.0","","23","","18","","","","101.56","","","","-11","","NA"
"-73.74","45.47","MONTREAL/PIERRE ELLIOTT TRUDEAU INTL","702S006","2017-02-04 14:00","2017","02","04","14:00","-4.1","","-8.6","","71","","0.0","","23","","18","","","","101.49","","","","-10","","NA"
"-73.74","45.47","MONTREAL/PIERRE ELLIOTT TRUDEAU INTL","702S006","2017-02-04 15:00","2017","02","04","15:00","-3.8","","-9.0","","68","","0.0","","27","","22","","","","101.53","","","","-10","","NA"
"-73.74","45.47","MONTREAL/PIERRE ELLIOTT TRUDEAU INTL","702S006","2017-02-04 16:00","2017","02","04","16:00","-3.3","","-10.0","","60","","0.0","","25","","22","","","","101.50","","","","-10","","NA"
"-73.74","45.47","MONTREAL/PIERRE ELLIOTT TRUDEAU INTL","702S006","2017-02-04 17:00","2017","02","04","17:00","-3.2","","-10.2","","58","","0.0","","24","","15","","","","101.50","","","","-8","","NA"
"-73.74","45.47","MONTREAL/PIERRE ELLIOTT TRUDEAU INTL","702S006","2017-02-04 18:00","2017","02","04","18:00","-3.3","","-10.8","","56","","0.0","","24","","17","","","","101.52","","","","-9","","NA"
"-73.74","45.47","MONTREAL/PIERRE ELLIOTT TRUDEAU INTL","702S006","2017-02-04 19:00","2017","02","04","19:00","-3.4","","-10.6","","57","","0.0","","24","","18","","","","101.53","","","","-9","","NA"
"-73.74","45.47","MONTREAL/PIERRE ELLIOTT TRUDEAU INTL","702S006","2017-02-04 20:00","2017","02","04","20:00","-3.3","","-9.1","","64","","0.0","","23","","16","","","","101.52","","","","-9","","NA"
"-73.74","45.47","MONTREAL/PIERRE ELLIOTT TRUDEAU INTL","702S006","2017-02-04 21:00","2017","02","04","21:00","-3.5","","-10.0","","61","","0.0","","24","","27","","","","101.51","","","","-11","","NA"
"-73.74","45.47","MONTREAL/PIERRE ELLIOTT TRUDEAU INTL","702S006","2017-02-04 22:00","2017","02","04","22:00","-3.8","","-9.9","","62","","0.0","","24","","22","","","","101.46","","","","-10","","NA"
"-73.74","45.47","MONTREAL/PIERRE ELLIOTT TRUDEAU INTL","702S006","2017-02-04 23:00","2017","02","04","23:00","-4.0","","-10.3","","61","","0.0","","24","","17","","","","101.41","","","","-10","","NA"
"-73.74","45.47","MONTREAL/PIERRE ELLIOTT TRUDEAU INTL","702S006","2017-02-05 00:00","2017","02","05","00:00","-4.0","","-10.2","","62","","0.0","","24","","21","","","","101.38","","","","-10","","NA"
"-73.74","45.47","MONTREAL/PIERRE ELLIOTT TRUDEAU INTL","702S006","2017-02-05 01:00","2017","02","05","01:00","-4.4","","-9.8","","66","","0.0","","25","","20","","","","101.31","","","","-11","","NA"
"-73.74","45.47","MONTREAL/PIERRE ELLIOTT TRUDEAU INTL","702S006","2017-02-05 02:00","2017","02","05","02:00","-4.5","","-9.5","","68","","0.0","","22","","11","","","","101.24","","","","-9","","NA"
"-73.74","45.47","MONTREAL/PIERRE ELLIOTT TRUDEAU INTL","702S006","2017-02-05 03:00","2017","02","05","03:00","-4.4","","-9.2","","69","","0.0","","21","","18","","","","101.15","","","","-10","","NA"
"-73.74","45.47","MONTREAL/PIERRE ELLIOTT TRUDEAU INTL","702S006","2017-02-05 04:00","2017","02","05","04:00","-4.7","","-8.9","","73","","0.0","","19","","12","","","","101.07","","","","-9","","NA"
"-73.74","45.47","MONTREAL/PIERRE ELLIOTT TRUDEAU INTL","702S006","2017-02-05 05:00","2017","02","05","05:00","-5.0","","-8.8","","75","","0.0","","16","","15","","","","100.95","","","","-11","","NA"
"-73.74","45.47","MONTREAL/PIERRE ELLIOTT TRUDEAU INTL","702S006","2017-02-05 06:00","2017","02","05","06:00","-5.3","","-8.5","","78","","0.0","","15","","13","","","","100.86","","","","-10","","NA"
"-73.74","45.47","MONTREAL/PIERRE ELLIOTT TRUDEAU INTL","702S006","2017-02-05 07:00","2017","02","05","07:00","-4.6","","-8.4","","75","","0.0","","16","","17","","","","100.74","","","","-10","","NA"
"-73.74","45.47","MONTREAL/PIERRE ELLIOTT TRUDEAU INTL","702S006","2017-02-05 08:00","2017","02","05","08:00","-3.9","","-9.4","","66","","0.0","","17","","17","","","","100.64","","","","-10","","NA"
"-73.74","45.47","MONTREAL/PIERRE ELLIOTT TRUDEAU INTL","702S006","2017-02-05 09:00","2017","02","05","09:00","-2.9","","-10.0","","58","","0.0","","17","","17","","","","100.53","","","","-8","","NA"
"-73.74","45.47","MONTREAL/PIERRE ELLIOTT TRUDEAU INTL","702S006","2017-02-05 10:00","2017","02","05","10:00","-1.9","","-10.8","","51","","0.0","","18","","18","","","","100.42","","","","-7","","NA"
"-73.74","45.47","MONTREAL/PIERRE ELLIOTT TRUDEAU INTL","702S006","2017-02-05 11:00","2017","02","05","11:00","-1.1","","-11.7","","44","","0.0","","19","","20","","","","100.27","","","","-7","","NA"
"-73.74","45.47","MONTREAL/PIERRE ELLIOTT TRUDEAU INTL","702S006","2017-02-05 12:00","2017","02","05","12:00","-1.0","","-8.9","","55","","0.0","","23","","23","","","","100.14","","","","-7","","NA"
"-73.74","45.47","MONTREAL/PIERRE ELLIOTT TRUDEAU INTL","702S006","2017-02-05 13:00","2017","02","05","13:00","-0.2","","-8.6","","53","","0.0","","23","","21","","","","100.02","","","","-6","","NA"
"-73.74","45.47","MONTREAL/PIERRE ELLIOTT TRUDEAU INTL","702S006","2017-02-05 14:00","2017","02","05","14:00","-0.1","","-7.4","","58","","0.0","","23","","28","","","","99.92","","","","-6","","NA"
"-73.74","45.47","MONTREAL/PIERRE ELLIOTT TRUDEAU INTL","702S006","2017-02-05 15:00","2017","02","05","15:00","-0.7","","-4.7","","74","","0.0","","23","","26","","","","99.91","","","","-7","","NA"
"-73.74","45.47","MONTREAL/PIERRE ELLIOTT TRUDEAU INTL","702S006","2017-02-05 16:00","2017","02","05","16:00","-0.9","","-2.5","","89","","0.0","","23","","21","","","","99.88","","","","-7","","NA"
"-73.74","45.47","MONTREAL/PIERRE ELLIOTT TRUDEAU INTL","702S006","2017-02-05 17:00","2017","02","05","17:00","-0.6","","-2.0","","91","","0.0","","23","","19","","","","99.88","","","","-6","","NA"
"-73.74","45.47","MONTREAL/PIERRE ELLIOTT TRUDEAU INTL","702S006","2017-02-05 18:00","2017","02","05","18:00","-0.3","","-2.2","","87","","0.0","","23","","23","","","","99.92","","","","-6","","NA"
"-73.74","45.47","MONTREAL/PIERRE ELLIOTT TRUDEAU INTL","702S006","2017-02-05 19:00","2017","02","05","19:00","-0.2","","-2.5","","85","","0.0","","24","","23","","","","99.91","","","","-6","","NA"
"-73.74","45.47","MONTREAL/PIERRE ELLIOTT TRUDEAU INTL","702S006","2017-02-05 20:00","2017","02","05","20:00","-0.2","","-2.8","","83","","0.0","","25","","26","","","","99.94","","","","-6","","NA"
"-73.74","45.47","MONTREAL/PIERRE ELLIOTT TRUDEAU INTL","702S006","2017-02-05 21:00","2017","02","05","21:00","-1.4","","-1.8","","97","","0.0","","27","","26","","","","99.99","","","","-8","","NA"
"-73.74","45.47","MONTREAL/PIERRE ELLIOTT TRUDEAU INTL","702S006","2017-02-05 22:00","2017","02","05","22:00","-1.8","","-4.9","","79","","0.0","","28","","30","","","","100.14","","","","-9","","NA"
"-73.74","45.47","MONTREAL/PIERRE ELLIOTT TRUDEAU INTL","702S006","2017-02-05 23:00","2017","02","05","23:00","-3.0","","-7.5","","71","","0.0","","30","","33","","","","100.33","","","","-11","","NA"
"-73.74","45.47","MONTREAL/PIERRE ELLIOTT TRUDEAU INTL","702S006","2017-02-06 00:00","2017","02","06","00:00","-6.3","","-10.8","","70","","0.2","","29","","31","","","","100.58","","","","-15","","NA"
"-73.74","45.47","MONTREAL/PIERRE ELLIOTT TRUDEAU INTL","702S006","2017-02-06 01:00","2017","02","06","01:00","-7.7","","-14.4","","59","","0.0","","30","","30","","","","100.81","","","","-17","","NA"
"-73.74","45.47","MONTREAL/PIERRE ELLIOTT TRUDEAU INTL","702S006","2017-02-06 02:00","2017","02","06","02:00","-9.1","","-14.3","","66","","0.2","","28","","23","","","","101.02","","","","-17","","NA"
"-73.74","45.47","MONTREAL/PIERRE ELLIOTT TRUDEAU INTL","702S006","2017-02-06 03:00","2017","02","06","03:00","-10.4","","-15.6","","65","","0.0","","29","","21","","","","101.16","","","","-19","","NA"
"-73.74","45.47","MONTREAL/PIERRE ELLIOTT TRUDEAU INTL","702S006","2017-02-06 04:00","2017","02","06","04:00","-12.1","","-18.5","","59","","0.0","","30","","30","","","","101.26","","","","-22","","NA"
"-73.74","45.47","MONTREAL/PIERRE ELLIOTT TRUDEAU INTL","702S006","2017-02-06 05:00","2017","02","06","05:00","-12.4","","-18.3","","61","","0.0","","31","","27","","","","101.38","","","","-22","","NA"
"-73.74","45.47","MONTREAL/PIERRE ELLIOTT TRUDEAU INTL","702S006","2017-02-06 06:00","2017","02","06","06:00","-13.0","","-18.7","","62","","0.0","","30","","21","","","","101.48","","","","-22","","NA"
"-73.74","45.47","MONTREAL/PIERRE ELLIOTT TRUDEAU INTL","702S006","2017-02-06 07:00","2017","02","06","07:00","-13.4","","-18.7","","64","","0.2","","30","","17","","","","101.59","","","","-21","","NA"
"-73.74","45.47","MONTREAL/PIERRE ELLIOTT TRUDEAU INTL","702S006","2017-02-06 08:00","2017","02","06","08:00","-13.6","","-19.1","","63","","0.0","","28","","10","","","","101.60","","","","-20","","NA"
"-73.74","45.47","MONTREAL/PIERRE ELLIOTT TRUDEAU INTL","702S006","2017-02-06 09:00","2017","02","06","09:00","-12.8","","-19.4","","58","","0.0","","28","","13","","","","101.68","","","","-20","","NA"
"-73.74","45.47","MONTREAL/PIERRE ELLIOTT TRUDEAU INTL","702S006","2017-02-06 10:00","2017","02","06","10:00","-12.5","","-19.3","","57","","0.0","","28","","16","","","","101.65","","","","-20","","NA"
"-73.74","45.47","MONTREAL/PIERRE ELLIOTT TRUDEAU INTL","702S006","2017-02-06 11:00","2017","02","06","11:00","-12.1","","-19.4","","55","","0.0","","29","","12","","","","101.67","","","","-18","","NA"
"-73.74","45.47","MONTREAL/PIERRE ELLIOTT TRUDEAU INTL","702S006","2017-02-06 12:00","2017","02","06","12:00","-11.1","","-18.6","","54","","0.0","","28","","16","","","","101.66","","","","-18","","NA"
"-73.74","45.47","MONTREAL/PIERRE ELLIOTT TRUDEAU INTL","702S006","2017-02-06 13:00","2017","02","06","13:00","-10.7","","-17.9","","55","","0.0","","29","","12","","","","101.60","","","","-17","","NA"
"-73.74","45.47","MONTREAL/PIERRE ELLIOTT TRUDEAU INTL","702S006","2017-02-06 14:00","2017","02","06","14:00","-10.0","","-17.5","","54","","0.0","","25","","14","","","","101.55","","","","-16","","NA"
"-73.74","45.47","MONTREAL/PIERRE ELLIOTT TRUDEAU INTL","702S006","2017-02-06 15:00","2017","02","06","15:00","-10.2","","-16.0","","63","","0.0","","22","","12","","","","101.56","","","","-16","","NA"
"-73.74","45.47","MONTREAL/PIERRE ELLIOTT TRUDEAU INTL","702S006","2017-02-06 16:00","2017","02","06","16:00","-10.3","","-13.5","","77","","0.0","","24","","12","","","","101.61","","","","-16","","NA"
"-73.74","45.47","MONTREAL/PIERRE ELLIOTT TRUDEAU INTL","702S006","2017-02-06 17:00","2017","02","06","17:00","-10.4","","-13.5","","78","","0.0","","23","","10","","","","101.56","","","","-16","","NA"
"-73.74","45.47","MONTREAL/PIERRE ELLIOTT TRUDEAU INTL","702S006","2017-02-06 18:00","2017","02","06","18:00","-10.2","","-12.3","","85","","0.0","","27","","8","","","","101.59","","","","-15","","NA"
"-73.74","45.47","MONTREAL/PIERRE ELLIOTT TRUDEAU INTL","702S006","2017-02-06 19:00","2017","02","06","19:00","-10.0","","-12.2","","84","","0.0","","27","","5","","","","101.58","","","","-13","","NA"
"-73.74","45.47","MONTREAL/PIERRE ELLIOTT TRUDEAU INTL","702S006","2017-02-06 20:00","2017","02","06","20:00","-9.6","","-11.4","","87","","0.5","","13","","5","","","","101.58","","","","-12","","NA"
"-73.74","45.47","MONTREAL/PIERRE ELLIOTT TRUDEAU INTL","702S006","2017-02-06 21:00","2017","02","06","21:00","-9.5","","-11.4","","86","","0.0","","11","","6","","","","101.55","","","","-13","","NA"
"-73.74","45.47","MONTREAL/PIERRE ELLIOTT TRUDEAU INTL","702S006","2017-02-06 22:00","2017","02","06","22:00","-9.7","","-11.4","","87","","0.2","","14","","12","","","","101.53","","","","-16","","NA"
"-73.74","45.47","MONTREAL/PIERRE ELLIOTT TRUDEAU INTL","702S006","2017-02-06 23:00","2017","02","06","23:00","-9.8","","-11.8","","86","","0.0","","10","","9","","","","101.53","","","","-15","","NA"
"-73.74","45.47","MONTREAL/PIERRE ELLIOTT TRUDEAU INTL","702S006","2017-02-07 00:00","2017","02","07","00:00","-9.3","","-11.5","","84","","0.0","","9","","9","","","","101.56","","","","-14","","NA"
"-73.74","45.47","MONTREAL/PIERRE ELLIOTT TRUDEAU INTL","702S006","2017-02-07 01:00","2017","02","07","01:00","-9.6","","-11.5","","86","","0.0","","8","","7","","","","101.59","","","","-14","","NA"
"-73.74","45.47","MONTREAL/PIERRE ELLIOTT TRUDEAU INTL","702S006","2017-02-07 02:00","2017","02","07","02:00","-9.7","","-11.2","","89","","0.0","","4","","13","","","","101.64","","","","-16","","NA"
"-73.74","45.47","MONTREAL/PIERRE ELLIOTT TRUDEAU INTL","702S006","2017-02-07 03:00","2017","02","07","03:00","-9.8","","-11.5","","87","","0.0","","5","","8","","","","101.62","","","","-14","","NA"
"-73.74","45.47","MONTREAL/PIERRE ELLIOTT TRUDEAU INTL","702S006","2017-02-07 04:00","2017","02","07","04:00","-9.7","","-12.1","","83","","0.0","","5","","11","","","","101.65","","","","-15","","NA"
"-73.74","45.47","MONTREAL/PIERRE ELLIOTT TRUDEAU INTL","702S006","2017-02-07 05:00","2017","02","07","05:00","-9.7","","-12.8","","78","","0.0","","5","","13","","","","101.64","","","","-16","","NA"
"-73.74","45.47","MONTREAL/PIERRE ELLIOTT TRUDEAU INTL","702S006","2017-02-07 06:00","2017","02","07","06:00","-10.0","","-13.9","","73","","0.0","","5","","16","","","","101.63","","","","-17","","NA"
"-73.74","45.47","MONTREAL/PIERRE ELLIOTT TRUDEAU INTL","702S006","2017-02-07 07:00","2017","02","07","07:00","-10.3","","-14.4","","72","","0.0","","5","","19","","","","101.65","","","","-18","","NA"
"-73.74","45.47","MONTREAL/PIERRE ELLIOTT TRUDEAU INTL","702S006","2017-02-07 08:00","2017","02","07","08:00","-10.4","","-14.7","","70","","0.0","","5","","20","","","","101.70","","","","-18","","NA"
"-73.74","45.47","MONTREAL/PIERRE ELLIOTT TRUDEAU INTL","702S006","2017-02-07 09:00","2017","02","07","09:00","-11.6","","-15.0","","76","","0.0","","4","","20","","","","101.66","","","","-20","","NA"
"-73.74","45.47","MONTREAL/PIERRE ELLIOTT TRUDEAU INTL","702S006","2017-02-07 10:00","2017","02","07","10:00","-11.6","","-15.5","","73","","0.0","","4","","21","","","","101.63","","","","-20","","NA"
"-73.74","45.47","MONTREAL/PIERRE ELLIOTT TRUDEAU INTL","702S006","2017-02-07 11:00","2017","02","07","11:00","-11.3","","-16.0","","68","","0.0","","4","","25","","","","101.53","","","","-20","","NA"
"-73.74","45.47","MONTREAL/PIERRE ELLIOTT TRUDEAU INTL","702S006","2017-02-07 12:00","2017","02","07","12:00","-10.9","","-15.9","","66","","0.0","","4","","25","","","","101.36","","","","-20","","NA"
"-73.74","45.47","MONTREAL/PIERRE ELLIOTT TRUDEAU INTL","702S006","2017-02-07 13:00","2017","02","07","13:00","-10.5","","-15.3","","68","","0.0","","4","","27","","","","101.18","","","","-20","","NA"
"-73.74","45.47","MONTREAL/PIERRE ELLIOTT TRUDEAU INTL","702S006","2017-02-07 14:00","2017","02","07","14:00","-10.6","","-14.7","","72","","0.0","","4","","24","","","","101.05","","","","-19","","NA"
"-73.74","45.47","MONTREAL/PIERRE ELLIOTT TRUDEAU INTL","702S006","2017-02-07 15:00","2017","02","07","15:00","-10.1","","-13.9","","73","","0.0","","4","","29","","","","100.92","","","","-20","","NA"
"-73.74","45.47","MONTREAL/PIERRE ELLIOTT TRUDEAU INTL","702S006","2017-02-07 16:00","2017","02","07","16:00","-9.7","","-13.0","","77","","0.0","","4","","32","","","","100.79","","","","-19","","NA"
"-73.74","45.47","MONTREAL/PIERRE ELLIOTT TRUDEAU INTL","702S006","2017-02-07 17:00","2017","02","07","17:00","-9.8","","-12.9","","78","","0.0","","4","","30","","","","100.63","","","","-19","","NA"
"-73.74","45.47","MONTREAL/PIERRE ELLIOTT TRUDEAU INTL","702S006","2017-02-07 18:00","2017","02","07","18:00","-9.9","","-12.0","","85","","0.0","","5","","29","","","","100.45","","","","-19","","NA"
"-73.74","45.47","MONTREAL/PIERRE ELLIOTT TRUDEAU INTL","702S006","2017-02-07 19:00","2017","02","07","19:00","-9.6","","-11.7","","84","","0.0","","4","","26","","","","100.25","","","","-18","","NA"
"-73.74","45.47","MONTREAL/PIERRE ELLIOTT TRUDEAU INTL","702S006","2017-02-07 20:00","2017","02","07","20:00","-9.1","","-10.9","","87","","1.1","","4","","26","","","","100.03","","","","-18","","NA"
"-73.74","45.47","MONTREAL/PIERRE ELLIOTT TRUDEAU INTL","702S006","2017-02-07 21:00","2017","02","07","21:00","-8.3","","-9.9","","88","","4.1","","4","","26","","","","99.74","","","","-17","","NA"
"-73.74","45.47","MONTREAL/PIERRE ELLIOTT TRUDEAU INTL","702S006","2017-02-07 22:00","2017","02","07","22:00","-7.2","","-8.1","","93","","4.9","","4","","21","","","","99.56","","","","-15","","NA"
"-73.74","45.47","MONTREAL/PIERRE ELLIOTT TRUDEAU INTL","702S006","2017-02-07 23:00","2017","02","07","23:00","-3.0","","-3.5","","96","","3.7","","6","","14","","","","99.28","","","","-8","","NA"
"-73.74","45.47","MONTREAL/PIERRE ELLIOTT TRUDEAU INTL","702S006","2017-02-08 00:00","2017","02","08","00:00","-0.1","","-1.1","","93","","0.3","","11","","18","","","","98.99","","","","-5","","NA"
"-73.74","45.47","MONTREAL/PIERRE ELLIOTT TRUDEAU INTL","702S006","2017-02-08 01:00","2017","02","08","01:00","1.3","","-0.1","","91","","2.9","","13","","26","","","","98.79","","","","","","NA"
"-73.74","45.47","MONTREAL/PIERRE ELLIOTT TRUDEAU INTL","702S006","2017-02-08 02:00","2017","02","08","02:00","1.8","","0.4","","90","","7.1","","14","","32","","","","98.60","","","","","","NA"
"-73.74","45.47","MONTREAL/PIERRE ELLIOTT TRUDEAU INTL","702S006","2017-02-08 03:00","2017","02","08","03:00","1.8","","0.8","","93","","3.3","","15","","30","","","","98.47","","","","","","NA"
"-73.74","45.47","MONTREAL/PIERRE ELLIOTT TRUDEAU INTL","702S006","2017-02-08 04:00","2017","02","08","04:00","2.2","","1.2","","93","","1.1","","16","","23","","","","98.45","","","","","","NA"
"-73.74","45.47","MONTREAL/PIERRE ELLIOTT TRUDEAU INTL","702S006","2017-02-08 05:00","2017","02","08","05:00","0.5","","-0.4","","94","","0.0","","29","","10","","","","98.62","","","","","","NA"
"-73.74","45.47","MONTREAL/PIERRE ELLIOTT TRUDEAU INTL","702S006","2017-02-08 06:00","2017","02","08","06:00","-1.6","","-2.2","","96","","0.0","","","","0","","","","98.79","","","","","","NA"
"-73.74","45.47","MONTREAL/PIERRE ELLIOTT TRUDEAU INTL","702S006","2017-02-08 07:00","2017","02","08","07:00","2.9","","0.1","","82","","0.0","","28","","30","","","","98.92","","","","","","NA"
"-73.74","45.47","MONTREAL/PIERRE ELLIOTT TRUDEAU INTL","702S006","2017-02-08 08:00","2017","02","08","08:00","2.7","","0.4","","85","","0.0","","27","","26","","","","99.11","","","","","","NA"
"-73.74","45.47","MONTREAL/PIERRE ELLIOTT TRUDEAU INTL","702S006","2017-02-08 09:00","2017","02","08","09:00","1.5","","-0.3","","88","","0.0","","28","","42","","","","99.35","","","","","","NA"
"-73.74","45.47","MONTREAL/PIERRE ELLIOTT TRUDEAU INTL","702S006","2017-02-08 10:00","2017","02","08","10:00","0.9","","-4.3","","68","","0.0","","28","","37","","","","99.58","","","","","","NA"
"-73.74","45.47","MONTREAL/PIERRE ELLIOTT TRUDEAU INTL","702S006","2017-02-08 11:00","2017","02","08","11:00","-0.5","","-6.7","","63","","0.0","","27","","40","","","","99.83","","","","-8","","NA"
"-73.74","45.47","MONTREAL/PIERRE ELLIOTT TRUDEAU INTL","702S006","2017-02-08 12:00","2017","02","08","12:00","-1.1","","-7.6","","61","","0.0","","27","","31","","","","99.97","","","","-8","","NA"
"-73.74","45.47","MONTREAL/PIERRE ELLIOTT TRUDEAU INTL","702S006","2017-02-08 13:00","2017","02","08","13:00","-1.4","","-7.9","","61","","0.0","","27","","31","","","","100.10","","","","-8","","NA"
"-73.74","45.47","MONTREAL/PIERRE ELLIOTT TRUDEAU INTL","702S006","2017-02-08 14:00","2017","02","08","14:00","-1.4","","-9.1","","56","","0.0","","29","","26","","","","100.13","","","","-8","","NA"
"-73.74","45.47","MONTREAL/PIERRE ELLIOTT TRUDEAU INTL","702S006","2017-02-08 15:00","2017","02","08","15:00","-1.3","","-8.2","","60","","0.0","","30","","29","","","","100.19","","","","-8","","NA"
"-73.74","45.47","MONTREAL/PIERRE ELLIOTT TRUDEAU INTL","702S006","2017-02-08 16:00","2017","02","08","16:00","-2.0","","-8.7","","60","","0.0","","29","","31","","","","100.25","","","","-9","","NA"
"-73.74","45.47","MONTREAL/PIERRE ELLIOTT TRUDEAU INTL","702S006","2017-02-08 17:00","2017","02","08","17:00","-2.8","","-9.0","","62","","0.0","","30","","27","","","","100.29","","","","-10","","NA"
"-73.74","45.47","MONTREAL/PIERRE ELLIOTT TRUDEAU INTL","702S006","2017-02-08 18:00","2017","02","08","18:00","-3.8","","-9.7","","63","","0.0","","29","","15","","","","100.42","","","","-9","","NA"
"-73.74","45.47","MONTREAL/PIERRE ELLIOTT TRUDEAU INTL","702S006","2017-02-08 19:00","2017","02","08","19:00","-3.9","","-9.9","","63","","0.0","","30","","16","","","","100.52","","","","-9","","NA"
"-73.74","45.47","MONTREAL/PIERRE ELLIOTT TRUDEAU INTL","702S006","2017-02-08 20:00","2017","02","08","20:00","-4.7","","-10.4","","64","","0.0","","31","","20","","","","100.66","","","","-11","","NA"
"-73.74","45.47","MONTREAL/PIERRE ELLIOTT TRUDEAU INTL","702S006","2017-02-08 21:00","2017","02","08","21:00","-5.5","","-11.8","","61","","0.0","","30","","18","","","","100.71","","","","-12","","NA"
"-73.74","45.47","MONTREAL/PIERRE ELLIOTT TRUDEAU INTL","702S006","2017-02-08 22:00","2017","02","08","22:00","-6.3","","-13.6","","56","","0.0","","32","","19","","","","100.82","","","","-13","","NA"
"-73.74","45.47","MONTREAL/PIERRE ELLIOTT TRUDEAU INTL","702S006","2017-02-08 23:00","2017","02","08","23:00","-7.6","","-14.1","","59","","0.0","","33","","17","","","","100.83","","","","-14","","NA"
"-73.74","45.47","MONTREAL/PIERRE ELLIOTT TRUDEAU INTL","702S006","2017-02-09 00:00","2017","02","09","00:00","-8.6","","-15.3","","59","","0.0","","33","","16","","","","100.88","","","","-15","","NA"
"-73.74","45.47","MONTREAL/PIERRE ELLIOTT TRUDEAU INTL","702S006","2017-02-09 01:00","2017","02","09","01:00","-9.5","","-15.6","","61","","0.0","","34","","20","","","","100.83","","","","-17","","NA"
"-73.74","45.47","MONTREAL/PIERRE ELLIOTT TRUDEAU INTL","702S006","2017-02-09 02:00","2017","02","09","02:00","-10.9","","-16.7","","62","","0.0","","1","","18","","","","100.94","","","","-19","","NA"
"-73.74","45.47","MONTREAL/PIERRE ELLIOTT TRUDEAU INTL","702S006","2017-02-09 03:00","2017","02","09","03:00","-12.1","","-18.0","","61","","0.0","","2","","21","","","","100.86","","","","-21","","NA"
"-73.74","45.47","MONTREAL/PIERRE ELLIOTT TRUDEAU INTL","702S006","2017-02-09 04:00","2017","02","09","04:00","-13.2","","-20.1","","56","","0.0","","2","","28","","","","100.84","","","","-23","","NA"
"-73.74","45.47","MONTREAL/PIERRE ELLIOTT TRUDEAU INTL","702S006","2017-02-09 05:00","2017","02","09","05:00","-13.9","","-20.1","","60","","0.0","","2","","19","","","","100.95","","","","-23","","NA"
"-73.74","45.47","MONTREAL/PIERRE ELLIOTT TRUDEAU INTL","702S006","2017-02-09 06:00","2017","02","09","06:00","-14.2","","-19.9","","62","","0.0","","2","","16","","","","101.02","","","","-22","","NA"
"-73.74","45.47","MONTREAL/PIERRE ELLIOTT TRUDEAU INTL","702S006","2017-02-09 07:00","2017","02","09","07:00","-14.8","","-20.6","","61","","0.0","","1","","21","","","","100.98","","","","-24","","NA"
"-73.74","45.47","MONTREAL/PIERRE ELLIOTT TRUDEAU INTL","702S006","2017-02-09 08:00","2017","02","09","08:00","-15.2","","-21.5","","59","","0.0","","2","","21","","","","100.99","","","","-25","","NA"
"-73.74","45.47","MONTREAL/PIERRE ELLIOTT TRUDEAU INTL","702S006","2017-02-09 09:00","2017","02","09","09:00","-14.9","","-21.2","","59","","0.0","","2","","15","","","","101.04","","","","-23","","NA"
"-73.74","45.47","MONTREAL/PIERRE ELLIOTT TRUDEAU INTL","702S006","2017-02-09 10:00","2017","02","09","10:00","-14.9","","-22.4","","53","","0.0","","2","","14","","","","101.02","","","","-22","","NA"
"-73.74","45.47","MONTREAL/PIERRE ELLIOTT TRUDEAU INTL","702S006","2017-02-09 11:00","2017","02","09","11:00","-14.7","","-22.1","","53","","0.0","","1","","14","","","","100.97","","","","-22","","NA"
"-73.74","45.47","MONTREAL/PIERRE ELLIOTT TRUDEAU INTL","702S006","2017-02-09 12:00","2017","02","09","12:00","-14.4","","-22.1","","52","","0.0","","36","","11","","","","100.94","","","","-21","","NA"
"-73.74","45.47","MONTREAL/PIERRE ELLIOTT TRUDEAU INTL","702S006","2017-02-09 13:00","2017","02","09","13:00","-13.9","","-21.2","","54","","0.0","","35","","14","","","","100.85","","","","-21","","NA"
"-73.74","45.47","MONTREAL/PIERRE ELLIOTT TRUDEAU INTL","702S006","2017-02-09 14:00","2017","02","09","14:00","-12.6","","-20.8","","50","","0.0","","32","","10","","","","100.80","","","","-18","","NA"
"-73.74","45.47","MONTREAL/PIERRE ELLIOTT TRUDEAU INTL","702S006","2017-02-09 15:00","2017","02","09","15:00","-11.6","","-19.7","","51","","0.0","","28","","11","","","","100.76","","","","-18","","NA"
"-73.74","45.47","MONTREAL/PIERRE ELLIOTT TRUDEAU INTL","702S006","2017-02-09 16:00","2017","02","09","16:00","-11.3","","-20.0","","49","","0.0","","27","","10","","","","100.78","","","","-17","","NA"
"-73.74","45.47","MONTREAL/PIERRE ELLIOTT TRUDEAU INTL","702S006","2017-02-09 17:00","2017","02","09","17:00","-11.3","","-18.6","","55","","0.0","","28","","14","","","","100.81","","","","-18","","NA"
"-73.74","45.47","MONTREAL/PIERRE ELLIOTT TRUDEAU INTL","702S006","2017-02-09 18:00","2017","02","09","18:00","-11.2","","-19.1","","52","","0.0","","29","","17","","","","100.83","","","","-19","","NA"
"-73.74","45.47","MONTREAL/PIERRE ELLIOTT TRUDEAU INTL","702S006","2017-02-09 19:00","2017","02","09","19:00","-11.7","","-20.0","","50","","0.0","","30","","20","","","","100.87","","","","-20","","NA"
"-73.74","45.47","MONTREAL/PIERRE ELLIOTT TRUDEAU INTL","702S006","2017-02-09 20:00","2017","02","09","20:00","-12.6","","-20.7","","51","","0.0","","30","","23","","","","100.92","","","","-22","","NA"
"-73.74","45.47","MONTREAL/PIERRE ELLIOTT TRUDEAU INTL","702S006","2017-02-09 21:00","2017","02","09","21:00","-12.9","","-21.0","","51","","0.0","","30","","18","","","","100.96","","","","-21","","NA"
"-73.74","45.47","MONTREAL/PIERRE ELLIOTT TRUDEAU INTL","702S006","2017-02-09 22:00","2017","02","09","22:00","-13.6","","-20.4","","57","","0.0","","29","","13","","","","100.95","","","","-21","","NA"
"-73.74","45.47","MONTREAL/PIERRE ELLIOTT TRUDEAU INTL","702S006","2017-02-09 23:00","2017","02","09","23:00","-14.1","","-20.3","","59","","0.0","","29","","10","","","","100.94","","","","-20","","NA"
"-73.74","45.47","MONTREAL/PIERRE ELLIOTT TRUDEAU INTL","702S006","2017-02-10 00:00","2017","02","10","00:00","-13.9","","-19.9","","61","","0.0","","27","","11","","","","100.95","","","","-20","","NA"
"-73.74","45.47","MONTREAL/PIERRE ELLIOTT TRUDEAU INTL","702S006","2017-02-10 01:00","2017","02","10","01:00","-13.6","","-19.8","","60","","0.0","","26","","10","","","","100.92","","","","-20","","NA"
"-73.74","45.47","MONTREAL/PIERRE ELLIOTT TRUDEAU INTL","702S006","2017-02-10 02:00","2017","02","10","02:00","-13.8","","-19.2","","64","","0.0","","27","","20","","","","100.92","","","","-23","","NA"
"-73.74","45.47","MONTREAL/PIERRE ELLIOTT TRUDEAU INTL","702S006","2017-02-10 03:00","2017","02","10","03:00","-14.0","","-19.3","","65","","0.0","","28","","21","","","","101.04","","","","-23","","NA"
"-73.74","45.47","MONTREAL/PIERRE ELLIOTT TRUDEAU INTL","702S006","2017-02-10 04:00","2017","02","10","04:00","-14.5","","-19.4","","66","","0.0","","28","","26","","","","101.15","","","","-25","","NA"
"-73.74","45.47","MONTREAL/PIERRE ELLIOTT TRUDEAU INTL","702S006","2017-02-10 05:00","2017","02","10","05:00","-14.6","","-21.4","","56","","0.0","","28","","27","","","","101.25","","","","-25","","NA"
"-73.74","45.47","MONTREAL/PIERRE ELLIOTT TRUDEAU INTL","702S006","2017-02-10 06:00","2017","02","10","06:00","-15.2","","-20.9","","61","","0.0","","28","","29","","","","101.38","","","","-26","","NA"
"-73.74","45.47","MONTREAL/PIERRE ELLIOTT TRUDEAU INTL","702S006","2017-02-10 07:00","2017","02","10","07:00","-15.9","","-21.7","","61","","0.0","","29","","32","","","","101.52","","","","-28","","NA"
"-73.74","45.47","MONTREAL/PIERRE ELLIOTT TRUDEAU INTL","702S006","2017-02-10 08:00","2017","02","10","08:00","-16.1","","-22.2","","60","","0.0","","29","","30","","","","101.67","","","","-27","","NA"
"-73.74","45.47","MONTREAL/PIERRE ELLIOTT TRUDEAU INTL","702S006","2017-02-10 09:00","2017","02","10","09:00","-16.0","","-22.1","","59","","0.0","","29","","29","","","","101.72","","","","-27","","NA"
"-73.74","45.47","MONTREAL/PIERRE ELLIOTT TRUDEAU INTL","702S006","2017-02-10 10:00","2017","02","10","10:00","-15.6","","-21.9","","58","","0.0","","29","","29","","","","101.81","","","","-27","","NA"
"-73.74","45.47","MONTREAL/PIERRE ELLIOTT TRUDEAU INTL","702S006","2017-02-10 11:00","2017","02","10","11:00","-14.9","","-22.2","","54","","0.0","","28","","28","","","","101.91","","","","-26","","NA"
"-73.74","45.47","MONTREAL/PIERRE ELLIOTT TRUDEAU INTL","702S006","2017-02-10 12:00","2017","02","10","12:00","-14.8","","-23.3","","48","","0.0","","28","","27","","","","101.90","","","","-25","","NA"
"-73.74","45.47","MONTREAL/PIERRE ELLIOTT TRUDEAU INTL","702S006","2017-02-10 13:00","2017","02","10","13:00","-13.7","","-21.8","","50","","0.0","","28","","20","","","","101.91","","","","-23","","NA"
"-73.74","45.47","MONTREAL/PIERRE ELLIOTT TRUDEAU INTL","702S006","2017-02-10 14:00","2017","02","10","14:00","-13.4","","-22.6","","46","","0.0","","26","","24","","","","101.88","","","","-23","","NA"
"-73.74","45.47","MONTREAL/PIERRE ELLIOTT TRUDEAU INTL","702S006","2017-02-10 15:00","2017","02","10","15:00","-13.4","","-23.6","","42","","0.0","","28","","21","","","","101.91","","","","-22","","NA"
"-73.74","45.47","MONTREAL/PIERRE ELLIOTT TRUDEAU INTL","702S006","2017-02-10 16:00","2017","02","10","16:00","-13.5","","-24.2","","40","","0.0","","26","","14","","","","101.86","","","","-21","","NA"
"-73.74","45.47","MONTREAL/PIERRE ELLIOTT TRUDEAU INTL","702S006","2017-02-10 17:00","2017","02","10","17:00","-13.4","","-24.3","","40","","0.0","","24","","10","","","","101.83","","","","-19","","NA"
"-73.74","45.47","MONTREAL/PIERRE ELLIOTT TRUDEAU INTL","702S006","2017-02-10 18:00","2017","02","10","18:00","-13.5","","-24.3","","40","","0.0","","25","","12","","","","101.77","","","","-20","","NA"
"-73.74","45.47","MONTREAL/PIERRE ELLIOTT TRUDEAU INTL","702S006","2017-02-10 19:00","2017","02","10","19:00","-13.5","","-24.1","","40","","0.0","","27","","7","","","","101.75","","","","-18","","NA"
"-73.74","45.47","MONTREAL/PIERRE ELLIOTT TRUDEAU INTL","702S006","2017-02-10 20:00","2017","02","10","20:00","-13.4","","-23.7","","42","","0.0","","30","","6","","","","101.65","","","","-17","","NA"
"-73.74","45.47","MONTREAL/PIERRE ELLIOTT TRUDEAU INTL","702S006","2017-02-10 21:00","2017","02","10","21:00","-13.1","","-23.6","","41","","0.0","","","","0","","","","101.61","","","","","","NA"
"-73.74","45.47","MONTREAL/PIERRE ELLIOTT TRUDEAU INTL","702S006","2017-02-10 22:00","2017","02","10","22:00","-13.1","","-21.3","","50","","0.0","","14","","13","","","","101.58","","","","-20","","NA"
"-73.74","45.47","MONTREAL/PIERRE ELLIOTT TRUDEAU INTL","702S006","2017-02-10 23:00","2017","02","10","23:00","-13.3","","-20.0","","57","","0.0","","13","","15","","","","101.54","","","","-21","","NA"
"-73.74","45.47","MONTREAL/PIERRE ELLIOTT TRUDEAU INTL","702S006","2017-02-11 00:00","2017","02","11","00:00","-13.2","","-19.5","","59","","0.0","","11","","15","","","","101.48","","","","-21","","NA"
"-73.74","45.47","MONTREAL/PIERRE ELLIOTT TRUDEAU INTL","702S006","2017-02-11 01:00","2017","02","11","01:00","-13.0","","-18.7","","63","","0.0","","10","","15","","","","101.34","","","","-20","","NA"
"-73.74","45.47","MONTREAL/PIERRE ELLIOTT TRUDEAU INTL","702S006","2017-02-11 02:00","2017","02","11","02:00","-13.2","","-16.6","","76","","0.0","","8","","12","","","","101.27","","","","-20","","NA"
"-73.74","45.47","MONTREAL/PIERRE ELLIOTT TRUDEAU INTL","702S006","2017-02-11 03:00","2017","02","11","03:00","-13.1","","-16.3","","76","","0.2","","5","","12","","","","101.18","","","","-20","","NA"
"-73.74","45.47","MONTREAL/PIERRE ELLIOTT TRUDEAU INTL","702S006","2017-02-11 04:00","2017","02","11","04:00","-13.2","","-15.7","","81","","0.0","","5","","13","","","","101.13","","","","-20","","NA"
"-73.74","45.47","MONTREAL/PIERRE ELLIOTT TRUDEAU INTL","702S006","2017-02-11 05:00","2017","02","11","05:00","-13.5","","-16.4","","79","","0.0","","4","","18","","","","101.06","","","","-22","","NA"
"-73.74","45.47","MONTREAL/PIERRE ELLIOTT TRUDEAU INTL","702S006","2017-02-11 06:00","2017","02","11","06:00","-13.5","","-15.6","","84","","0.0","","3","","15","","","","101.02","","","","-21","","NA"
"-73.74","45.47","MONTREAL/PIERRE ELLIOTT TRUDEAU INTL","702S006","2017-02-11 07:00","2017","02","11","07:00","-13.6","","-15.9","","83","","0.0","","3","","16","","","","101.04","","","","-21","","NA"
"-73.74","45.47","MONTREAL/PIERRE ELLIOTT TRUDEAU INTL","702S006","2017-02-11 08:00","2017","02","11","08:00","-13.6","","-16.0","","83","","0.0","","3","","17","","","","101.04","","","","-22","","NA"
"-73.74","45.47","MONTREAL/PIERRE ELLIOTT TRUDEAU INTL","702S006","2017-02-11 09:00","2017","02","11","09:00","-13.2","","-15.2","","85","","0.2","","3","","15","","","","101.07","","","","-21","","NA"
"-73.74","45.47","MONTREAL/PIERRE ELLIOTT TRUDEAU INTL","702S006","2017-02-11 10:00","2017","02","11","10:00","-12.9","","-15.1","","84","","0.0","","2","","22","","","","101.13","","","","-22","","NA"
"-73.74","45.47","MONTREAL/PIERRE ELLIOTT TRUDEAU INTL","702S006","2017-02-11 11:00","2017","02","11","11:00","-12.5","","-15.3","","80","","0.2","","3","","22","","","","101.18","","","","-21","","NA"
"-73.74","45.47","MONTREAL/PIERRE ELLIOTT TRUDEAU INTL","702S006","2017-02-11 12:00","2017","02","11","12:00","-11.8","","-14.7","","79","","0.0","","3","","20","","","","101.19","","","","-20","","NA"
"-73.74","45.47","MONTREAL/PIERRE ELLIOTT TRUDEAU INTL","702S006","2017-02-11 13:00","2017","02","11","13:00","-11.2","","-14.5","","77","","0.0","","3","","20","","","","101.22","","","","-19","","NA"
"-73.74","45.47","MONTREAL/PIERRE ELLIOTT TRUDEAU INTL","702S006","2017-02-11 14:00","2017","02","11","14:00","-10.8","","-13.9","","78","","0.0","","2","","20","","","","101.28","","","","-19","","NA"
"-73.74","45.47","MONTREAL/PIERRE ELLIOTT TRUDEAU INTL","702S006","2017-02-11 15:00","2017","02","11","15:00","-10.5","","-13.5","","79","","0.0","","3","","19","","","","101.36","","","","-18","","NA"
"-73.74","45.47","MONTREAL/PIERRE ELLIOTT TRUDEAU INTL","702S006","2017-02-11 16:00","2017","02","11","16:00","-10.3","","-13.0","","80","","0.0","","2","","16","","","","101.45","","","","-17","","NA"
"-73.74","45.47","MONTREAL/PIERRE ELLIOTT TRUDEAU INTL","702S006","2017-02-11 17:00","2017","02","11","17:00","-10.6","","-13.4","","79","","0.0","","2","","14","","","","101.56","","","","-17","","NA"
"-73.74","45.47","MONTREAL/PIERRE ELLIOTT TRUDEAU INTL","702S006","2017-02-11 18:00","2017","02","11","18:00","-11.2","","-14.2","","78","","0.0","","2","","12","","","","101.66","","","","-17","","NA"
"-73.74","45.47","MONTREAL/PIERRE ELLIOTT TRUDEAU INTL","702S006","2017-02-11 19:00","2017","02","11","19:00","-11.2","","-14.4","","77","","0.0","","3","","14","","","","101.73","","","","-18","","NA"
"-73.74","45.47","MONTREAL/PIERRE ELLIOTT TRUDEAU INTL","702S006","2017-02-11 20:00","2017","02","11","20:00","-12.3","","-15.2","","78","","0.0","","2","","10","","","","101.83","","","","-18","","NA"
"-73.74","45.47","MONTREAL/PIERRE ELLIOTT TRUDEAU INTL","702S006","2017-02-11 21:00","2017","02","11","21:00","-12.8","","-15.6","","79","","0.0","","2","","10","","","","101.86","","","","-19","","NA"
"-73.74","45.47","MONTREAL/PIERRE ELLIOTT TRUDEAU INTL","702S006","2017-02-11 22:00","2017","02","11","22:00","-12.7","","-15.6","","79","","0.0","","2","","15","","","","101.89","","","","-20","","NA"
"-73.74","45.47","MONTREAL/PIERRE ELLIOTT TRUDEAU INTL","702S006","2017-02-11 23:00","2017","02","11","23:00","-12.5","","-15.3","","79","","0.0","","2","","14","","","","101.92","","","","-20","","NA"
"-73.74","45.47","MONTREAL/PIERRE ELLIOTT TRUDEAU INTL","702S006","2017-02-12 00:00","2017","02","12","00:00","-12.6","","-15.4","","80","","0.0","","2","","16","","","","101.94","","","","-20","","NA"
"-73.74","45.47","MONTREAL/PIERRE ELLIOTT TRUDEAU INTL","702S006","2017-02-12 01:00","2017","02","12","01:00","-12.7","","-15.3","","81","","0.0","","2","","15","","","","101.95","","","","-20","","NA"
"-73.74","45.47","MONTREAL/PIERRE ELLIOTT TRUDEAU INTL","702S006","2017-02-12 02:00","2017","02","12","02:00","-12.9","","-15.5","","81","","0.0","","3","","14","","","","101.95","","","","-20","","NA"
"-73.74","45.47","MONTREAL/PIERRE ELLIOTT TRUDEAU INTL","702S006","2017-02-12 03:00","2017","02","12","03:00","-13.0","","-15.4","","82","","0.0","","2","","15","","","","101.95","","","","-20","","NA"
"-73.74","45.47","MONTREAL/PIERRE ELLIOTT TRUDEAU INTL","702S006","2017-02-12 04:00","2017","02","12","04:00","-13.2","","-15.4","","83","","0.0","","4","","13","","","","101.88","","","","-20","","NA"
"-73.74","45.47","MONTREAL/PIERRE ELLIOTT TRUDEAU INTL","702S006","2017-02-12 05:00","2017","02","12","05:00","-13.0","","-15.2","","83","","0.0","","3","","18","","","","101.82","","","","-21","","NA"
"-73.74","45.47","MONTREAL/PIERRE ELLIOTT TRUDEAU INTL","702S006","2017-02-12 06:00","2017","02","12","06:00","-13.2","","-15.4","","83","","0.0","","3","","17","","","","101.77","","","","-21","","NA"
"-73.74","45.47","MONTREAL/PIERRE ELLIOTT TRUDEAU INTL","702S006","2017-02-12 07:00","2017","02","12","07:00","-13.2","","-15.4","","83","","0.0","","3","","14","","","","101.68","","","","-20","","NA"
"-73.74","45.47","MONTREAL/PIERRE ELLIOTT TRUDEAU INTL","702S006","2017-02-12 08:00","2017","02","12","08:00","-13.3","","-15.6","","83","","0.0","","3","","18","","","","101.63","","","","-22","","NA"
"-73.74","45.47","MONTREAL/PIERRE ELLIOTT TRUDEAU INTL","702S006","2017-02-12 09:00","2017","02","12","09:00","-12.4","","-14.8","","82","","0.0","","4","","14","","","","101.51","","","","-19","","NA"
"-73.74","45.47","MONTREAL/PIERRE ELLIOTT TRUDEAU INTL","702S006","2017-02-12 10:00","2017","02","12","10:00","-11.7","","-14.2","","81","","0.0","","4","","18","","","","101.43","","","","-20","","NA"
"-73.74","45.47","MONTREAL/PIERRE ELLIOTT TRUDEAU INTL","702S006","2017-02-12 11:00","2017","02","12","11:00","-10.9","","-13.6","","80","","0.0","","4","","16","","","","101.29","","","","-18","","NA"
"-73.74","45.47","MONTREAL/PIERRE ELLIOTT TRUDEAU INTL","702S006","2017-02-12 12:00","2017","02","12","12:00","-10.5","","-13.4","","79","","0.0","","4","","16","","","","101.10","","","","-18","","NA"
"-73.74","45.47","MONTREAL/PIERRE ELLIOTT TRUDEAU INTL","702S006","2017-02-12 13:00","2017","02","12","13:00","-10.3","","-11.9","","88","","0.0","","4","","16","","","","100.97","","","","-17","","NA"
"-73.74","45.47","MONTREAL/PIERRE ELLIOTT TRUDEAU INTL","702S006","2017-02-12 14:00","2017","02","12","14:00","-9.8","","-10.9","","92","","0.7","","4","","18","","","","100.82","","","","-17","","NA"
"-73.74","45.47","MONTREAL/PIERRE ELLIOTT TRUDEAU INTL","702S006","2017-02-12 15:00","2017","02","12","15:00","-8.7","","-9.6","","93","","1.2","","4","","19","","","","100.70","","","","-16","","NA"
"-73.74","45.47","MONTREAL/PIERRE ELLIOTT TRUDEAU INTL","702S006","2017-02-12 16:00","2017","02","12","16:00","-7.7","","-8.5","","94","","1.0","","4","","16","","","","100.58","","","","-14","","NA"
"-73.74","45.47","MONTREAL/PIERRE ELLIOTT TRUDEAU INTL","702S006","2017-02-12 17:00","2017","02","12","17:00","-6.2","","-6.8","","96","","0.9","","4","","12","","","","100.44","","","","-11","","NA"
"-73.74","45.47","MONTREAL/PIERRE ELLIOTT TRUDEAU INTL","702S006","2017-02-12 18:00","2017","02","12","18:00","-4.5","","-5.0","","97","","0.3","","4","","11","","","","100.39","","","","-9","","NA"
"-73.74","45.47","MONTREAL/PIERRE ELLIOTT TRUDEAU INTL","702S006","2017-02-12 19:00","2017","02","12","19:00","-3.4","","-3.8","","98","","0.0","","8","","12","","","","100.29","","","","-8","","NA"
"-73.74","45.47","MONTREAL/PIERRE ELLIOTT TRUDEAU INTL","702S006","2017-02-12 20:00","2017","02","12","20:00","-3.4","","-3.7","","98","","0.0","","6","","11","","","","100.16","","","","-8","","NA"
"-73.74","45.47","MONTREAL/PIERRE ELLIOTT TRUDEAU INTL","702S006","2017-02-12 21:00","2017","02","12","21:00","-3.3","","-3.6","","98","","0.5","","7","","12","","","","100.02","","","","-8","","NA"
"-73.74","45.47","MONTREAL/PIERRE ELLIOTT TRUDEAU INTL","702S006","2017-02-12 22:00","2017","02","12","22:00","-3.3","","-3.6","","98","","0.5","","6","","15","","","","99.89","","","","-8","","NA"
"-73.74","45.47","MONTREAL/PIERRE ELLIOTT TRUDEAU INTL","702S006","2017-02-12 23:00","2017","02","12","23:00","-3.4","","-3.7","","98","","0.0","","5","","19","","","","99.78","","","","-9","","NA"
"-73.74","45.47","MONTREAL/PIERRE ELLIOTT TRUDEAU INTL","702S006","2017-02-13 00:00","2017","02","13","00:00","-3.5","","-3.7","","98","","0.0","","5","","16","","","","99.72","","","","-9","","NA"
"-73.74","45.47","MONTREAL/PIERRE ELLIOTT TRUDEAU INTL","702S006","2017-02-13 01:00","2017","02","13","01:00","-4.1","","-4.5","","97","","0.0","","4","","20","","","","99.70","","","","-10","","NA"
"-73.74","45.47","MONTREAL/PIERRE ELLIOTT TRUDEAU INTL","702S006","2017-02-13 02:00","2017","02","13","02:00","-4.7","","-5.1","","97","","0.0","","4","","18","","","","99.76","","","","-11","","NA"
"-73.74","45.47","MONTREAL/PIERRE ELLIOTT TRUDEAU INTL","702S006","2017-02-13 03:00","2017","02","13","03:00","-5.2","","-5.7","","96","","0.0","","4","","20","","","","99.81","","","","-12","","NA"
"-73.74","45.47","MONTREAL/PIERRE ELLIOTT TRUDEAU INTL","702S006","2017-02-13 04:00","2017","02","13","04:00","-6.6","","-7.3","","95","","0.0","","2","","25","","","","99.91","","","","-14","","NA"
"-73.74","45.47","MONTREAL/PIERRE ELLIOTT TRUDEAU INTL","702S006","2017-02-13 05:00","2017","02","13","05:00","-7.2","","-7.8","","95","","0.0","","1","","23","","","","100.05","","","","-15","","NA"
"-73.74","45.47","MONTREAL/PIERRE ELLIOTT TRUDEAU INTL","702S006","2017-02-13 06:00","2017","02","13","06:00","-7.6","","-8.4","","94","","0.0","","1","","24","","","","100.20","","","","-16","","NA"
"-73.74","45.47","MONTREAL/PIERRE ELLIOTT TRUDEAU INTL","702S006","2017-02-13 07:00","2017","02","13","07:00","-7.8","","-8.7","","93","","0.0","","36","","20","","","","100.35","","","","-15","","NA"
"-73.74","45.47","MONTREAL/PIERRE ELLIOTT TRUDEAU INTL","702S006","2017-02-13 08:00","2017","02","13","08:00","-7.6","","-8.9","","91","","0.2","","1","","21","","","","100.51","","","","-15","","NA"
"-73.74","45.47","MONTREAL/PIERRE ELLIOTT TRUDEAU INTL","702S006","2017-02-13 09:00","2017","02","13","09:00","-7.0","","-9.1","","85","","0.2","","36","","17","","","","100.64","","","","-13","","NA"
"-73.74","45.47","MONTREAL/PIERRE ELLIOTT TRUDEAU INTL","702S006","2017-02-13 10:00","2017","02","13","10:00","-6.4","","-9.0","","82","","0.7","","36","","17","","","","100.71","","","","-13","","NA"
"-73.74","45.47","MONTREAL/PIERRE ELLIOTT TRUDEAU INTL","702S006","2017-02-13 11:00","2017","02","13","11:00","-6.1","","-9.3","","78","","0.0","","1","","18","","","","100.83","","","","-13","","NA"
"-73.74","45.47","MONTREAL/PIERRE ELLIOTT TRUDEAU INTL","702S006","2017-02-13 12:00","2017","02","13","12:00","-5.4","","-9.3","","74","","1.6","","36","","16","","","","100.86","","","","-11","","NA"
"-73.74","45.47","MONTREAL/PIERRE ELLIOTT TRUDEAU INTL","702S006","2017-02-13 13:00","2017","02","13","13:00","-4.5","","-9.2","","70","","9.6","","36","","8","","","","100.87","","","","-8","","NA"
"-73.74","45.47","MONTREAL/PIERRE ELLIOTT TRUDEAU INTL","702S006","2017-02-13 14:00","2017","02","13","14:00","-4.1","","-8.9","","69","","0.9","","27","","11","","","","100.93","","","","-9","","NA"
"-73.74","45.47","MONTREAL/PIERRE ELLIOTT TRUDEAU INTL","702S006","2017-02-13 15:00","2017","02","13","15:00","-3.6","","-8.5","","69","","0.0","","27","","17","","","","100.97","","","","-9","","NA"
"-73.74","45.47","MONTREAL/PIERRE ELLIOTT TRUDEAU INTL","702S006","2017-02-13 16:00","2017","02","13","16:00","-3.3","","-7.5","","72","","0.0","","27","","16","","","","100.99","","","","-9","","NA"
"-73.74","45.47","MONTREAL/PIERRE ELLIOTT TRUDEAU INTL","702S006","2017-02-13 17:00","2017","02","13","17:00","-3.2","","-7.2","","74","","0.0","","26","","15","","","","101.03","","","","-8","","NA"
"-73.74","45.47","MONTREAL/PIERRE ELLIOTT TRUDEAU INTL","702S006","2017-02-13 18:00","2017","02","13","18:00","-3.2","","-7.5","","72","","0.0","","27","","15","","","","101.08","","","","-8","","NA"
"-73.74","45.47","MONTREAL/PIERRE ELLIOTT TRUDEAU INTL","702S006","2017-02-13 19:00","2017","02","13","19:00","-3.5","","-7.6","","73","","0.0","","27","","16","","","","101.10","","","","-9","","NA"
"-73.74","45.47","MONTREAL/PIERRE ELLIOTT TRUDEAU INTL","702S006","2017-02-13 20:00","2017","02","13","20:00","-3.8","","-8.0","","72","","0.0","","28","","15","","","","101.09","","","","-9","","NA"
"-73.74","45.47","MONTREAL/PIERRE ELLIOTT TRUDEAU INTL","702S006","2017-02-13 21:00","2017","02","13","21:00","-4.3","","-8.3","","74","","0.0","","28","","16","","","","101.08","","","","-10","","NA"
"-73.74","45.47","MONTREAL/PIERRE ELLIOTT TRUDEAU INTL","702S006","2017-02-13 22:00","2017","02","13","22:00","-4.6","","-8.6","","73","","0.0","","28","","13","","","","101.07","","","","-10","","NA"
"-73.74","45.47","MONTREAL/PIERRE ELLIOTT TRUDEAU INTL","702S006","2017-02-13 23:00","2017","02","13","23:00","-4.7","","-8.8","","73","","0.0","","28","","14","","","","101.03","","","","-10","","NA"
"-73.74","45.47","MONTREAL/PIERRE ELLIOTT TRUDEAU INTL","702S006","2017-02-14 00:00","2017","02","14","00:00","-5.3","","-9.0","","75","","0.0","","28","","17","","","","101.01","","","","-11","","NA"
"-73.74","45.47","MONTREAL/PIERRE ELLIOTT TRUDEAU INTL","702S006","2017-02-14 01:00","2017","02","14","01:00","-5.7","","-9.2","","76","","0.0","","26","","14","","","","101.01","","","","-11","","NA"
"-73.74","45.47","MONTREAL/PIERRE ELLIOTT TRUDEAU INTL","702S006","2017-02-14 02:00","2017","02","14","02:00","-6.0","","-9.2","","78","","0.0","","26","","11","","","","101.01","","","","-11","","NA"
"-73.74","45.47","MONTREAL/PIERRE ELLIOTT TRUDEAU INTL","702S006","2017-02-14 03:00","2017","02","14","03:00","-6.2","","-9.5","","77","","0.0","","24","","9","","","","101.00","","","","-10","","NA"
"-73.74","45.47","MONTREAL/PIERRE ELLIOTT TRUDEAU INTL","702S006","2017-02-14 04:00","2017","02","14","04:00","-6.7","","-9.7","","79","","0.0","","22","","10","","","","100.99","","","","-11","","NA"
"-73.74","45.47","MONTREAL/PIERRE ELLIOTT TRUDEAU INTL","702S006","2017-02-14 05:00","2017","02","14","05:00","-8.6","","-10.8","","84","","0.0","","22","","10","","","","100.96","","","","-14","","NA"
"-73.74","45.47","MONTREAL/PIERRE ELLIOTT TRUDEAU INTL","702S006","2017-02-14 06:00","2017","02","14","06:00","-9.6","","-11.3","","87","","0.0","","21","","9","","","","100.88","","","","-14","","NA"
"-73.74","45.47","MONTREAL/PIERRE ELLIOTT TRUDEAU INTL","702S006","2017-02-14 07:00","2017","02","14","07:00","-10.3","","-11.4","","92","","0.0","","21","","7","","","","100.88","","","","-14","","NA"
"-73.74","45.47","MONTREAL/PIERRE ELLIOTT TRUDEAU INTL","702S006","2017-02-14 08:00","2017","02","14","08:00","-10.9","","-12.0","","92","","0.0","","26","","6","","","","100.89","","","","-15","","NA"
"-73.74","45.47","MONTREAL/PIERRE ELLIOTT TRUDEAU INTL","702S006","2017-02-14 09:00","2017","02","14","09:00","-8.2","","-9.9","","87","","0.0","","28","","3","","","","100.82","","","","-10","","NA"
"-73.74","45.47","MONTREAL/PIERRE ELLIOTT TRUDEAU INTL","702S006","2017-02-14 10:00","2017","02","14","10:00","-7.3","","-9.6","","83","","0.3","","24","","5","","","","100.77","","","","-10","","NA"
"-73.74","45.47","MONTREAL/PIERRE ELLIOTT TRUDEAU INTL","702S006","2017-02-14 11:00","2017","02","14","11:00","-6.3","","-9.3","","79","","0.0","","","","0","","","","100.69","","","","","","NA"
"-73.74","45.47","MONTREAL/PIERRE ELLIOTT TRUDEAU INTL","702S006","2017-02-14 12:00","2017","02","14","12:00","-4.9","","-8.9","","73","","","M","18","","5","","","","100.58","","","","-7","","NA"
"-73.74","45.47","MONTREAL/PIERRE ELLIOTT TRUDEAU INTL","702S006","2017-02-14 13:00","2017","02","14","13:00","-4.6","","-8.8","","72","","0.3","","11","","9","","","","100.42","","","","-8","","NA"
"-73.74","45.47","MONTREAL/PIERRE ELLIOTT TRUDEAU INTL","702S006","2017-02-14 14:00","2017","02","14","14:00","-4.5","","-9.0","","71","","0.0","","12","","14","","","","100.34","","","","-10","","NA"
"-73.74","45.47","MONTREAL/PIERRE ELLIOTT TRUDEAU INTL","702S006","2017-02-14 15:00","2017","02","14","15:00","-3.8","","-9.2","","66","","","M","11","","17","","","","100.29","","","","-10","","NA"
"-73.74","45.47","MONTREAL/PIERRE ELLIOTT TRUDEAU INTL","702S006","2017-02-14 16:00","2017","02","14","16:00","-3.7","","-9.1","","66","","","M","11","","14","","","","100.27","","","","-9","","NA"
"-73.74","45.47","MONTREAL/PIERRE ELLIOTT TRUDEAU INTL","702S006","2017-02-14 17:00","2017","02","14","17:00","-3.7","","-9.1","","66","","0.0","","8","","12","","","","100.22","","","","-8","","NA"
"-73.74","45.47","MONTREAL/PIERRE ELLIOTT TRUDEAU INTL","702S006","2017-02-14 18:00","2017","02","14","18:00","-3.7","","-9.0","","67","","0.0","","7","","10","","","","100.18","","","","-8","","NA"
"-73.74","45.47","MONTREAL/PIERRE ELLIOTT TRUDEAU INTL","702S006","2017-02-14 19:00","2017","02","14","19:00","-3.8","","-9.0","","67","","0.0","","7","","9","","","","100.17","","","","-8","","NA"
"-73.74","45.47","MONTREAL/PIERRE ELLIOTT TRUDEAU INTL","702S006","2017-02-14 20:00","2017","02","14","20:00","-3.8","","-8.9","","68","","0.0","","8","","11","","","","100.13","","","","-8","","NA"
"-73.74","45.47","MONTREAL/PIERRE ELLIOTT TRUDEAU INTL","702S006","2017-02-14 21:00","2017","02","14","21:00","-3.5","","-8.4","","69","","0.0","","5","","12","","","","100.05","","","","-8","","NA"
"-73.74","45.47","MONTREAL/PIERRE ELLIOTT TRUDEAU INTL","702S006","2017-02-14 22:00","2017","02","14","22:00","-4.1","","-8.3","","73","","0.0","","3","","10","","","","99.97","","","","-8","","NA"
"-73.74","45.47","MONTREAL/PIERRE ELLIOTT TRUDEAU INTL","702S006","2017-02-14 23:00","2017","02","14","23:00","-4.2","","-6.7","","83","","0.0","","3","","8","","","","99.91","","","","-8","","NA"
"-73.74","45.47","MONTREAL/PIERRE ELLIOTT TRUDEAU INTL","702S006","2017-02-15 00:00","2017","02","15","00:00","-4.1","","-4.9","","94","","0.0","","6","","9","","","","99.79","","","","-8","","NA"
"-73.74","45.47","MONTREAL/PIERRE ELLIOTT TRUDEAU INTL","702S006","2017-02-15 01:00","2017","02","15","01:00","-3.6","","-4.2","","95","","0.2","","8","","9","","","","99.70","","","","-7","","NA"
"-73.74","45.47","MONTREAL/PIERRE ELLIOTT TRUDEAU INTL","702S006","2017-02-15 02:00","2017","02","15","02:00","-2.9","","-3.7","","94","","0.0","","6","","8","","","","99.62","","","","-6","","NA"
"-73.74","45.47","MONTREAL/PIERRE ELLIOTT TRUDEAU INTL","702S006","2017-02-15 03:00","2017","02","15","03:00","-2.6","","-3.2","","96","","0.0","","5","","8","","","","99.56","","","","-6","","NA"
"-73.74","45.47","MONTREAL/PIERRE ELLIOTT TRUDEAU INTL","702S006","2017-02-15 04:00","2017","02","15","04:00","-4.0","","-4.7","","95","","0.0","","2","","14","","","","99.55","","","","-9","","NA"
"-73.74","45.47","MONTREAL/PIERRE ELLIOTT TRUDEAU INTL","702S006","2017-02-15 05:00","2017","02","15","05:00","-4.4","","-4.9","","96","","0.0","","2","","15","","","","99.50","","","","-10","","NA"
"-73.74","45.47","MONTREAL/PIERRE ELLIOTT TRUDEAU INTL","702S006","2017-02-15 06:00","2017","02","15","06:00","-5.1","","-5.9","","94","","0.0","","3","","20","","","","99.44","","","","-12","","NA"
"-73.74","45.47","MONTREAL/PIERRE ELLIOTT TRUDEAU INTL","702S006","2017-02-15 07:00","2017","02","15","07:00","-5.2","","-6.2","","93","","0.0","","3","","17","","","","99.42","","","","-11","","NA"
"-73.74","45.47","MONTREAL/PIERRE ELLIOTT TRUDEAU INTL","702S006","2017-02-15 08:00","2017","02","15","08:00","-5.3","","-5.9","","96","","0.0","","3","","19","","","","99.40","","","","-12","","NA"
"-73.74","45.47","MONTREAL/PIERRE ELLIOTT TRUDEAU INTL","702S006","2017-02-15 09:00","2017","02","15","09:00","-5.8","","-6.4","","96","","0.0","","2","","20","","","","99.38","","","","-13","","NA"
"-73.74","45.47","MONTREAL/PIERRE ELLIOTT TRUDEAU INTL","702S006","2017-02-15 10:00","2017","02","15","10:00","-6.2","","-6.7","","96","","0.0","","2","","20","","","","99.32","","","","-13","","NA"
"-73.74","45.47","MONTREAL/PIERRE ELLIOTT TRUDEAU INTL","702S006","2017-02-15 11:00","2017","02","15","11:00","-5.7","","-6.3","","96","","","M","2","","18","","","","99.30","","","","-12","","NA"
"-73.74","45.47","MONTREAL/PIERRE ELLIOTT TRUDEAU INTL","702S006","2017-02-15 12:00","2017","02","15","12:00","-5.3","","-6.0","","95","","0.0","","2","","21","","","","99.27","","","","-12","","NA"
"-73.74","45.47","MONTREAL/PIERRE ELLIOTT TRUDEAU INTL","702S006","2017-02-15 13:00","2017","02","15","13:00","-5.1","","-6.1","","93","","0.0","","3","","20","","","","99.19","","","","-12","","NA"
"-73.74","45.47","MONTREAL/PIERRE ELLIOTT TRUDEAU INTL","702S006","2017-02-15 14:00","2017","02","15","14:00","-5.0","","-6.2","","91","","0.0","","2","","21","","","","99.17","","","","-12","","NA"
"-73.74","45.47","MONTREAL/PIERRE ELLIOTT TRUDEAU INTL","702S006","2017-02-15 15:00","2017","02","15","15:00","-4.9","","-5.8","","93","","0.0","","2","","19","","","","99.19","","","","-11","","NA"
"-73.74","45.47","MONTREAL/PIERRE ELLIOTT TRUDEAU INTL","702S006","2017-02-15 16:00","2017","02","15","16:00","-4.9","","-5.8","","94","","0.0","","1","","19","","","","99.20","","","","-11","","NA"
"-73.74","45.47","MONTREAL/PIERRE ELLIOTT TRUDEAU INTL","702S006","2017-02-15 17:00","2017","02","15","17:00","-4.7","","-6.1","","90","","0.0","","2","","22","","","","99.22","","","","-12","","NA"
"-73.74","45.47","MONTREAL/PIERRE ELLIOTT TRUDEAU INTL","702S006","2017-02-15 18:00","2017","02","15","18:00","-4.5","","-5.7","","91","","0.0","","1","","17","","","","99.26","","","","-10","","NA"
"-73.74","45.47","MONTREAL/PIERRE ELLIOTT TRUDEAU INTL","702S006","2017-02-15 19:00","2017","02","15","19:00","-4.6","","-5.4","","94","","0.0","","36","","11","","","","99.28","","","","-9","","NA"
"-73.74","45.47","MONTREAL/PIERRE ELLIOTT TRUDEAU INTL","702S006","2017-02-15 20:00","2017","02","15","20:00","-4.4","","-5.1","","95","","0.0","","34","","13","","","","99.28","","","","-9","","NA"
"-73.74","45.47","MONTREAL/PIERRE ELLIOTT TRUDEAU INTL","702S006","2017-02-15 21:00","2017","02","15","21:00","-4.1","","-5.3","","92","","0.0","","33","","15","","","","99.29","","","","-9","","NA"
"-73.74","45.47","MONTREAL/PIERRE ELLIOTT TRUDEAU INTL","702S006","2017-02-15 22:00","2017","02","15","22:00","-3.8","","-5.2","","90","","0.0","","33","","14","","","","99.26","","","","-9","","NA"
"-73.74","45.47","MONTREAL/PIERRE ELLIOTT TRUDEAU INTL","702S006","2017-02-15 23:00","2017","02","15","23:00","-3.6","","-5.1","","89","","0.2","","31","","15","","","","99.24","","","","-9","","NA"
"-73.74","45.47","MONTREAL/PIERRE ELLIOTT TRUDEAU INTL","702S006","2017-02-16 00:00","2017","02","16","00:00","-3.7","","-4.6","","93","","0.0","","32","","14","","","","99.26","","","","-9","","NA"
"-73.74","45.47","MONTREAL/PIERRE ELLIOTT TRUDEAU INTL","702S006","2017-02-16 01:00","2017","02","16","01:00","-3.8","","-4.6","","94","","0.2","","31","","16","","","","99.24","","","","-9","","NA"
"-73.74","45.47","MONTREAL/PIERRE ELLIOTT TRUDEAU INTL","702S006","2017-02-16 02:00","2017","02","16","02:00","-4.0","","-4.9","","94","","0.2","","33","","15","","","","99.24","","","","-9","","NA"
"-73.74","45.47","MONTREAL/PIERRE ELLIOTT TRUDEAU INTL","702S006","2017-02-16 03:00","2017","02","16","03:00","-4.1","","-4.9","","95","","0.0","","33","","17","","","","99.23","","","","-10","","NA"
"-73.74","45.47","MONTREAL/PIERRE ELLIOTT TRUDEAU INTL","702S006","2017-02-16 04:00","2017","02","16","04:00","-4.2","","-5.2","","93","","0.2","","33","","16","","","","99.26","","","","-10","","NA"
"-73.74","45.47","MONTREAL/PIERRE ELLIOTT TRUDEAU INTL","702S006","2017-02-16 05:00","2017","02","16","05:00","-4.4","","-5.0","","95","","0.3","","35","","18","","","","99.30","","","","-10","","NA"
"-73.74","45.47","MONTREAL/PIERRE ELLIOTT TRUDEAU INTL","702S006","2017-02-16 06:00","2017","02","16","06:00","-4.7","","-5.3","","96","","0.2","","34","","20","","","","99.39","","","","-11","","NA"
"-73.74","45.47","MONTREAL/PIERRE ELLIOTT TRUDEAU INTL","702S006","2017-02-16 07:00","2017","02","16","07:00","-4.5","","-5.3","","94","","0.0","","36","","15","","","","99.49","","","","-10","","NA"
"-73.74","45.47","MONTREAL/PIERRE ELLIOTT TRUDEAU INTL","702S006","2017-02-16 08:00","2017","02","16","08:00","-4.5","","-5.4","","94","","0.2","","35","","14","","","","99.58","","","","-10","","NA"
"-73.74","45.47","MONTREAL/PIERRE ELLIOTT TRUDEAU INTL","702S006","2017-02-16 09:00","2017","02","16","09:00","-4.4","","-5.7","","91","","0.0","","33","","13","","","","99.62","","","","-9","","NA"
"-73.74","45.47","MONTREAL/PIERRE ELLIOTT TRUDEAU INTL","702S006","2017-02-16 10:00","2017","02","16","10:00","-3.9","","-5.3","","90","","0.3","","32","","15","","","","99.65","","","","-9","","NA"
"-73.74","45.47","MONTREAL/PIERRE ELLIOTT TRUDEAU INTL","702S006","2017-02-16 11:00","2017","02","16","11:00","-3.4","","-5.7","","84","","0.2","","30","","16","","","","99.68","","","","-9","","NA"
"-73.74","45.47","MONTREAL/PIERRE ELLIOTT TRUDEAU INTL","702S006","2017-02-16 12:00","2017","02","16","12:00","-3.4","","-6.0","","83","","0.0","","29","","19","","","","99.68","","","","-9","","NA"
"-73.74","45.47","MONTREAL/PIERRE ELLIOTT TRUDEAU INTL","702S006","2017-02-16 13:00","2017","02","16","13:00","-3.1","","-6.3","","78","","0.0","","29","","17","","","","99.67","","","","-9","","NA"
"-73.74","45.47","MONTREAL/PIERRE ELLIOTT TRUDEAU INTL","702S006","2017-02-16 14:00","2017","02","16","14:00","-2.9","","-6.2","","78","","0.0","","29","","17","","","","99.68","","","","-8","","NA"
"-73.74","45.47","MONTREAL/PIERRE ELLIOTT TRUDEAU INTL","702S006","2017-02-16 15:00","2017","02","16","15:00","-2.6","","-7.1","","71","","0.0","","26","","19","","","","99.70","","","","-8","","NA"
"-73.74","45.47","MONTREAL/PIERRE ELLIOTT TRUDEAU INTL","702S006","2017-02-16 16:00","2017","02","16","16:00","-2.1","","-7.1","","68","","0.0","","27","","20","","","","99.75","","","","-8","","NA"
"-73.74","45.47","MONTREAL/PIERRE ELLIOTT TRUDEAU INTL","702S006","2017-02-16 17:00","2017","02","16","17:00","-2.4","","-7.5","","68","","0.0","","28","","22","","","","99.83","","","","-9","","NA"
"-73.74","45.47","MONTREAL/PIERRE ELLIOTT TRUDEAU INTL","702S006","2017-02-16 18:00","2017","02","16","18:00","-2.4","","-7.5","","68","","0.0","","29","","21","","","","99.90","","","","-8","","NA"
"-73.74","45.47","MONTREAL/PIERRE ELLIOTT TRUDEAU INTL","702S006","2017-02-16 19:00","2017","02","16","19:00","-3.0","","-8.0","","69","","0.0","","29","","25","","","","99.99","","","","-10","","NA"
"-73.74","45.47","MONTREAL/PIERRE ELLIOTT TRUDEAU INTL","702S006","2017-02-16 20:00","2017","02","16","20:00","-3.6","","-8.0","","72","","0.0","","29","","22","","","","100.12","","","","-10","","NA"
"-73.74","45.47","MONTREAL/PIERRE ELLIOTT TRUDEAU INTL","702S006","2017-02-16 21:00","2017","02","16","21:00","-3.9","","-7.4","","77","","0.0","","27","","20","","","","100.18","","","","-10","","NA"
"-73.74","45.47","MONTREAL/PIERRE ELLIOTT TRUDEAU INTL","702S006","2017-02-16 22:00","2017","02","16","22:00","-4.0","","-7.3","","78","","0.0","","28","","17","","","","100.16","","","","-10","","NA"
"-73.74","45.47","MONTREAL/PIERRE ELLIOTT TRUDEAU INTL","702S006","2017-02-16 23:00","2017","02","16","23:00","-4.2","","-7.8","","76","","0.0","","28","","15","","","","100.15","","","","-10","","NA"
"-73.74","45.47","MONTREAL/PIERRE ELLIOTT TRUDEAU INTL","702S006","2017-02-17 00:00","2017","02","17","00:00","-4.4","","-9.1","","70","","0.0","","28","","20","","","","100.18","","","","-11","","NA"
"-73.74","45.47","MONTREAL/PIERRE ELLIOTT TRUDEAU INTL","702S006","2017-02-17 01:00","2017","02","17","01:00","-4.8","","-10.0","","67","","0.0","","28","","25","","","","100.26","","","","-12","","NA"
"-73.74","45.47","MONTREAL/PIERRE ELLIOTT TRUDEAU INTL","702S006","2017-02-17 02:00","2017","02","17","02:00","-5.2","","-10.2","","68","","0.0","","28","","22","","","","100.29","","","","-12","","NA"
"-73.74","45.47","MONTREAL/PIERRE ELLIOTT TRUDEAU INTL","702S006","2017-02-17 03:00","2017","02","17","03:00","-5.6","","-10.5","","68","","0.0","","28","","21","","","","100.30","","","","-12","","NA"
"-73.74","45.47","MONTREAL/PIERRE ELLIOTT TRUDEAU INTL","702S006","2017-02-17 04:00","2017","02","17","04:00","-6.0","","-10.9","","68","","0.0","","28","","19","","","","100.36","","","","-13","","NA"
"-73.74","45.47","MONTREAL/PIERRE ELLIOTT TRUDEAU INTL","702S006","2017-02-17 05:00","2017","02","17","05:00","-6.4","","-11.5","","67","","0.0","","28","","18","","","","100.41","","","","-13","","NA"
"-73.74","45.47","MONTREAL/PIERRE ELLIOTT TRUDEAU INTL","702S006","2017-02-17 06:00","2017","02","17","06:00","-7.5","","-12.3","","69","","0.0","","28","","17","","","","100.44","","","","-14","","NA"
"-73.74","45.47","MONTREAL/PIERRE ELLIOTT TRUDEAU INTL","702S006","2017-02-17 07:00","2017","02","17","07:00","-7.9","","-12.3","","71","","0.0","","26","","12","","","","100.47","","","","-13","","NA"
"-73.74","45.47","MONTREAL/PIERRE ELLIOTT TRUDEAU INTL","702S006","2017-02-17 08:00","2017","02","17","08:00","-7.5","","-12.0","","70","","0.0","","26","","19","","","","100.54","","","","-15","","NA"
"-73.74","45.47","MONTREAL/PIERRE ELLIOTT TRUDEAU INTL","702S006","2017-02-17 09:00","2017","02","17","09:00","-7.2","","-11.3","","72","","0.0","","25","","23","","","","100.55","","","","-15","","NA"
"-73.74","45.47","MONTREAL/PIERRE ELLIOTT TRUDEAU INTL","702S006","2017-02-17 10:00","2017","02","17","10:00","-6.5","","-11.0","","71","","0.0","","25","","24","","","","100.55","","","","-14","","NA"
"-73.74","45.47","MONTREAL/PIERRE ELLIOTT TRUDEAU INTL","702S006","2017-02-17 11:00","2017","02","17","11:00","-5.5","","-10.8","","66","","0.0","","25","","24","","","","100.54","","","","-13","","NA"
"-73.74","45.47","MONTREAL/PIERRE ELLIOTT TRUDEAU INTL","702S006","2017-02-17 12:00","2017","02","17","12:00","-4.7","","-11.0","","61","","0.0","","26","","26","","","","100.50","","","","-12","","NA"
"-73.74","45.47","MONTREAL/PIERRE ELLIOTT TRUDEAU INTL","702S006","2017-02-17 13:00","2017","02","17","13:00","-4.0","","-10.2","","62","","0.0","","25","","22","","","","100.43","","","","-11","","NA"
"-73.74","45.47","MONTREAL/PIERRE ELLIOTT TRUDEAU INTL","702S006","2017-02-17 14:00","2017","02","17","14:00","-3.8","","-10.1","","62","","0.0","","25","","25","","","","100.43","","","","-11","","NA"
"-73.74","45.47","MONTREAL/PIERRE ELLIOTT TRUDEAU INTL","702S006","2017-02-17 15:00","2017","02","17","15:00","-3.4","","-9.7","","61","","0.0","","25","","27","","","","100.45","","","","-11","","NA"
"-73.74","45.47","MONTREAL/PIERRE ELLIOTT TRUDEAU INTL","702S006","2017-02-17 16:00","2017","02","17","16:00","-2.9","","-9.4","","61","","0.0","","25","","25","","","","100.47","","","","-10","","NA"
"-73.74","45.47","MONTREAL/PIERRE ELLIOTT TRUDEAU INTL","702S006","2017-02-17 17:00","2017","02","17","17:00","-3.0","","-9.8","","59","","0.0","","25","","20","","","","100.49","","","","-9","","NA"
"-73.74","45.47","MONTREAL/PIERRE ELLIOTT TRUDEAU INTL","702S006","2017-02-17 18:00","2017","02","17","18:00","-3.7","","-9.8","","62","","0.0","","25","","18","","","","100.56","","","","-10","","NA"
"-73.74","45.47","MONTREAL/PIERRE ELLIOTT TRUDEAU INTL","702S006","2017-02-17 19:00","2017","02","17","19:00","-4.0","","-9.8","","64","","0.0","","24","","14","","","","100.56","","","","-9","","NA"
"-73.74","45.47","MONTREAL/PIERRE ELLIOTT TRUDEAU INTL","702S006","2017-02-17 20:00","2017","02","17","20:00","-4.1","","-9.7","","65","","0.0","","25","","20","","","","100.60","","","","-10","","NA"
"-73.74","45.47","MONTREAL/PIERRE ELLIOTT TRUDEAU INTL","702S006","2017-02-17 21:00","2017","02","17","21:00","-4.3","","-9.6","","67","","0.0","","25","","16","","","","100.65","","","","-10","","NA"
"-73.74","45.47","MONTREAL/PIERRE ELLIOTT TRUDEAU INTL","702S006","2017-02-17 22:00","2017","02","17","22:00","-4.1","","-9.3","","67","","0.0","","25","","20","","","","100.61","","","","-10","","NA"
"-73.74","45.47","MONTREAL/PIERRE ELLIOTT TRUDEAU INTL","702S006","2017-02-17 23:00","2017","02","17","23:00","-4.1","","-9.1","","68","","0.0","","25","","13","","","","100.56","","","","-9","","NA"
"-73.74","45.47","MONTREAL/PIERRE ELLIOTT TRUDEAU INTL","702S006","2017-02-18 00:00","2017","02","18","00:00","-4.1","","-8.8","","70","","0.0","","25","","8","","","","100.54","","","","-8","","NA"
"-73.74","45.47","MONTREAL/PIERRE ELLIOTT TRUDEAU INTL","702S006","2017-02-18 01:00","2017","02","18","01:00","-4.3","","-8.7","","71","","0.0","","24","","5","","","","100.52","","","","-6","","NA"
"-73.74","45.47","MONTREAL/PIERRE ELLIOTT TRUDEAU INTL","702S006","2017-02-18 02:00","2017","02","18","02:00","-4.7","","-9.0","","71","","0.0","","24","","5","","","","100.50","","","","-7","","NA"
"-73.74","45.47","MONTREAL/PIERRE ELLIOTT TRUDEAU INTL","702S006","2017-02-18 03:00","2017","02","18","03:00","-4.2","","-8.8","","71","","0.0","","22","","6","","","","100.41","","","","-7","","NA"
"-73.74","45.47","MONTREAL/PIERRE ELLIOTT TRUDEAU INTL","702S006","2017-02-18 04:00","2017","02","18","04:00","-4.1","","-7.7","","76","","0.0","","19","","9","","","","100.34","","","","-8","","NA"
"-73.74","45.47","MONTREAL/PIERRE ELLIOTT TRUDEAU INTL","702S006","2017-02-18 05:00","2017","02","18","05:00","-3.9","","-8.3","","71","","0.0","","9","","5","","","","100.26","","","","-6","","NA"
"-73.74","45.47","MONTREAL/PIERRE ELLIOTT TRUDEAU INTL","702S006","2017-02-18 06:00","2017","02","18","06:00","-3.8","","-8.6","","69","","0.0","","12","","12","","","","100.12","","","","-8","","NA"
"-73.74","45.47","MONTREAL/PIERRE ELLIOTT TRUDEAU INTL","702S006","2017-02-18 07:00","2017","02","18","07:00","-3.7","","-7.5","","75","","0.0","","13","","11","","","","100.03","","","","-8","","NA"
"-73.74","45.47","MONTREAL/PIERRE ELLIOTT TRUDEAU INTL","702S006","2017-02-18 08:00","2017","02","18","08:00","-3.3","","-7.2","","74","","0.0","","13","","7","","","","99.93","","","","-6","","NA"
"-73.74","45.47","MONTREAL/PIERRE ELLIOTT TRUDEAU INTL","702S006","2017-02-18 09:00","2017","02","18","09:00","-1.9","","-8.0","","63","","0.0","","15","","10","","","","99.91","","","","-6","","NA"
"-73.74","45.47","MONTREAL/PIERRE ELLIOTT TRUDEAU INTL","702S006","2017-02-18 10:00","2017","02","18","10:00","-0.6","","-7.4","","60","","0.0","","12","","12","","","","99.73","","","","-5","","NA"
"-73.74","45.47","MONTREAL/PIERRE ELLIOTT TRUDEAU INTL","702S006","2017-02-18 11:00","2017","02","18","11:00","0.3","","-6.6","","60","","0.0","","12","","10","","","","99.63","","","","","","NA"
"-73.74","45.47","MONTREAL/PIERRE ELLIOTT TRUDEAU INTL","702S006","2017-02-18 12:00","2017","02","18","12:00","1.9","","-5.7","","57","","0.0","","13","","7","","","","99.54","","","","","","NA"
"-73.74","45.47","MONTREAL/PIERRE ELLIOTT TRUDEAU INTL","702S006","2017-02-18 13:00","2017","02","18","13:00","2.8","","-4.9","","57","","0.0","","12","","9","","","","99.33","","","","","","NA"
"-73.74","45.47","MONTREAL/PIERRE ELLIOTT TRUDEAU INTL","702S006","2017-02-18 14:00","2017","02","18","14:00","3.7","","-3.8","","58","","0.0","","13","","8","","","","99.18","","","","","","NA"
"-73.74","45.47","MONTREAL/PIERRE ELLIOTT TRUDEAU INTL","702S006","2017-02-18 15:00","2017","02","18","15:00","5.0","","-4.0","","52","","0.0","","16","","4","","","","99.08","","","","","","NA"
"-73.74","45.47","MONTREAL/PIERRE ELLIOTT TRUDEAU INTL","702S006","2017-02-18 16:00","2017","02","18","16:00","6.1","","-3.3","","51","","0.0","","25","","3","","","","99.07","","","","","","NA"
"-73.74","45.47","MONTREAL/PIERRE ELLIOTT TRUDEAU INTL","702S006","2017-02-18 17:00","2017","02","18","17:00","5.3","","-3.4","","54","","0.0","","21","","8","","","","99.03","","","","","","NA"
"-73.74","45.47","MONTREAL/PIERRE ELLIOTT TRUDEAU INTL","702S006","2017-02-18 18:00","2017","02","18","18:00","4.6","","-2.2","","61","","0.0","","22","","6","","","","99.07","","","","","","NA"
"-73.74","45.47","MONTREAL/PIERRE ELLIOTT TRUDEAU INTL","702S006","2017-02-18 19:00","2017","02","18","19:00","7.9","","1.2","","63","","0.0","","24","","35","","","","99.11","","","","","","NA"
"-73.74","45.47","MONTREAL/PIERRE ELLIOTT TRUDEAU INTL","702S006","2017-02-18 20:00","2017","02","18","20:00","7.3","","1.3","","65","","0.0","","25","","28","","","","99.17","","","","","","NA"
"-73.74","45.47","MONTREAL/PIERRE ELLIOTT TRUDEAU INTL","702S006","2017-02-18 21:00","2017","02","18","21:00","6.8","","1.4","","68","","0.0","","25","","29","","","","99.25","","","","","","NA"
"-73.74","45.47","MONTREAL/PIERRE ELLIOTT TRUDEAU INTL","702S006","2017-02-18 22:00","2017","02","18","22:00","6.9","","1.4","","68","","0.0","","24","","26","","","","99.29","","","","","","NA"
"-73.74","45.47","MONTREAL/PIERRE ELLIOTT TRUDEAU INTL","702S006","2017-02-18 23:00","2017","02","18","23:00","6.6","","1.3","","69","","0.0","","24","","22","","","","99.40","","","","","","NA"
"-73.74","45.47","MONTREAL/PIERRE ELLIOTT TRUDEAU INTL","702S006","2017-02-19 00:00","2017","02","19","00:00","5.6","","1.1","","72","","0.0","","25","","20","","","","99.45","","","","","","NA"
"-73.74","45.47","MONTREAL/PIERRE ELLIOTT TRUDEAU INTL","702S006","2017-02-19 01:00","2017","02","19","01:00","5.3","","1.1","","74","","0.0","","24","","20","","","","99.49","","","","","","NA"
"-73.74","45.47","MONTREAL/PIERRE ELLIOTT TRUDEAU INTL","702S006","2017-02-19 02:00","2017","02","19","02:00","4.9","","0.9","","75","","0.0","","24","","16","","","","99.57","","","","","","NA"
"-73.74","45.47","MONTREAL/PIERRE ELLIOTT TRUDEAU INTL","702S006","2017-02-19 03:00","2017","02","19","03:00","4.6","","1.0","","77","","0.0","","25","","22","","","","99.65","","","","","","NA"
"-73.74","45.47","MONTREAL/PIERRE ELLIOTT TRUDEAU INTL","702S006","2017-02-19 04:00","2017","02","19","04:00","3.8","","0.7","","80","","0.0","","25","","13","","","","99.71","","","","","","NA"
"-73.74","45.47","MONTREAL/PIERRE ELLIOTT TRUDEAU INTL","702S006","2017-02-19 05:00","2017","02","19","05:00","3.7","","0.9","","82","","0.0","","24","","14","","","","99.77","","","","","","NA"
"-73.74","45.47","MONTREAL/PIERRE ELLIOTT TRUDEAU INTL","702S006","2017-02-19 06:00","2017","02","19","06:00","3.5","","0.9","","83","","0.0","","23","","7","","","","99.82","","","","","","NA"
"-73.74","45.47","MONTREAL/PIERRE ELLIOTT TRUDEAU INTL","702S006","2017-02-19 07:00","2017","02","19","07:00","3.1","","0.8","","84","","0.0","","22","","13","","","","99.88","","","","","","NA"
"-73.74","45.47","MONTREAL/PIERRE ELLIOTT TRUDEAU INTL","702S006","2017-02-19 08:00","2017","02","19","08:00","2.9","","0.7","","85","","0.0","","21","","15","","","","99.89","","","","","","NA"
"-73.74","45.47","MONTREAL/PIERRE ELLIOTT TRUDEAU INTL","702S006","2017-02-19 09:00","2017","02","19","09:00","3.9","","1.0","","82","","0.0","","23","","15","","","","99.92","","","","","","NA"
"-73.74","45.47","MONTREAL/PIERRE ELLIOTT TRUDEAU INTL","702S006","2017-02-19 10:00","2017","02","19","10:00","4.7","","1.0","","76","","0.0","","27","","23","","","","99.97","","","","","","NA"
"-73.74","45.47","MONTREAL/PIERRE ELLIOTT TRUDEAU INTL","702S006","2017-02-19 11:00","2017","02","19","11:00","5.8","","1.0","","71","","0.0","","27","","27","","","","100.03","","","","","","NA"
"-73.74","45.47","MONTREAL/PIERRE ELLIOTT TRUDEAU INTL","702S006","2017-02-19 12:00","2017","02","19","12:00","6.8","","0.9","","66","","0.0","","27","","26","","","","100.09","","","","","","NA"
"-73.74","45.47","MONTREAL/PIERRE ELLIOTT TRUDEAU INTL","702S006","2017-02-19 13:00","2017","02","19","13:00","7.0","","0.5","","63","","0.0","","27","","23","","","","100.15","","","","","","NA"
"-73.74","45.47","MONTREAL/PIERRE ELLIOTT TRUDEAU INTL","702S006","2017-02-19 14:00","2017","02","19","14:00","7.1","","-0.2","","60","","0.0","","28","","23","","","","100.23","","","","","","NA"
"-73.74","45.47","MONTREAL/PIERRE ELLIOTT TRUDEAU INTL","702S006","2017-02-19 15:00","2017","02","19","15:00","7.1","","-0.2","","60","","0.0","","27","","21","","","","100.32","","","","","","NA"
"-73.74","45.47","MONTREAL/PIERRE ELLIOTT TRUDEAU INTL","702S006","2017-02-19 16:00","2017","02","19","16:00","6.5","","-0.3","","62","","0.0","","27","","18","","","","100.45","","","","","","NA"
"-73.74","45.47","MONTREAL/PIERRE ELLIOTT TRUDEAU INTL","702S006","2017-02-19 17:00","2017","02","19","17:00","5.2","","0.8","","73","","0.0","","31","","27","","","","100.61","","","","","","NA"
"-73.74","45.47","MONTREAL/PIERRE ELLIOTT TRUDEAU INTL","702S006","2017-02-19 18:00","2017","02","19","18:00","4.4","","0.1","","74","","0.0","","32","","18","","","","100.76","","","","","","NA"
"-73.74","45.47","MONTREAL/PIERRE ELLIOTT TRUDEAU INTL","702S006","2017-02-19 19:00","2017","02","19","19:00","3.8","","-1.0","","71","","0.0","","31","","19","","","","100.88","","","","","","NA"
"-73.74","45.47","MONTREAL/PIERRE ELLIOTT TRUDEAU INTL","702S006","2017-02-19 20:00","2017","02","19","20:00","3.6","","-2.1","","66","","0.0","","32","","22","","","","101.01","","","","","","NA"
"-73.74","45.47","MONTREAL/PIERRE ELLIOTT TRUDEAU INTL","702S006","2017-02-19 21:00","2017","02","19","21:00","2.9","","-2.9","","65","","0.0","","31","","17","","","","101.11","","","","","","NA"
"-73.74","45.47","MONTREAL/PIERRE ELLIOTT TRUDEAU INTL","702S006","2017-02-19 22:00","2017","02","19","22:00","2.4","","-2.5","","70","","0.0","","34","","15","","","","101.19","","","","","","NA"
"-73.74","45.47","MONTREAL/PIERRE ELLIOTT TRUDEAU INTL","702S006","2017-02-19 23:00","2017","02","19","23:00","1.6","","-5.0","","62","","0.0","","36","","15","","","","101.30","","","","","","NA"
"-73.74","45.47","MONTREAL/PIERRE ELLIOTT TRUDEAU INTL","702S006","2017-02-20 00:00","2017","02","20","00:00","0.9","","-5.2","","63","","0.0","","34","","13","","","","101.40","","","","","","NA"
"-73.74","45.47","MONTREAL/PIERRE ELLIOTT TRUDEAU INTL","702S006","2017-02-20 01:00","2017","02","20","01:00","0.3","","-5.1","","67","","0.0","","32","","11","","","","101.45","","","","","","NA"
"-73.74","45.47","MONTREAL/PIERRE ELLIOTT TRUDEAU INTL","702S006","2017-02-20 02:00","2017","02","20","02:00","0.0","","-5.8","","65","","0.0","","32","","15","","","","101.53","","","","-4","","NA"
"-73.74","45.47","MONTREAL/PIERRE ELLIOTT TRUDEAU INTL","702S006","2017-02-20 03:00","2017","02","20","03:00","-1.2","","-6.6","","67","","0.0","","31","","18","","","","101.58","","","","-6","","NA"
"-73.74","45.47","MONTREAL/PIERRE ELLIOTT TRUDEAU INTL","702S006","2017-02-20 04:00","2017","02","20","04:00","-2.2","","-7.6","","67","","0.0","","33","","14","","","","101.65","","","","-7","","NA"
"-73.74","45.47","MONTREAL/PIERRE ELLIOTT TRUDEAU INTL","702S006","2017-02-20 05:00","2017","02","20","05:00","-3.0","","-8.5","","66","","0.0","","33","","15","","","","101.75","","","","-8","","NA"
"-73.74","45.47","MONTREAL/PIERRE ELLIOTT TRUDEAU INTL","702S006","2017-02-20 06:00","2017","02","20","06:00","-3.5","","-9.2","","65","","0.0","","31","","15","","","","101.84","","","","-9","","NA"
"-73.74","45.47","MONTREAL/PIERRE ELLIOTT TRUDEAU INTL","702S006","2017-02-20 07:00","2017","02","20","07:00","-4.7","","-9.1","","71","","0.0","","31","","12","","","","101.95","","","","-9","","NA"
"-73.74","45.47","MONTREAL/PIERRE ELLIOTT TRUDEAU INTL","702S006","2017-02-20 08:00","2017","02","20","08:00","-3.9","","-9.8","","64","","0.0","","33","","20","","","","102.09","","","","-10","","NA"
"-73.74","45.47","MONTREAL/PIERRE ELLIOTT TRUDEAU INTL","702S006","2017-02-20 09:00","2017","02","20","09:00","-3.3","","-9.3","","63","","0.0","","35","","19","","","","102.21","","","","-9","","NA"
"-73.74","45.47","MONTREAL/PIERRE ELLIOTT TRUDEAU INTL","702S006","2017-02-20 10:00","2017","02","20","10:00","-2.5","","-9.3","","60","","0.0","","36","","10","","","","102.26","","","","-6","","NA"
"-73.74","45.47","MONTREAL/PIERRE ELLIOTT TRUDEAU INTL","702S006","2017-02-20 11:00","2017","02","20","11:00","-1.9","","-10.3","","52","","0.0","","35","","9","","","","102.32","","","","-5","","NA"
"-73.74","45.47","MONTREAL/PIERRE ELLIOTT TRUDEAU INTL","702S006","2017-02-20 12:00","2017","02","20","12:00","-0.5","","-12.3","","40","","0.0","","4","","6","","","","102.31","","","","-3","","NA"
"-73.74","45.47","MONTREAL/PIERRE ELLIOTT TRUDEAU INTL","702S006","2017-02-20 13:00","2017","02","20","13:00","-0.1","","-9.6","","49","","0.0","","26","","9","","","","102.40","","","","-3","","NA"
"-73.74","45.47","MONTREAL/PIERRE ELLIOTT TRUDEAU INTL","702S006","2017-02-20 14:00","2017","02","20","14:00","0.5","","-10.2","","45","","0.0","","27","","8","","","","102.39","","","","","","NA"
"-73.74","45.47","MONTREAL/PIERRE ELLIOTT TRUDEAU INTL","702S006","2017-02-20 15:00","2017","02","20","15:00","-0.1","","-8.9","","51","","0.0","","21","","13","","","","102.40","","","","-4","","NA"
"-73.74","45.47","MONTREAL/PIERRE ELLIOTT TRUDEAU INTL","702S006","2017-02-20 16:00","2017","02","20","16:00","-0.1","","-8.4","","53","","0.0","","20","","11","","","","102.36","","","","-4","","NA"
"-73.74","45.47","MONTREAL/PIERRE ELLIOTT TRUDEAU INTL","702S006","2017-02-20 17:00","2017","02","20","17:00","-0.4","","-8.8","","53","","0.0","","21","","11","","","","102.42","","","","-4","","NA"
"-73.74","45.47","MONTREAL/PIERRE ELLIOTT TRUDEAU INTL","702S006","2017-02-20 18:00","2017","02","20","18:00","-0.8","","-8.7","","55","","0.0","","24","","9","","","","102.51","","","","-4","","NA"
"-73.74","45.47","MONTREAL/PIERRE ELLIOTT TRUDEAU INTL","702S006","2017-02-20 19:00","2017","02","20","19:00","-1.5","","-9.8","","53","","0.0","","25","","7","","","","102.55","","","","-4","","NA"
"-73.74","45.47","MONTREAL/PIERRE ELLIOTT TRUDEAU INTL","702S006","2017-02-20 20:00","2017","02","20","20:00","-1.7","","-10.3","","52","","0.0","","24","","5","","","","102.55","","","","-4","","NA"
"-73.74","45.47","MONTREAL/PIERRE ELLIOTT TRUDEAU INTL","702S006","2017-02-20 21:00","2017","02","20","21:00","-3.2","","-9.2","","63","","0.0","","18","","6","","","","102.59","","","","-6","","NA"
"-73.74","45.47","MONTREAL/PIERRE ELLIOTT TRUDEAU INTL","702S006","2017-02-20 22:00","2017","02","20","22:00","-3.6","","-10.0","","61","","0.0","","18","","4","","","","102.61","","","","-5","","NA"
"-73.74","45.47","MONTREAL/PIERRE ELLIOTT TRUDEAU INTL","702S006","2017-02-20 23:00","2017","02","20","23:00","-4.2","","-8.8","","70","","0.0","","16","","3","","","","102.61","","","","-5","","NA"
"-73.74","45.47","MONTREAL/PIERRE ELLIOTT TRUDEAU INTL","702S006","2017-02-21 00:00","2017","02","21","00:00","-5.4","","-8.8","","77","","0.0","","14","","3","","","","102.53","","","","-7","","NA"
"-73.74","45.47","MONTREAL/PIERRE ELLIOTT TRUDEAU INTL","702S006","2017-02-21 01:00","2017","02","21","01:00","-5.0","","-7.8","","81","","0.0","","13","","3","","","","102.52","","","","-6","","NA"
"-73.74","45.47","MONTREAL/PIERRE ELLIOTT TRUDEAU INTL","702S006","2017-02-21 02:00","2017","02","21","02:00","-5.4","","-7.8","","83","","0.0","","14","","6","","","","102.48","","","","-8","","NA"
"-73.74","45.47","MONTREAL/PIERRE ELLIOTT TRUDEAU INTL","702S006","2017-02-21 03:00","2017","02","21","03:00","-5.2","","-9.3","","73","","0.0","","12","","6","","","","102.44","","","","-8","","NA"
"-73.74","45.47","MONTREAL/PIERRE ELLIOTT TRUDEAU INTL","702S006","2017-02-21 04:00","2017","02","21","04:00","-5.2","","-9.3","","73","","0.0","","11","","7","","","","102.42","","","","-8","","NA"
"-73.74","45.47","MONTREAL/PIERRE ELLIOTT TRUDEAU INTL","702S006","2017-02-21 05:00","2017","02","21","05:00","-5.0","","-9.2","","72","","0.0","","11","","6","","","","102.38","","","","-8","","NA"
"-73.74","45.47","MONTREAL/PIERRE ELLIOTT TRUDEAU INTL","702S006","2017-02-21 06:00","2017","02","21","06:00","-4.5","","-9.0","","71","","0.0","","9","","6","","","","102.30","","","","-7","","NA"
"-73.74","45.47","MONTREAL/PIERRE ELLIOTT TRUDEAU INTL","702S006","2017-02-21 07:00","2017","02","21","07:00","-4.8","","-8.5","","75","","0.0","","6","","7","","","","102.25","","","","-8","","NA"
"-73.74","45.47","MONTREAL/PIERRE ELLIOTT TRUDEAU INTL","702S006","2017-02-21 08:00","2017","02","21","08:00","-4.7","","-7.9","","79","","0.0","","11","","10","","","","102.23","","","","-9","","NA"
"-73.74","45.47","MONTREAL/PIERRE ELLIOTT TRUDEAU INTL","702S006","2017-02-21 09:00","2017","02","21","09:00","-2.8","","-8.1","","67","","0.0","","9","","11","","","","102.09","","","","-7","","NA"
"-73.74","45.47","MONTREAL/PIERRE ELLIOTT TRUDEAU INTL","702S006","2017-02-21 10:00","2017","02","21","10:00","-2.2","","-8.2","","63","","0.0","","9","","11","","","","102.02","","","","-6","","NA"
"-73.74","45.47","MONTREAL/PIERRE ELLIOTT TRUDEAU INTL","702S006","2017-02-21 11:00","2017","02","21","11:00","-0.8","","-8.9","","55","","0.0","","10","","11","","","","101.95","","","","-5","","NA"
"-73.74","45.47","MONTREAL/PIERRE ELLIOTT TRUDEAU INTL","702S006","2017-02-21 12:00","2017","02","21","12:00","0.0","","-7.7","","56","","0.0","","11","","15","","","","101.72","","","","-4","","NA"
"-73.74","45.47","MONTREAL/PIERRE ELLIOTT TRUDEAU INTL","702S006","2017-02-21 13:00","2017","02","21","13:00","1.4","","-6.7","","55","","0.0","","11","","13","","","","101.55","","","","","","NA"
"-73.74","45.47","MONTREAL/PIERRE ELLIOTT TRUDEAU INTL","702S006","2017-02-21 14:00","2017","02","21","14:00","2.5","","-6.1","","53","","0.0","","12","","22","","","","101.33","","","","","","NA"
"-73.74","45.47","MONTREAL/PIERRE ELLIOTT TRUDEAU INTL","702S006","2017-02-21 15:00","2017","02","21","15:00","3.2","","-6.7","","48","","0.0","","10","","13","","","","101.27","","","","","","NA"
"-73.74","45.47","MONTREAL/PIERRE ELLIOTT TRUDEAU INTL","702S006","2017-02-21 16:00","2017","02","21","16:00","3.2","","-6.2","","50","","0.0","","12","","14","","","","101.21","","","","","","NA"
"-73.74","45.47","MONTREAL/PIERRE ELLIOTT TRUDEAU INTL","702S006","2017-02-21 17:00","2017","02","21","17:00","3.2","","-5.8","","51","","0.0","","11","","6","","","","101.17","","","","","","NA"
"-73.74","45.47","MONTREAL/PIERRE ELLIOTT TRUDEAU INTL","702S006","2017-02-21 18:00","2017","02","21","18:00","3.1","","-5.7","","52","","0.0","","","","0","","","","101.11","","","","","","NA"
"-73.74","45.47","MONTREAL/PIERRE ELLIOTT TRUDEAU INTL","702S006","2017-02-21 19:00","2017","02","21","19:00","0.1","","-4.5","","71","","0.0","","1","","8","","","","101.14","","","","","","NA"
"-73.74","45.47","MONTREAL/PIERRE ELLIOTT TRUDEAU INTL","702S006","2017-02-21 20:00","2017","02","21","20:00","0.4","","-4.1","","72","","0.0","","2","","4","","","","101.08","","","","","","NA"
"-73.74","45.47","MONTREAL/PIERRE ELLIOTT TRUDEAU INTL","702S006","2017-02-21 21:00","2017","02","21","21:00","0.4","","-2.6","","80","","0.0","","31","","7","","","","101.11","","","","","","NA"
"-73.74","45.47","MONTREAL/PIERRE ELLIOTT TRUDEAU INTL","702S006","2017-02-21 22:00","2017","02","21","22:00","0.0","","-3.8","","76","","0.0","","1","","6","","","","101.09","","","","-2","","NA"
"-73.74","45.47","MONTREAL/PIERRE ELLIOTT TRUDEAU INTL","702S006","2017-02-21 23:00","2017","02","21","23:00","0.7","","-3.0","","76","","0.0","","6","","5","","","","101.00","","","","","","NA"
"-73.74","45.47","MONTREAL/PIERRE ELLIOTT TRUDEAU INTL","702S006","2017-02-22 00:00","2017","02","22","00:00","0.5","","-2.4","","81","","0.0","","35","","5","","","","101.00","","","","","","NA"
"-73.74","45.47","MONTREAL/PIERRE ELLIOTT TRUDEAU INTL","702S006","2017-02-22 01:00","2017","02","22","01:00","0.2","","-1.6","","88","","0.0","","","","0","","","","100.97","","","","","","NA"
"-73.74","45.47","MONTREAL/PIERRE ELLIOTT TRUDEAU INTL","702S006","2017-02-22 02:00","2017","02","22","02:00","0.4","","-0.9","","91","","0.0","","35","","5","","","","101.00","","","","","","NA"
"-73.74","45.47","MONTREAL/PIERRE ELLIOTT TRUDEAU INTL","702S006","2017-02-22 03:00","2017","02","22","03:00","0.7","","-0.5","","91","","0.0","","16","","4","","","","101.00","","","","","","NA"
"-73.74","45.47","MONTREAL/PIERRE ELLIOTT TRUDEAU INTL","702S006","2017-02-22 04:00","2017","02","22","04:00","1.2","","-0.6","","87","","0.0","","17","","8","","","","100.98","","","","","","NA"
"-73.74","45.47","MONTREAL/PIERRE ELLIOTT TRUDEAU INTL","702S006","2017-02-22 05:00","2017","02","22","05:00","1.7","","-0.8","","84","","0.0","","25","","6","","","","101.00","","","","","","NA"
"-73.74","45.47","MONTREAL/PIERRE ELLIOTT TRUDEAU INTL","702S006","2017-02-22 06:00","2017","02","22","06:00","2.0","","-0.6","","83","","0.0","","26","","9","","","","101.08","","","","","","NA"
"-73.74","45.47","MONTREAL/PIERRE ELLIOTT TRUDEAU INTL","702S006","2017-02-22 07:00","2017","02","22","07:00","1.3","","0.1","","92","","0.0","","28","","5","","","","101.04","","","","","","NA"
"-73.74","45.47","MONTREAL/PIERRE ELLIOTT TRUDEAU INTL","702S006","2017-02-22 08:00","2017","02","22","08:00","1.7","","0.5","","91","","0.0","","","","0","","","","101.07","","","","","","NA"
"-73.74","45.47","MONTREAL/PIERRE ELLIOTT TRUDEAU INTL","702S006","2017-02-22 09:00","2017","02","22","09:00","2.1","","0.7","","90","","0.0","","19","","5","","","","101.12","","","","","","NA"
"-73.74","45.47","MONTREAL/PIERRE ELLIOTT TRUDEAU INTL","702S006","2017-02-22 10:00","2017","02","22","10:00","2.5","","1.1","","91","","0.0","","17","","5","","","","101.09","","","","","","NA"
"-73.74","45.47","MONTREAL/PIERRE ELLIOTT TRUDEAU INTL","702S006","2017-02-22 11:00","2017","02","22","11:00","4.7","","1.6","","81","","0.0","","","","0","","","","101.04","","","","","","NA"
"-73.74","45.47","MONTREAL/PIERRE ELLIOTT TRUDEAU INTL","702S006","2017-02-22 12:00","2017","02","22","12:00","6.2","","1.3","","71","","0.0","","","","0","","","","100.93","","","","","","NA"
"-73.74","45.47","MONTREAL/PIERRE ELLIOTT TRUDEAU INTL","702S006","2017-02-22 13:00","2017","02","22","13:00","4.8","","1.4","","79","","0.0","","30","","5","","","","100.90","","","","","","NA"
"-73.74","45.47","MONTREAL/PIERRE ELLIOTT TRUDEAU INTL","702S006","2017-02-22 14:00","2017","02","22","14:00","6.6","","1.8","","72","","0.0","","","","0","","","","100.83","","","","","","NA"
"-73.74","45.47","MONTREAL/PIERRE ELLIOTT TRUDEAU INTL","702S006","2017-02-22 15:00","2017","02","22","15:00","7.1","","1.6","","68","","0.0","","","","0","","","","100.76","","","","","","NA"
"-73.74","45.47","MONTREAL/PIERRE ELLIOTT TRUDEAU INTL","702S006","2017-02-22 16:00","2017","02","22","16:00","6.3","","1.9","","73","","0.0","","11","","7","","","","100.78","","","","","","NA"
"-73.74","45.47","MONTREAL/PIERRE ELLIOTT TRUDEAU INTL","702S006","2017-02-22 17:00","2017","02","22","17:00","5.9","","1.4","","73","","0.0","","12","","8","","","","100.68","","","","","","NA"
"-73.74","45.47","MONTREAL/PIERRE ELLIOTT TRUDEAU INTL","702S006","2017-02-22 18:00","2017","02","22","18:00","5.2","","1.4","","77","","0.0","","12","","12","","","","100.63","","","","","","NA"
"-73.74","45.47","MONTREAL/PIERRE ELLIOTT TRUDEAU INTL","702S006","2017-02-22 19:00","2017","02","22","19:00","4.6","","1.5","","81","","0.0","","10","","6","","","","100.62","","","","","","NA"
"-73.74","45.47","MONTREAL/PIERRE ELLIOTT TRUDEAU INTL","702S006","2017-02-22 20:00","2017","02","22","20:00","4.5","","1.4","","80","","0.0","","4","","8","","","","100.60","","","","","","NA"
"-73.74","45.47","MONTREAL/PIERRE ELLIOTT TRUDEAU INTL","702S006","2017-02-22 21:00","2017","02","22","21:00","3.4","","1.2","","85","","0.0","","","","0","","","","100.59","","","","","","NA"
"-73.74","45.47","MONTREAL/PIERRE ELLIOTT TRUDEAU INTL","702S006","2017-02-22 22:00","2017","02","22","22:00","4.0","","1.3","","83","","0.0","","2","","7","","","","100.54","","","","","","NA"
"-73.74","45.47","MONTREAL/PIERRE ELLIOTT TRUDEAU INTL","702S006","2017-02-22 23:00","2017","02","22","23:00","3.5","","1.3","","86","","0.0","","3","","7","","","","100.50","","","","","","NA"
"-73.74","45.47","MONTREAL/PIERRE ELLIOTT TRUDEAU INTL","702S006","2017-02-23 00:00","2017","02","23","00:00","3.0","","1.0","","86","","0.0","","2","","6","","","","100.45","","","","","","NA"
"-73.74","45.47","MONTREAL/PIERRE ELLIOTT TRUDEAU INTL","702S006","2017-02-23 01:00","2017","02","23","01:00","2.5","","0.8","","88","","0.0","","2","","10","","","","100.42","","","","","","NA"
"-73.74","45.47","MONTREAL/PIERRE ELLIOTT TRUDEAU INTL","702S006","2017-02-23 02:00","2017","02","23","02:00","2.0","","0.3","","89","","0.0","","1","","11","","","","100.40","","","","","","NA"
"-73.74","45.47","MONTREAL/PIERRE ELLIOTT TRUDEAU INTL","702S006","2017-02-23 03:00","2017","02","23","03:00","2.6","","0.6","","87","","0.0","","3","","7","","","","100.30","","","","","","NA"
"-73.74","45.47","MONTREAL/PIERRE ELLIOTT TRUDEAU INTL","702S006","2017-02-23 04:00","2017","02","23","04:00","3.0","","1.1","","88","","0.0","","11","","7","","","","100.22","","","","","","NA"
"-73.74","45.47","MONTREAL/PIERRE ELLIOTT TRUDEAU INTL","702S006","2017-02-23 05:00","2017","02","23","05:00","2.4","","0.7","","89","","0.0","","","","0","","","","100.17","","","","","","NA"
"-73.74","45.47","MONTREAL/PIERRE ELLIOTT TRUDEAU INTL","702S006","2017-02-23 06:00","2017","02","23","06:00","2.5","","0.9","","89","","0.0","","2","","9","","","","100.12","","","","","","NA"
"-73.74","45.47","MONTREAL/PIERRE ELLIOTT TRUDEAU INTL","702S006","2017-02-23 07:00","2017","02","23","07:00","2.4","","0.9","","90","","0.0","","1","","6","","","","100.09","","","","","","NA"
"-73.74","45.47","MONTREAL/PIERRE ELLIOTT TRUDEAU INTL","702S006","2017-02-23 08:00","2017","02","23","08:00","2.7","","1.3","","90","","0.0","","1","","7","","","","100.07","","","","","","NA"
"-73.74","45.47","MONTREAL/PIERRE ELLIOTT TRUDEAU INTL","702S006","2017-02-23 09:00","2017","02","23","09:00","3.2","","1.9","","91","","0.0","","31","","4","","","","100.01","","","","","","NA"
"-73.74","45.47","MONTREAL/PIERRE ELLIOTT TRUDEAU INTL","702S006","2017-02-23 10:00","2017","02","23","10:00","6.8","","4.2","","83","","0.0","","13","","17","","","","99.77","","","","","","NA"
"-73.74","45.47","MONTREAL/PIERRE ELLIOTT TRUDEAU INTL","702S006","2017-02-23 11:00","2017","02","23","11:00","9.6","","5.4","","75","","0.0","","17","","12","","","","99.68","","","","","","NA"
"-73.74","45.47","MONTREAL/PIERRE ELLIOTT TRUDEAU INTL","702S006","2017-02-23 12:00","2017","02","23","12:00","11.3","","5.6","","68","","0.0","","17","","20","","","","99.58","","","","","","NA"
"-73.74","45.47","MONTREAL/PIERRE ELLIOTT TRUDEAU INTL","702S006","2017-02-23 13:00","2017","02","23","13:00","10.6","","6.9","","78","","0.0","","25","","8","","","","99.58","","","","","","NA"
"-73.74","45.47","MONTREAL/PIERRE ELLIOTT TRUDEAU INTL","702S006","2017-02-23 14:00","2017","02","23","14:00","10.1","","7.4","","83","","0.0","","22","","12","","","","99.59","","","","","","NA"
"-73.74","45.47","MONTREAL/PIERRE ELLIOTT TRUDEAU INTL","702S006","2017-02-23 15:00","2017","02","23","15:00","11.6","","8.8","","83","","0.0","","23","","21","","","","99.61","","","","","","NA"
"-73.74","45.47","MONTREAL/PIERRE ELLIOTT TRUDEAU INTL","702S006","2017-02-23 16:00","2017","02","23","16:00","12.2","","9.5","","84","","0.0","","24","","26","","","","99.68","","","","","","NA"
"-73.74","45.47","MONTREAL/PIERRE ELLIOTT TRUDEAU INTL","702S006","2017-02-23 17:00","2017","02","23","17:00","10.8","","8.6","","86","","0.0","","24","","15","","","","99.80","","","","","","NA"
"-73.74","45.47","MONTREAL/PIERRE ELLIOTT TRUDEAU INTL","702S006","2017-02-23 18:00","2017","02","23","18:00","9.9","","7.6","","86","","0.0","","24","","12","","","","99.93","","","","","","NA"
"-73.74","45.47","MONTREAL/PIERRE ELLIOTT TRUDEAU INTL","702S006","2017-02-23 19:00","2017","02","23","19:00","10.5","","7.5","","81","","0.0","","25","","19","","","","100.07","","","","","","NA"
"-73.74","45.47","MONTREAL/PIERRE ELLIOTT TRUDEAU INTL","702S006","2017-02-23 20:00","2017","02","23","20:00","8.9","","5.8","","81","","0.0","","25","","18","","","","100.18","","","","","","NA"
"-73.74","45.47","MONTREAL/PIERRE ELLIOTT TRUDEAU INTL","702S006","2017-02-23 21:00","2017","02","23","21:00","8.5","","4.7","","77","","0.0","","27","","20","","","","100.32","","","","","","NA"
"-73.74","45.47","MONTREAL/PIERRE ELLIOTT TRUDEAU INTL","702S006","2017-02-23 22:00","2017","02","23","22:00","6.8","","3.8","","81","","0.0","","28","","8","","","","100.43","","","","","","NA"
"-73.74","45.47","MONTREAL/PIERRE ELLIOTT TRUDEAU INTL","702S006","2017-02-23 23:00","2017","02","23","23:00","4.9","","2.7","","86","","0.0","","23","","9","","","","100.55","","","","","","NA"
"-73.74","45.47","MONTREAL/PIERRE ELLIOTT TRUDEAU INTL","702S006","2017-02-24 00:00","2017","02","24","00:00","4.7","","3.0","","88","","0.0","","25","","9","","","","100.66","","","","","","NA"
"-73.74","45.47","MONTREAL/PIERRE ELLIOTT TRUDEAU INTL","702S006","2017-02-24 01:00","2017","02","24","01:00","4.1","","2.0","","86","","0.0","","28","","6","","","","100.78","","","","","","NA"
"-73.74","45.47","MONTREAL/PIERRE ELLIOTT TRUDEAU INTL","702S006","2017-02-24 02:00","2017","02","24","02:00","3.7","","1.2","","84","","0.0","","27","","8","","","","100.83","","","","","","NA"
"-73.74","45.47","MONTREAL/PIERRE ELLIOTT TRUDEAU INTL","702S006","2017-02-24 03:00","2017","02","24","03:00","2.8","","1.0","","88","","0.0","","26","","4","","","","100.87","","","","","","NA"
"-73.74","45.47","MONTREAL/PIERRE ELLIOTT TRUDEAU INTL","702S006","2017-02-24 04:00","2017","02","24","04:00","2.2","","1.0","","91","","0.0","","22","","3","","","","100.91","","","","","","NA"
"-73.74","45.47","MONTREAL/PIERRE ELLIOTT TRUDEAU INTL","702S006","2017-02-24 05:00","2017","02","24","05:00","2.0","","0.7","","91","","0.0","","26","","3","","","","100.90","","","","","","NA"
"-73.74","45.47","MONTREAL/PIERRE ELLIOTT TRUDEAU INTL","702S006","2017-02-24 06:00","2017","02","24","06:00","2.5","","0.9","","89","","0.0","","31","","10","","","","100.94","","","","","","NA"
"-73.74","45.47","MONTREAL/PIERRE ELLIOTT TRUDEAU INTL","702S006","2017-02-24 07:00","2017","02","24","07:00","2.7","","0.7","","87","","0.0","","","","0","","","","100.94","","","","","","NA"
"-73.74","45.47","MONTREAL/PIERRE ELLIOTT TRUDEAU INTL","702S006","2017-02-24 08:00","2017","02","24","08:00","2.8","","0.9","","87","","0.0","","","","0","","","","100.94","","","","","","NA"
"-73.74","45.47","MONTREAL/PIERRE ELLIOTT TRUDEAU INTL","702S006","2017-02-24 09:00","2017","02","24","09:00","3.7","","0.7","","81","","0.0","","1","","6","","","","100.94","","","","","","NA"
"-73.74","45.47","MONTREAL/PIERRE ELLIOTT TRUDEAU INTL","702S006","2017-02-24 10:00","2017","02","24","10:00","4.3","","0.7","","78","","0.0","","3","","11","","","","100.91","","","","","","NA"
"-73.74","45.47","MONTREAL/PIERRE ELLIOTT TRUDEAU INTL","702S006","2017-02-24 11:00","2017","02","24","11:00","4.4","","1.0","","78","","0.0","","2","","8","","","","100.85","","","","","","NA"
"-73.74","45.47","MONTREAL/PIERRE ELLIOTT TRUDEAU INTL","702S006","2017-02-24 12:00","2017","02","24","12:00","3.8","","1.2","","83","","0.0","","1","","14","","","","100.80","","","","","","NA"
"-73.74","45.47","MONTREAL/PIERRE ELLIOTT TRUDEAU INTL","702S006","2017-02-24 13:00","2017","02","24","13:00","4.0","","1.8","","86","","0.0","","4","","12","","","","100.73","","","","","","NA"
"-73.74","45.47","MONTREAL/PIERRE ELLIOTT TRUDEAU INTL","702S006","2017-02-24 14:00","2017","02","24","14:00","3.1","","1.5","","89","","0.0","","3","","17","","","","100.68","","","","","","NA"
"-73.74","45.47","MONTREAL/PIERRE ELLIOTT TRUDEAU INTL","702S006","2017-02-24 15:00","2017","02","24","15:00","2.5","","1.2","","91","","0.2","","4","","18","","","","100.70","","","","","","NA"
"-73.74","45.47","MONTREAL/PIERRE ELLIOTT TRUDEAU INTL","702S006","2017-02-24 16:00","2017","02","24","16:00","2.5","","1.4","","93","","0.0","","5","","22","","","","100.63","","","","","","NA"
"-73.74","45.47","MONTREAL/PIERRE ELLIOTT TRUDEAU INTL","702S006","2017-02-24 17:00","2017","02","24","17:00","2.3","","1.4","","94","","0.0","","5","","20","","","","100.64","","","","","","NA"
"-73.74","45.47","MONTREAL/PIERRE ELLIOTT TRUDEAU INTL","702S006","2017-02-24 18:00","2017","02","24","18:00","2.0","","1.1","","93","","0.2","","5","","22","","","","100.61","","","","","","NA"
"-73.74","45.47","MONTREAL/PIERRE ELLIOTT TRUDEAU INTL","702S006","2017-02-24 19:00","2017","02","24","19:00","1.9","","0.7","","91","","0.0","","4","","21","","","","100.59","","","","","","NA"
"-73.74","45.47","MONTREAL/PIERRE ELLIOTT TRUDEAU INTL","702S006","2017-02-24 20:00","2017","02","24","20:00","1.5","","0.3","","91","","0.0","","4","","22","","","","100.51","","","","","","NA"
"-73.74","45.47","MONTREAL/PIERRE ELLIOTT TRUDEAU INTL","702S006","2017-02-24 21:00","2017","02","24","21:00","1.0","","-0.3","","91","","0.0","","3","","24","","","","100.54","","","","","","NA"
"-73.74","45.47","MONTREAL/PIERRE ELLIOTT TRUDEAU INTL","702S006","2017-02-24 22:00","2017","02","24","22:00","1.2","","-0.1","","91","","0.0","","4","","24","","","","100.52","","","","","","NA"
"-73.74","45.47","MONTREAL/PIERRE ELLIOTT TRUDEAU INTL","702S006","2017-02-24 23:00","2017","02","24","23:00","1.8","","0.6","","92","","0.6","","4","","24","","","","100.48","","","","","","NA"
"-73.74","45.47","MONTREAL/PIERRE ELLIOTT TRUDEAU INTL","702S006","2017-02-25 00:00","2017","02","25","00:00","1.3","","0.3","","93","","0.0","","4","","23","","","","100.43","","","","","","NA"
"-73.74","45.47","MONTREAL/PIERRE ELLIOTT TRUDEAU INTL","702S006","2017-02-25 01:00","2017","02","25","01:00","1.0","","0.1","","94","","0.0","","4","","20","","","","100.36","","","","","","NA"
"-73.74","45.47","MONTREAL/PIERRE ELLIOTT TRUDEAU INTL","702S006","2017-02-25 02:00","2017","02","25","02:00","0.8","","0.0","","95","","0.0","","4","","20","","","","100.29","","","","","","NA"
"-73.74","45.47","MONTREAL/PIERRE ELLIOTT TRUDEAU INTL","702S006","2017-02-25 03:00","2017","02","25","03:00","0.8","","0.1","","95","","0.0","","4","","18","","","","100.19","","","","","","NA"
"-73.74","45.47","MONTREAL/PIERRE ELLIOTT TRUDEAU INTL","702S006","2017-02-25 04:00","2017","02","25","04:00","0.5","","-0.1","","96","","0.0","","4","","18","","","","100.10","","","","","","NA"
"-73.74","45.47","MONTREAL/PIERRE ELLIOTT TRUDEAU INTL","702S006","2017-02-25 05:00","2017","02","25","05:00","0.5","","0.1","","97","","0.0","","3","","18","","","","100.05","","","","","","NA"
"-73.74","45.47","MONTREAL/PIERRE ELLIOTT TRUDEAU INTL","702S006","2017-02-25 06:00","2017","02","25","06:00","0.5","","0.3","","98","","0.0","","3","","17","","","","99.99","","","","","","NA"
"-73.74","45.47","MONTREAL/PIERRE ELLIOTT TRUDEAU INTL","702S006","2017-02-25 07:00","2017","02","25","07:00","0.5","","0.4","","99","","0.0","","3","","19","","","","99.92","","","","","","NA"
"-73.74","45.47","MONTREAL/PIERRE ELLIOTT TRUDEAU INTL","702S006","2017-02-25 08:00","2017","02","25","08:00","1.0","","0.8","","99","","0.0","","3","","14","","","","99.88","","","","","","NA"
"-73.74","45.47","MONTREAL/PIERRE ELLIOTT TRUDEAU INTL","702S006","2017-02-25 09:00","2017","02","25","09:00","1.0","","0.9","","100","","0.0","","3","","16","","","","99.80","","","","","","NA"
"-73.74","45.47","MONTREAL/PIERRE ELLIOTT TRUDEAU INTL","702S006","2017-02-25 10:00","2017","02","25","10:00","1.0","","1.0","","100","","0.0","","2","","17","","","","99.70","","","","","","NA"
"-73.74","45.47","MONTREAL/PIERRE ELLIOTT TRUDEAU INTL","702S006","2017-02-25 11:00","2017","02","25","11:00","1.0","","1.0","","99","","0.0","","2","","18","","","","99.57","","","","","","NA"
"-73.74","45.47","MONTREAL/PIERRE ELLIOTT TRUDEAU INTL","702S006","2017-02-25 12:00","2017","02","25","12:00","1.9","","1.6","","98","","0.0","","3","","16","","","","99.39","","","","","","NA"
"-73.74","45.47","MONTREAL/PIERRE ELLIOTT TRUDEAU INTL","702S006","2017-02-25 13:00","2017","02","25","13:00","4.1","","3.4","","95","","0.0","","4","","14","","","","99.17","","","","","","NA"
"-73.74","45.47","MONTREAL/PIERRE ELLIOTT TRUDEAU INTL","702S006","2017-02-25 14:00","2017","02","25","14:00","10.7","","8.9","","89","","0.0","","10","","12","","","","98.90","","","","","","NA"
"-73.74","45.47","MONTREAL/PIERRE ELLIOTT TRUDEAU INTL","702S006","2017-02-25 15:00","2017","02","25","15:00","12.3","","10.3","","88","","3.5","","21","","32","","","","98.97","","","","","","NA"
"-73.74","45.47","MONTREAL/PIERRE ELLIOTT TRUDEAU INTL","702S006","2017-02-25 16:00","2017","02","25","16:00","8.1","","7.6","","97","","4.8","","22","","17","","","","99.09","","","","","","NA"
"-73.74","45.47","MONTREAL/PIERRE ELLIOTT TRUDEAU INTL","702S006","2017-02-25 17:00","2017","02","25","17:00","7.9","","6.9","","93","","5.2","","25","","26","","","","99.21","","","","","","NA"
"-73.74","45.47","MONTREAL/PIERRE ELLIOTT TRUDEAU INTL","702S006","2017-02-25 18:00","2017","02","25","18:00","7.1","","5.8","","92","","2.6","","24","","26","","","","99.43","","","","","","NA"
"-73.74","45.47","MONTREAL/PIERRE ELLIOTT TRUDEAU INTL","702S006","2017-02-25 19:00","2017","02","25","19:00","5.2","","4.3","","94","","4.3","","25","","22","","","","99.47","","","","","","NA"
"-73.74","45.47","MONTREAL/PIERRE ELLIOTT TRUDEAU INTL","702S006","2017-02-25 20:00","2017","02","25","20:00","3.9","","2.8","","92","","1.6","","26","","16","","","","99.51","","","","","","NA"
"-73.74","45.47","MONTREAL/PIERRE ELLIOTT TRUDEAU INTL","702S006","2017-02-25 21:00","2017","02","25","21:00","3.5","","2.7","","94","","3.0","","23","","12","","","","99.58","","","","","","NA"
"-73.74","45.47","MONTREAL/PIERRE ELLIOTT TRUDEAU INTL","702S006","2017-02-25 22:00","2017","02","25","22:00","2.7","","1.8","","94","","2.4","","25","","17","","","","99.56","","","","","","NA"
"-73.74","45.47","MONTREAL/PIERRE ELLIOTT TRUDEAU INTL","702S006","2017-02-25 23:00","2017","02","25","23:00","2.8","","1.8","","94","","0.0","","22","","18","","","","99.59","","","","","","NA"
"-73.74","45.47","MONTREAL/PIERRE ELLIOTT TRUDEAU INTL","702S006","2017-02-26 00:00","2017","02","26","00:00","2.7","","0.5","","86","","0.0","","24","","21","","","","99.59","","","","","","NA"
"-73.74","45.47","MONTREAL/PIERRE ELLIOTT TRUDEAU INTL","702S006","2017-02-26 01:00","2017","02","26","01:00","2.1","","-1.7","","76","","0.0","","26","","27","","","","99.64","","","","","","NA"
"-73.74","45.47","MONTREAL/PIERRE ELLIOTT TRUDEAU INTL","702S006","2017-02-26 02:00","2017","02","26","02:00","1.2","","-2.6","","76","","0.0","","25","","24","","","","99.70","","","","","","NA"
"-73.74","45.47","MONTREAL/PIERRE ELLIOTT TRUDEAU INTL","702S006","2017-02-26 03:00","2017","02","26","03:00","0.4","","-6.5","","60","","0.0","","26","","30","","","","99.76","","","","","","NA"
"-73.74","45.47","MONTREAL/PIERRE ELLIOTT TRUDEAU INTL","702S006","2017-02-26 04:00","2017","02","26","04:00","-0.3","","-7.1","","60","","0.0","","26","","27","","","","99.83","","","","-7","","NA"
"-73.74","45.47","MONTREAL/PIERRE ELLIOTT TRUDEAU INTL","702S006","2017-02-26 05:00","2017","02","26","05:00","-1.0","","-5.8","","70","","0.0","","27","","28","","","","99.95","","","","-8","","NA"
"-73.74","45.47","MONTREAL/PIERRE ELLIOTT TRUDEAU INTL","702S006","2017-02-26 06:00","2017","02","26","06:00","-2.2","","-8.9","","60","","0.0","","27","","31","","","","100.11","","","","-9","","NA"
"-73.74","45.47","MONTREAL/PIERRE ELLIOTT TRUDEAU INTL","702S006","2017-02-26 07:00","2017","02","26","07:00","-2.8","","-9.1","","62","","0.0","","27","","34","","","","100.27","","","","-11","","NA"
"-73.74","45.47","MONTREAL/PIERRE ELLIOTT TRUDEAU INTL","702S006","2017-02-26 08:00","2017","02","26","08:00","-3.6","","-9.9","","62","","0.0","","27","","40","","","","100.42","","","","-12","","NA"
"-73.74","45.47","MONTREAL/PIERRE ELLIOTT TRUDEAU INTL","702S006","2017-02-26 09:00","2017","02","26","09:00","-4.0","","-10.3","","61","","0.2","","27","","34","","","","100.57","","","","-12","","NA"
"-73.74","45.47","MONTREAL/PIERRE ELLIOTT TRUDEAU INTL","702S006","2017-02-26 10:00","2017","02","26","10:00","-4.3","","-11.4","","58","","0.0","","27","","31","","","","100.74","","","","-12","","NA"
"-73.74","45.47","MONTREAL/PIERRE ELLIOTT TRUDEAU INTL","702S006","2017-02-26 11:00","2017","02","26","11:00","-4.3","","-11.5","","57","","0.0","","27","","31","","","","100.83","","","","-12","","NA"
"-73.74","45.47","MONTREAL/PIERRE ELLIOTT TRUDEAU INTL","702S006","2017-02-26 12:00","2017","02","26","12:00","-4.1","","-12.4","","52","","0.0","","27","","30","","","","100.91","","","","-12","","NA"
"-73.74","45.47","MONTREAL/PIERRE ELLIOTT TRUDEAU INTL","702S006","2017-02-26 13:00","2017","02","26","13:00","-3.9","","-11.9","","54","","0.0","","27","","29","","","","100.96","","","","-11","","NA"
"-73.74","45.47","MONTREAL/PIERRE ELLIOTT TRUDEAU INTL","702S006","2017-02-26 14:00","2017","02","26","14:00","-3.0","","-11.4","","52","","0.0","","27","","25","","","","101.00","","","","-10","","NA"
"-73.74","45.47","MONTREAL/PIERRE ELLIOTT TRUDEAU INTL","702S006","2017-02-26 15:00","2017","02","26","15:00","-2.6","","-11.7","","50","","0.0","","26","","25","","","","101.05","","","","-9","","NA"
"-73.74","45.47","MONTREAL/PIERRE ELLIOTT TRUDEAU INTL","702S006","2017-02-26 16:00","2017","02","26","16:00","-1.9","","-12.9","","43","","0.0","","26","","23","","","","101.08","","","","-8","","NA"
"-73.74","45.47","MONTREAL/PIERRE ELLIOTT TRUDEAU INTL","702S006","2017-02-26 17:00","2017","02","26","17:00","-1.4","","-11.8","","45","","0.0","","26","","15","","","","101.13","","","","-6","","NA"
"-73.74","45.47","MONTREAL/PIERRE ELLIOTT TRUDEAU INTL","702S006","2017-02-26 18:00","2017","02","26","18:00","-1.7","","-11.1","","49","","0.0","","27","","13","","","","101.18","","","","-6","","NA"
"-73.74","45.47","MONTREAL/PIERRE ELLIOTT TRUDEAU INTL","702S006","2017-02-26 19:00","2017","02","26","19:00","-1.8","","-10.8","","50","","0.0","","23","","8","","","","101.21","","","","-5","","NA"
"-73.74","45.47","MONTREAL/PIERRE ELLIOTT TRUDEAU INTL","702S006","2017-02-26 20:00","2017","02","26","20:00","-2.4","","-8.2","","65","","0.0","","18","","11","","","","101.20","","","","-6","","NA"
"-73.74","45.47","MONTREAL/PIERRE ELLIOTT TRUDEAU INTL","702S006","2017-02-26 21:00","2017","02","26","21:00","-2.5","","-8.2","","65","","0.0","","18","","16","","","","101.21","","","","-8","","NA"
"-73.74","45.47","MONTREAL/PIERRE ELLIOTT TRUDEAU INTL","702S006","2017-02-26 22:00","2017","02","26","22:00","-0.9","","-6.3","","67","","0.0","","22","","16","","","","101.22","","","","-6","","NA"
"-73.74","45.47","MONTREAL/PIERRE ELLIOTT TRUDEAU INTL","702S006","2017-02-26 23:00","2017","02","26","23:00","-0.8","","-5.8","","69","","0.0","","22","","17","","","","101.21","","","","-6","","NA"
"-73.74","45.47","MONTREAL/PIERRE ELLIOTT TRUDEAU INTL","702S006","2017-02-27 00:00","2017","02","27","00:00","-0.6","","-5.1","","71","","0.0","","22","","19","","","","101.20","","","","-6","","NA"
"-73.74","45.47","MONTREAL/PIERRE ELLIOTT TRUDEAU INTL","702S006","2017-02-27 01:00","2017","02","27","01:00","-0.8","","-4.3","","77","","0.0","","23","","20","","","","101.17","","","","-6","","NA"
"-73.74","45.47","MONTREAL/PIERRE ELLIOTT TRUDEAU INTL","702S006","2017-02-27 02:00","2017","02","27","02:00","-0.1","","-4.9","","70","","0.0","","22","","17","","","","101.12","","","","-5","","NA"
"-73.74","45.47","MONTREAL/PIERRE ELLIOTT TRUDEAU INTL","702S006","2017-02-27 03:00","2017","02","27","03:00","0.6","","-5.4","","65","","0.0","","22","","15","","","","101.09","","","","","","NA"
"-73.74","45.47","MONTREAL/PIERRE ELLIOTT TRUDEAU INTL","702S006","2017-02-27 04:00","2017","02","27","04:00","1.5","","-5.4","","60","","0.0","","23","","22","","","","101.11","","","","","","NA"
"-73.74","45.47","MONTREAL/PIERRE ELLIOTT TRUDEAU INTL","702S006","2017-02-27 05:00","2017","02","27","05:00","1.9","","-4.8","","61","","0.0","","23","","23","","","","101.12","","","","","","NA"
"-73.74","45.47","MONTREAL/PIERRE ELLIOTT TRUDEAU INTL","702S006","2017-02-27 06:00","2017","02","27","06:00","2.5","","-4.4","","61","","0.0","","24","","24","","","","101.15","","","","","","NA"
"-73.74","45.47","MONTREAL/PIERRE ELLIOTT TRUDEAU INTL","702S006","2017-02-27 07:00","2017","02","27","07:00","2.6","","-4.1","","61","","0.0","","23","","27","","","","101.21","","","","","","NA"
"-73.74","45.47","MONTREAL/PIERRE ELLIOTT TRUDEAU INTL","702S006","2017-02-27 08:00","2017","02","27","08:00","2.6","","-3.6","","64","","0.0","","23","","21","","","","101.31","","","","","","NA"
"-73.74","45.47","MONTREAL/PIERRE ELLIOTT TRUDEAU INTL","702S006","2017-02-27 09:00","2017","02","27","09:00","3.9","","-3.4","","59","","0.0","","25","","26","","","","101.40","","","","","","NA"
"-73.74","45.47","MONTREAL/PIERRE ELLIOTT TRUDEAU INTL","702S006","2017-02-27 10:00","2017","02","27","10:00","4.5","","-2.9","","58","","0.0","","25","","30","","","","101.46","","","","","","NA"
"-73.74","45.47","MONTREAL/PIERRE ELLIOTT TRUDEAU INTL","702S006","2017-02-27 11:00","2017","02","27","11:00","4.8","","-2.8","","58","","0.0","","25","","33","","","","101.52","","","","","","NA"
"-73.74","45.47","MONTREAL/PIERRE ELLIOTT TRUDEAU INTL","702S006","2017-02-27 12:00","2017","02","27","12:00","5.5","","-3.3","","53","","0.0","","26","","28","","","","101.57","","","","","","NA"
"-73.74","45.47","MONTREAL/PIERRE ELLIOTT TRUDEAU INTL","702S006","2017-02-27 13:00","2017","02","27","13:00","5.4","","-3.1","","54","","0.0","","27","","34","","","","101.58","","","","","","NA"
"-73.74","45.47","MONTREAL/PIERRE ELLIOTT TRUDEAU INTL","702S006","2017-02-27 14:00","2017","02","27","14:00","5.5","","-3.5","","52","","0.0","","27","","29","","","","101.63","","","","","","NA"
"-73.74","45.47","MONTREAL/PIERRE ELLIOTT TRUDEAU INTL","702S006","2017-02-27 15:00","2017","02","27","15:00","5.3","","-3.5","","53","","0.0","","27","","23","","","","101.68","","","","","","NA"
"-73.74","45.47","MONTREAL/PIERRE ELLIOTT TRUDEAU INTL","702S006","2017-02-27 16:00","2017","02","27","16:00","5.0","","-5.0","","48","","0.0","","28","","22","","","","101.72","","","","","","NA"
"-73.74","45.47","MONTREAL/PIERRE ELLIOTT TRUDEAU INTL","702S006","2017-02-27 17:00","2017","02","27","17:00","4.5","","-6.2","","46","","0.0","","28","","18","","","","101.79","","","","","","NA"
"-73.74","45.47","MONTREAL/PIERRE ELLIOTT TRUDEAU INTL","702S006","2017-02-27 18:00","2017","02","27","18:00","3.2","","-6.5","","49","","0.0","","27","","13","","","","101.89","","","","","","NA"
"-73.74","45.47","MONTREAL/PIERRE ELLIOTT TRUDEAU INTL","702S006","2017-02-27 19:00","2017","02","27","19:00","2.8","","-7.0","","48","","0.0","","27","","9","","","","101.98","","","","","","NA"
"-73.74","45.47","MONTREAL/PIERRE ELLIOTT TRUDEAU INTL","702S006","2017-02-27 20:00","2017","02","27","20:00","2.1","","-6.8","","52","","0.0","","23","","6","","","","102.02","","","","","","NA"
"-73.74","45.47","MONTREAL/PIERRE ELLIOTT TRUDEAU INTL","702S006","2017-02-27 21:00","2017","02","27","21:00","1.6","","-5.0","","62","","0.0","","22","","7","","","","102.09","","","","","","NA"
"-73.74","45.47","MONTREAL/PIERRE ELLIOTT TRUDEAU INTL","702S006","2017-02-27 22:00","2017","02","27","22:00","0.7","","-4.2","","70","","0.0","","21","","7","","","","102.13","","","","","","NA"
"-73.74","45.47","MONTREAL/PIERRE ELLIOTT TRUDEAU INTL","702S006","2017-02-27 23:00","2017","02","27","23:00","0.2","","-4.4","","71","","0.0","","21","","3","","","","102.17","","","","","","NA"
"-73.74","45.47","MONTREAL/PIERRE ELLIOTT TRUDEAU INTL","702S006","2017-02-28 00:00","2017","02","28","00:00","-0.6","","-5.0","","72","","0.0","","22","","3","","","","102.20","","","","-2","","NA"
"-73.74","45.47","MONTREAL/PIERRE ELLIOTT TRUDEAU INTL","702S006","2017-02-28 01:00","2017","02","28","01:00","-1.6","","-3.3","","88","","0.0","","18","","6","","","","102.27","","","","-4","","NA"
"-73.74","45.47","MONTREAL/PIERRE ELLIOTT TRUDEAU INTL","702S006","2017-02-28 02:00","2017","02","28","02:00","-2.7","","-4.2","","89","","0.0","","15","","3","","","","102.32","","","","-4","","NA"
"-73.74","45.47","MONTREAL/PIERRE ELLIOTT TRUDEAU INTL","702S006","2017-02-28 03:00","2017","02","28","03:00","-3.6","","-4.9","","91","","0.0","","","","0","","","","102.36","","","","","","NA"
"-73.74","45.47","MONTREAL/PIERRE ELLIOTT TRUDEAU INTL","702S006","2017-02-28 04:00","2017","02","28","04:00","-2.4","","-3.9","","90","","0.0","","22","","3","","","","102.39","","","","-4","","NA"
"-73.74","45.47","MONTREAL/PIERRE ELLIOTT TRUDEAU INTL","702S006","2017-02-28 05:00","2017","02","28","05:00","-3.1","","-4.7","","89","","0.0","","","","0","","","","102.40","","","","","","NA"
"-73.74","45.47","MONTREAL/PIERRE ELLIOTT TRUDEAU INTL","702S006","2017-02-28 06:00","2017","02","28","06:00","-3.0","","-4.9","","87","","0.0","","","","0","","","","102.42","","","","","","NA"
"-73.74","45.47","MONTREAL/PIERRE ELLIOTT TRUDEAU INTL","702S006","2017-02-28 07:00","2017","02","28","07:00","-3.1","","-4.6","","90","","0.0","","12","","3","","","","102.41","","","","-4","","NA"
"-73.74","45.47","MONTREAL/PIERRE ELLIOTT TRUDEAU INTL","702S006","2017-02-28 08:00","2017","02","28","08:00","-0.6","","-3.8","","79","","0.0","","3","","8","","","","102.42","","","","-3","","NA"
"-73.74","45.47","MONTREAL/PIERRE ELLIOTT TRUDEAU INTL","702S006","2017-02-28 09:00","2017","02","28","09:00","1.2","","-3.0","","74","","0.0","","2","","5","","","","102.38","","","","","","NA"
"-73.74","45.47","MONTREAL/PIERRE ELLIOTT TRUDEAU INTL","702S006","2017-02-28 10:00","2017","02","28","10:00","2.7","","-5.6","","54","","0.0","","10","","12","","","","102.30","","","","","","NA"
"-73.74","45.47","MONTREAL/PIERRE ELLIOTT TRUDEAU INTL","702S006","2017-02-28 11:00","2017","02","28","11:00","4.3","","-3.6","","56","","0.0","","12","","13","","","","102.19","","","","","","NA"
"-73.74","45.47","MONTREAL/PIERRE ELLIOTT TRUDEAU INTL","702S006","2017-02-28 12:00","2017","02","28","12:00","5.6","","-4.0","","50","","0.0","","11","","12","","","","102.12","","","","","","NA"
"-73.74","45.47","MONTREAL/PIERRE ELLIOTT TRUDEAU INTL","702S006","2017-02-28 13:00","2017","02","28","13:00","7.0","","-2.8","","50","","0.0","","11","","12","","","","101.99","","","","","","NA"
"-73.74","45.47","MONTREAL/PIERRE ELLIOTT TRUDEAU INTL","702S006","2017-02-28 14:00","2017","02","28","14:00","7.6","","-2.3","","50","","0.0","","11","","20","","","","101.84","","","","","","NA"
"-73.74","45.47","MONTREAL/PIERRE ELLIOTT TRUDEAU INTL","702S006","2017-02-28 15:00","2017","02","28","15:00","8.0","","-0.9","","53","","0.0","","12","","19","","","","101.69","","","","","","NA"
"-73.74","45.47","MONTREAL/PIERRE ELLIOTT TRUDEAU INTL","702S006","2017-02-28 16:00","2017","02","28","16:00","7.9","","-1.0","","53","","0.0","","10","","12","","","","101.60","","","","","","NA"
"-73.74","45.47","MONTREAL/PIERRE ELLIOTT TRUDEAU INTL","702S006","2017-02-28 17:00","2017","02","28","17:00","6.1","","-1.7","","57","","0.0","","4","","13","","","","101.52","","","","","","NA"
"-73.74","45.47","MONTREAL/PIERRE ELLIOTT TRUDEAU INTL","702S006","2017-02-28 18:00","2017","02","28","18:00","5.2","","-2.2","","59","","0.0","","4","","13","","","","101.45","","","","","","NA"
"-73.74","45.47","MONTREAL/PIERRE ELLIOTT TRUDEAU INTL","702S006","2017-02-28 19:00","2017","02","28","19:00","4.0","","-1.1","","70","","0.0","","3","","11","","","","101.29","","","","","","NA"
"-73.74","45.47","MONTREAL/PIERRE ELLIOTT TRUDEAU INTL","702S006","2017-02-28 20:00","2017","02","28","20:00","4.9","","-0.3","","69","","0.0","","5","","7","","","","101.13","","","","","","NA"
"-73.74","45.47","MONTREAL/PIERRE ELLIOTT TRUDEAU INTL","702S006","2017-02-28 21:00","2017","02","28","21:00","6.2","","-0.8","","61","","0.0","","10","","7","","","","100.98","","","","","","NA"
"-73.74","45.47","MONTREAL/PIERRE ELLIOTT TRUDEAU INTL","702S006","2017-02-28 22:00","2017","02","28","22:00","5.7","","-0.4","","65","","0.0","","10","","9","","","","100.84","","","","","","NA"
"-73.74","45.47","MONTREAL/PIERRE ELLIOTT TRUDEAU INTL","702S006","2017-02-28 23:00","2017","02","28","23:00","5.9","","0.3","","67","","0.0","","12","","19","","","","100.61","","","","","","NA"
