"Longitude (x)","Latitude (y)","Station Name","Climate ID","Date/Time (LST)","Year","Month","Day","Time (LST)","Temp (°C)","Temp Flag","Dew Point Temp (°C)","Dew Point Temp Flag","Rel Hum (%)","Rel Hum Flag","Precip. Amount (mm)","Precip. Amount Flag","Wind Dir (10s deg)","Wind Dir Flag","Wind Spd (km/h)","Wind Spd Flag","Visibility (km)","Visibility Flag","Stn Press (kPa)","Stn Press Flag","Hmdx","Hmdx Flag","Wind Chill","Wind Chill Flag","Weather"
"-74.04","45.68","MONTREAL MIRABEL INTL A","7034900","2020-03-01 00:00","2020","03","01","00:00","-13.9","","-16.1","","84","","","","25","","9","","40.2","","100.53","","","","-20","","NA"
"-74.04","45.68","MONTREAL MIRABEL INTL A","7034900","2020-03-01 01:00","2020","03","01","01:00","-14.5","","-16.3","","86","","","","23","","8","","40.2","","100.57","","","","-20","","Mainly Clear"
"-74.04","45.68","MONTREAL MIRABEL INTL A","7034900","2020-03-01 02:00","2020","03","01","02:00","-14.8","","-16.5","","87","","","","25","","10","","40.2","","100.59","","","","-21","","NA"
"-74.04","45.68","MONTREAL MIRABEL INTL A","7034900","2020-03-01 03:00","2020","03","01","03:00","-15.5","","-17.1","","87","","","","25","","8","","40.2","","100.60","","","","-21","","NA"
"-74.04","45.68","MONTREAL MIRABEL INTL A","7034900","2020-03-01 04:00","2020","03","01","04:00","-16.1","","-17.8","","86","","","","26","","9","","40.2","","100.66","","","","-22","","Mainly Clear"
"-74.04","45.68","MONTREAL MIRABEL INTL A","7034900","2020-03-01 05:00","2020","03","01","05:00","-16.7","","-18.6","","86","","","","25","","9","","40.2","","100.69","","","","-23","","NA"
"-74.04","45.68","MONTREAL MIRABEL INTL A","7034900","2020-03-01 06:00","2020","03","01","06:00","-17.4","","-19.5","","84","","","","26","","8","","40.2","","100.75","","","","-23","","NA"
"-74.04","45.68","MONTREAL MIRABEL INTL A","7034900","2020-03-01 07:00","2020","03","01","07:00","-17.9","","-19.9","","84","","","","26","","9","","64.4","","100.81","","","","-24","","Mainly Clear"
"-74.04","45.68","MONTREAL MIRABEL INTL A","7034900","2020-03-01 08:00","2020","03","01","08:00","-15.1","","-17.5","","83","","","","26","","8","","64.4","","100.89","","","","-20","","NA"
"-74.04","45.68","MONTREAL MIRABEL INTL A","7034900","2020-03-01 09:00","2020","03","01","09:00","-12.7","","-15.8","","78","","","","25","","12","","64.4","","100.93","","","","-19","","NA"
"-74.04","45.68","MONTREAL MIRABEL INTL A","7034900","2020-03-01 10:00","2020","03","01","10:00","-10.3","","-15.8","","64","","","","24","","12","","72.4","","100.91","","","","-16","","Clear"
"-74.04","45.68","MONTREAL MIRABEL INTL A","7034900","2020-03-01 11:00","2020","03","01","11:00","-8.9","","-14.8","","63","","","","22","","14","","72.4","","100.87","","","","-15","","NA"
"-74.04","45.68","MONTREAL MIRABEL INTL A","7034900","2020-03-01 12:00","2020","03","01","12:00","-7.4","","-14.3","","58","","","","22","","16","","72.4","","100.88","","","","-14","","NA"
"-74.04","45.68","MONTREAL MIRABEL INTL A","7034900","2020-03-01 13:00","2020","03","01","13:00","-6.6","","-14.2","","55","","","","22","","16","","72.4","","100.84","","","","-13","","Clear"
"-74.04","45.68","MONTREAL MIRABEL INTL A","7034900","2020-03-01 14:00","2020","03","01","14:00","-6.3","","-13.5","","57","","","","22","","17","","72.4","","100.82","","","","-13","","NA"
"-74.04","45.68","MONTREAL MIRABEL INTL A","7034900","2020-03-01 15:00","2020","03","01","15:00","-6.0","","-13.3","","56","","","","22","","17","","72.4","","100.85","","","","-12","","NA"
"-74.04","45.68","MONTREAL MIRABEL INTL A","7034900","2020-03-01 16:00","2020","03","01","16:00","-6.1","","-13.1","","58","","","","23","","18","","64.4","","100.86","","","","-13","","Clear"
"-74.04","45.68","MONTREAL MIRABEL INTL A","7034900","2020-03-01 17:00","2020","03","01","17:00","-6.5","","-13.2","","60","","","","22","","14","","64.4","","100.89","","","","-12","","NA"
"-74.04","45.68","MONTREAL MIRABEL INTL A","7034900","2020-03-01 18:00","2020","03","01","18:00","-7.8","","-13.5","","64","","","","22","","11","","64.4","","100.94","","","","-13","","NA"
"-74.04","45.68","MONTREAL MIRABEL INTL A","7034900","2020-03-01 19:00","2020","03","01","19:00","-8.6","","-13.9","","66","","","","24","","7","","40.2","","100.96","","","","-12","","Mainly Clear"
"-74.04","45.68","MONTREAL MIRABEL INTL A","7034900","2020-03-01 20:00","2020","03","01","20:00","-10.5","","-13.8","","77","","","","23","","5","","40.2","","100.93","","","","-14","","NA"
"-74.04","45.68","MONTREAL MIRABEL INTL A","7034900","2020-03-01 21:00","2020","03","01","21:00","-12.4","","-15.3","","79","","","","1","","3","","40.2","","100.89","","","","-14","","NA"
"-74.04","45.68","MONTREAL MIRABEL INTL A","7034900","2020-03-01 22:00","2020","03","01","22:00","-12.3","","-14.5","","84","","","","","","0","","40.2","","100.87","","","","","","Mainly Clear"
"-74.04","45.68","MONTREAL MIRABEL INTL A","7034900","2020-03-01 23:00","2020","03","01","23:00","-12.9","","-15.1","","84","","","","","","0","","40.2","","100.81","","","","","","NA"
"-74.04","45.68","MONTREAL MIRABEL INTL A","7034900","2020-03-02 00:00","2020","03","02","00:00","-12.5","","-14.8","","83","","","","3","","4","","40.2","","100.77","","","","-15","","NA"
"-74.04","45.68","MONTREAL MIRABEL INTL A","7034900","2020-03-02 01:00","2020","03","02","01:00","-11.0","","-13.4","","83","","","","4","","4","","40.2","","100.74","","","","-13","","Cloudy"
"-74.04","45.68","MONTREAL MIRABEL INTL A","7034900","2020-03-02 02:00","2020","03","02","02:00","-10.4","","-13.2","","80","","","","5","","6","","40.2","","100.69","","","","-14","","NA"
"-74.04","45.68","MONTREAL MIRABEL INTL A","7034900","2020-03-02 03:00","2020","03","02","03:00","-10.1","","-12.9","","80","","","","4","","9","","40.2","","100.57","","","","-15","","NA"
"-74.04","45.68","MONTREAL MIRABEL INTL A","7034900","2020-03-02 04:00","2020","03","02","04:00","-10.0","","-12.7","","81","","","","6","","9","","40.2","","100.42","","","","-15","","Cloudy"
"-74.04","45.68","MONTREAL MIRABEL INTL A","7034900","2020-03-02 05:00","2020","03","02","05:00","-10.1","","-12.7","","81","","","","6","","13","","40.2","","100.29","","","","-16","","NA"
"-74.04","45.68","MONTREAL MIRABEL INTL A","7034900","2020-03-02 06:00","2020","03","02","06:00","-9.6","","-12.2","","82","","","","5","","13","","40.2","","100.16","","","","-16","","NA"
"-74.04","45.68","MONTREAL MIRABEL INTL A","7034900","2020-03-02 07:00","2020","03","02","07:00","-9.2","","-11.7","","83","","","","6","","9","","72.4","","100.07","","","","-14","","Cloudy"
"-74.04","45.68","MONTREAL MIRABEL INTL A","7034900","2020-03-02 08:00","2020","03","02","08:00","-9.1","","-11.7","","82","","","","5","","9","","64.4","","100.00","","","","-14","","NA"
"-74.04","45.68","MONTREAL MIRABEL INTL A","7034900","2020-03-02 09:00","2020","03","02","09:00","-8.3","","-11.2","","80","","","","4","","11","","64.4","","99.91","","","","-14","","NA"
"-74.04","45.68","MONTREAL MIRABEL INTL A","7034900","2020-03-02 10:00","2020","03","02","10:00","-7.3","","-10.7","","77","","","","4","","10","","56.3","","99.85","","","","-12","","Cloudy"
"-74.04","45.68","MONTREAL MIRABEL INTL A","7034900","2020-03-02 11:00","2020","03","02","11:00","-6.4","","-10.2","","74","","","","5","","11","","48.3","","99.73","","","","-11","","NA"
"-74.04","45.68","MONTREAL MIRABEL INTL A","7034900","2020-03-02 12:00","2020","03","02","12:00","-5.4","","-9.8","","71","","","","2","","10","","48.3","","99.63","","","","-10","","NA"
"-74.04","45.68","MONTREAL MIRABEL INTL A","7034900","2020-03-02 13:00","2020","03","02","13:00","-4.6","","-8.8","","73","","","","3","","5","","48.3","","99.50","","","","-7","","Cloudy"
"-74.04","45.68","MONTREAL MIRABEL INTL A","7034900","2020-03-02 14:00","2020","03","02","14:00","-4.0","","-8.1","","74","","","","4","","8","","48.3","","99.38","","","","-7","","NA"
"-74.04","45.68","MONTREAL MIRABEL INTL A","7034900","2020-03-02 15:00","2020","03","02","15:00","-3.5","","-7.3","","75","","","","5","","8","","40.2","","99.31","","","","-7","","Freezing Rain"
"-74.04","45.68","MONTREAL MIRABEL INTL A","7034900","2020-03-02 16:00","2020","03","02","16:00","-2.7","","-4.7","","86","","","","6","","7","","4.8","","99.31","","","","-6","","Freezing Rain,Fog"
"-74.04","45.68","MONTREAL MIRABEL INTL A","7034900","2020-03-02 17:00","2020","03","02","17:00","-2.3","","-3.5","","92","","","","6","","6","","4.8","","99.31","","","","-5","","Freezing Rain,Fog"
"-74.04","45.68","MONTREAL MIRABEL INTL A","7034900","2020-03-02 18:00","2020","03","02","18:00","-1.7","","-2.5","","94","","","","13","","10","","4.8","","99.25","","","","-5","","Freezing Rain,Fog"
"-74.04","45.68","MONTREAL MIRABEL INTL A","7034900","2020-03-02 19:00","2020","03","02","19:00","-1.5","","-2.1","","95","","","","1","","6","","6.4","","99.29","","","","-4","","Fog"
"-74.04","45.68","MONTREAL MIRABEL INTL A","7034900","2020-03-02 20:00","2020","03","02","20:00","-1.3","","-1.9","","96","","","","2","","8","","4.8","","99.30","","","","-4","","Fog"
"-74.04","45.68","MONTREAL MIRABEL INTL A","7034900","2020-03-02 21:00","2020","03","02","21:00","-1.3","","-1.9","","96","","","","4","","5","","4.0","","99.33","","","","-3","","Fog"
"-74.04","45.68","MONTREAL MIRABEL INTL A","7034900","2020-03-02 22:00","2020","03","02","22:00","-1.1","","-1.6","","96","","","","10","","5","","2.0","","99.32","","","","-3","","Fog"
"-74.04","45.68","MONTREAL MIRABEL INTL A","7034900","2020-03-02 23:00","2020","03","02","23:00","-1.1","","-1.6","","97","","","","","","0","","1.6","","99.34","","","","","","Fog"
"-74.04","45.68","MONTREAL MIRABEL INTL A","7034900","2020-03-03 00:00","2020","03","03","00:00","-0.8","","-1.2","","97","","","","","","0","","1.2","","99.35","","","","","","Fog"
"-74.04","45.68","MONTREAL MIRABEL INTL A","7034900","2020-03-03 01:00","2020","03","03","01:00","-0.4","","-0.8","","98","","","","","","0","","1.6","","99.39","","","","","","Fog"
"-74.04","45.68","MONTREAL MIRABEL INTL A","7034900","2020-03-03 02:00","2020","03","03","02:00","-0.7","","-1.0","","98","","","","4","","3","","1.0","","99.41","","","","-2","","Fog"
"-74.04","45.68","MONTREAL MIRABEL INTL A","7034900","2020-03-03 03:00","2020","03","03","03:00","0.0","","-0.2","","98","","","","24","","5","","1.0","","99.44","","","","-2","","Fog"
"-74.04","45.68","MONTREAL MIRABEL INTL A","7034900","2020-03-03 04:00","2020","03","03","04:00","0.8","","0.5","","98","","","","24","","9","","1.2","","99.50","","","","","","Fog"
"-74.04","45.68","MONTREAL MIRABEL INTL A","7034900","2020-03-03 05:00","2020","03","03","05:00","0.4","","0.1","","98","","","","25","","13","","1.2","","99.51","","","","","","Fog"
"-74.04","45.68","MONTREAL MIRABEL INTL A","7034900","2020-03-03 06:00","2020","03","03","06:00","0.0","","-0.3","","98","","","","24","","12","","1.2","","99.52","","","","-4","","Fog"
"-74.04","45.68","MONTREAL MIRABEL INTL A","7034900","2020-03-03 07:00","2020","03","03","07:00","-0.2","","-0.5","","98","","","","25","","7","","1.2","","99.52","","","","-3","","Fog"
"-74.04","45.68","MONTREAL MIRABEL INTL A","7034900","2020-03-03 08:00","2020","03","03","08:00","-0.8","","-1.0","","98","","","","25","","10","","1.2","","99.57","","","","-4","","Fog"
"-74.04","45.68","MONTREAL MIRABEL INTL A","7034900","2020-03-03 09:00","2020","03","03","09:00","-0.8","","-1.0","","98","","","","27","","9","","2.4","","99.59","","","","-4","","Fog"
"-74.04","45.68","MONTREAL MIRABEL INTL A","7034900","2020-03-03 10:00","2020","03","03","10:00","-0.2","","-0.6","","98","","","","24","","8","","4.8","","99.60","","","","-3","","Fog"
"-74.04","45.68","MONTREAL MIRABEL INTL A","7034900","2020-03-03 11:00","2020","03","03","11:00","1.0","","-0.7","","88","","","","21","","8","","24.1","","99.56","","","","","","NA"
"-74.04","45.68","MONTREAL MIRABEL INTL A","7034900","2020-03-03 12:00","2020","03","03","12:00","2.3","","-1.6","","75","","","","25","","6","","72.4","","99.46","","","","","","NA"
"-74.04","45.68","MONTREAL MIRABEL INTL A","7034900","2020-03-03 13:00","2020","03","03","13:00","2.8","","-1.7","","72","","","","6","","4","","72.4","","99.36","","","","","","Mostly Cloudy"
"-74.04","45.68","MONTREAL MIRABEL INTL A","7034900","2020-03-03 14:00","2020","03","03","14:00","3.2","","-1.7","","70","","","","6","","4","","48.3","","99.28","","","","","","NA"
"-74.04","45.68","MONTREAL MIRABEL INTL A","7034900","2020-03-03 15:00","2020","03","03","15:00","3.4","","-1.4","","71","","","","7","","8","","40.2","","99.19","","","","","","NA"
"-74.04","45.68","MONTREAL MIRABEL INTL A","7034900","2020-03-03 16:00","2020","03","03","16:00","2.8","","-0.9","","76","","","","4","","4","","40.2","","99.02","","","","","","Mostly Cloudy"
"-74.04","45.68","MONTREAL MIRABEL INTL A","7034900","2020-03-03 17:00","2020","03","03","17:00","2.2","","-0.4","","83","","","","1","","8","","32.2","","98.91","","","","","","NA"
"-74.04","45.68","MONTREAL MIRABEL INTL A","7034900","2020-03-03 18:00","2020","03","03","18:00","1.4","","-0.1","","90","","","","5","","9","","24.1","","98.81","","","","","","Rain"
"-74.04","45.68","MONTREAL MIRABEL INTL A","7034900","2020-03-03 19:00","2020","03","03","19:00","0.6","","-0.5","","93","","","","5","","12","","9.7","","98.73","","","","","","Rain,Fog"
"-74.04","45.68","MONTREAL MIRABEL INTL A","7034900","2020-03-03 20:00","2020","03","03","20:00","0.6","","-0.2","","95","","","","5","","14","","4.8","","98.57","","","","","","Rain,Fog"
"-74.04","45.68","MONTREAL MIRABEL INTL A","7034900","2020-03-03 21:00","2020","03","03","21:00","0.6","","-0.1","","95","","","","5","","11","","3.2","","98.37","","","","","","Rain,Fog"
"-74.04","45.68","MONTREAL MIRABEL INTL A","7034900","2020-03-03 22:00","2020","03","03","22:00","0.7","","0.1","","95","","","","5","","17","","3.2","","98.20","","","","","","Rain,Fog"
"-74.04","45.68","MONTREAL MIRABEL INTL A","7034900","2020-03-03 23:00","2020","03","03","23:00","1.0","","0.4","","96","","","","2","","4","","3.2","","98.13","","","","","","Rain,Fog"
"-74.04","45.68","MONTREAL MIRABEL INTL A","7034900","2020-03-04 00:00","2020","03","04","00:00","1.0","","0.5","","96","","","","8","","5","","3.2","","98.00","","","","","","Rain,Fog"
"-74.04","45.68","MONTREAL MIRABEL INTL A","7034900","2020-03-04 01:00","2020","03","04","01:00","1.4","","1.0","","97","","","","22","","9","","3.2","","97.96","","","","","","Rain,Fog"
"-74.04","45.68","MONTREAL MIRABEL INTL A","7034900","2020-03-04 02:00","2020","03","04","02:00","1.1","","0.6","","97","","","","24","","26","","9.7","","97.97","","","","","","Rain,Fog"
"-74.04","45.68","MONTREAL MIRABEL INTL A","7034900","2020-03-04 03:00","2020","03","04","03:00","1.2","","0.4","","94","","","","24","","23","","24.1","","98.04","","","","","","Rain"
"-74.04","45.68","MONTREAL MIRABEL INTL A","7034900","2020-03-04 04:00","2020","03","04","04:00","1.6","","0.2","","91","","","","25","","21","","40.2","","98.13","","","","","","Cloudy"
"-74.04","45.68","MONTREAL MIRABEL INTL A","7034900","2020-03-04 05:00","2020","03","04","05:00","1.9","","0.0","","87","","","","25","","21","","40.2","","98.26","","","","","","NA"
"-74.04","45.68","MONTREAL MIRABEL INTL A","7034900","2020-03-04 06:00","2020","03","04","06:00","1.9","","-0.4","","85","","","","25","","14","","40.2","","98.43","","","","","","NA"
"-74.04","45.68","MONTREAL MIRABEL INTL A","7034900","2020-03-04 07:00","2020","03","04","07:00","1.8","","-0.9","","82","","","","24","","23","","32.2","","98.58","","","","","","Cloudy"
"-74.04","45.68","MONTREAL MIRABEL INTL A","7034900","2020-03-04 08:00","2020","03","04","08:00","1.8","","-1.3","","80","","","","25","","18","","32.2","","98.71","","","","","","NA"
"-74.04","45.68","MONTREAL MIRABEL INTL A","7034900","2020-03-04 09:00","2020","03","04","09:00","2.0","","-1.5","","78","","","","25","","19","","32.2","","98.75","","","","","","NA"
"-74.04","45.68","MONTREAL MIRABEL INTL A","7034900","2020-03-04 10:00","2020","03","04","10:00","2.2","","-1.1","","78","","","","27","","9","","16.1","","98.78","","","","","","Snow Showers"
"-74.04","45.68","MONTREAL MIRABEL INTL A","7034900","2020-03-04 11:00","2020","03","04","11:00","2.9","","-4.5","","58","","","","27","","20","","32.2","","98.85","","","","","","NA"
"-74.04","45.68","MONTREAL MIRABEL INTL A","7034900","2020-03-04 12:00","2020","03","04","12:00","3.0","","-4.9","","56","","","","26","","26","","40.2","","98.89","","","","","","NA"
"-74.04","45.68","MONTREAL MIRABEL INTL A","7034900","2020-03-04 13:00","2020","03","04","13:00","2.8","","-5.3","","56","","","","26","","24","","32.2","","98.95","","","","","","Cloudy"
"-74.04","45.68","MONTREAL MIRABEL INTL A","7034900","2020-03-04 14:00","2020","03","04","14:00","2.4","","-3.5","","65","","","","29","","17","","24.1","","99.02","","","","","","Snow"
"-74.04","45.68","MONTREAL MIRABEL INTL A","7034900","2020-03-04 15:00","2020","03","04","15:00","3.0","","-4.0","","60","","","","26","","16","","32.2","","99.10","","","","","","Snow Showers"
"-74.04","45.68","MONTREAL MIRABEL INTL A","7034900","2020-03-04 16:00","2020","03","04","16:00","3.5","","-4.4","","56","","","","29","","18","","32.2","","99.21","","","","","","Mostly Cloudy"
"-74.04","45.68","MONTREAL MIRABEL INTL A","7034900","2020-03-04 17:00","2020","03","04","17:00","2.9","","-4.3","","59","","","","28","","11","","40.2","","99.31","","","","","","NA"
"-74.04","45.68","MONTREAL MIRABEL INTL A","7034900","2020-03-04 18:00","2020","03","04","18:00","2.7","","-2.8","","67","","","","25","","17","","32.2","","99.42","","","","","","NA"
"-74.04","45.68","MONTREAL MIRABEL INTL A","7034900","2020-03-04 19:00","2020","03","04","19:00","2.4","","-2.5","","70","","","","26","","20","","40.2","","99.55","","","","","","Mostly Cloudy"
"-74.04","45.68","MONTREAL MIRABEL INTL A","7034900","2020-03-04 20:00","2020","03","04","20:00","1.6","","-2.9","","72","","","","25","","12","","40.2","","99.59","","","","","","NA"
"-74.04","45.68","MONTREAL MIRABEL INTL A","7034900","2020-03-04 21:00","2020","03","04","21:00","0.9","","-2.9","","75","","","","25","","13","","40.2","","99.65","","","","","","NA"
"-74.04","45.68","MONTREAL MIRABEL INTL A","7034900","2020-03-04 22:00","2020","03","04","22:00","0.2","","-3.2","","78","","","","27","","10","","40.2","","99.70","","","","","","Mainly Clear"
"-74.04","45.68","MONTREAL MIRABEL INTL A","7034900","2020-03-04 23:00","2020","03","04","23:00","-0.8","","-3.6","","81","","","","26","","8","","40.2","","99.76","","","","-4","","NA"
"-74.04","45.68","MONTREAL MIRABEL INTL A","7034900","2020-03-05 00:00","2020","03","05","00:00","-0.8","","-3.6","","81","","","","25","","8","","40.2","","99.83","","","","-4","","NA"
"-74.04","45.68","MONTREAL MIRABEL INTL A","7034900","2020-03-05 01:00","2020","03","05","01:00","-1.6","","-4.1","","83","","","","26","","7","","40.2","","99.98","","","","-4","","Mainly Clear"
"-74.04","45.68","MONTREAL MIRABEL INTL A","7034900","2020-03-05 02:00","2020","03","05","02:00","-2.0","","-4.4","","84","","","","26","","8","","40.2","","100.10","","","","-5","","NA"
"-74.04","45.68","MONTREAL MIRABEL INTL A","7034900","2020-03-05 03:00","2020","03","05","03:00","-2.3","","-4.4","","86","","","","25","","8","","40.2","","100.19","","","","-5","","NA"
"-74.04","45.68","MONTREAL MIRABEL INTL A","7034900","2020-03-05 04:00","2020","03","05","04:00","-3.0","","-4.5","","89","","","","25","","8","","40.2","","100.27","","","","-6","","Mainly Clear"
"-74.04","45.68","MONTREAL MIRABEL INTL A","7034900","2020-03-05 05:00","2020","03","05","05:00","-2.9","","-4.5","","89","","","","26","","6","","40.2","","100.36","","","","-5","","NA"
"-74.04","45.68","MONTREAL MIRABEL INTL A","7034900","2020-03-05 06:00","2020","03","05","06:00","-3.9","","-5.1","","91","","","","22","","5","","40.2","","100.46","","","","-6","","NA"
"-74.04","45.68","MONTREAL MIRABEL INTL A","7034900","2020-03-05 07:00","2020","03","05","07:00","-3.9","","-5.1","","91","","","","","","0","","72.4","","100.54","","","","","","Mainly Clear"
"-74.04","45.68","MONTREAL MIRABEL INTL A","7034900","2020-03-05 08:00","2020","03","05","08:00","-2.3","","-4.2","","87","","","","25","","9","","72.4","","100.66","","","","-6","","NA"
"-74.04","45.68","MONTREAL MIRABEL INTL A","7034900","2020-03-05 09:00","2020","03","05","09:00","-0.8","","-3.7","","81","","","","24","","8","","72.4","","100.73","","","","-4","","NA"
"-74.04","45.68","MONTREAL MIRABEL INTL A","7034900","2020-03-05 10:00","2020","03","05","10:00","0.3","","-3.2","","77","","","","22","","13","","72.4","","100.72","","","","","","Mainly Clear"
"-74.04","45.68","MONTREAL MIRABEL INTL A","7034900","2020-03-05 11:00","2020","03","05","11:00","1.6","","-3.2","","70","","","","22","","16","","72.4","","100.74","","","","","","NA"
"-74.04","45.68","MONTREAL MIRABEL INTL A","7034900","2020-03-05 12:00","2020","03","05","12:00","2.6","","-2.8","","68","","","","23","","14","","72.4","","100.73","","","","","","NA"
"-74.04","45.68","MONTREAL MIRABEL INTL A","7034900","2020-03-05 13:00","2020","03","05","13:00","2.9","","-2.9","","66","","","","23","","21","","72.4","","100.70","","","","","","Mainly Clear"
"-74.04","45.68","MONTREAL MIRABEL INTL A","7034900","2020-03-05 14:00","2020","03","05","14:00","2.9","","-2.5","","68","","","","22","","14","","72.4","","100.76","","","","","","NA"
"-74.04","45.68","MONTREAL MIRABEL INTL A","7034900","2020-03-05 15:00","2020","03","05","15:00","3.0","","-2.4","","67","","","","24","","17","","72.4","","100.78","","","","","","NA"
"-74.04","45.68","MONTREAL MIRABEL INTL A","7034900","2020-03-05 16:00","2020","03","05","16:00","2.2","","-2.6","","71","","","","24","","17","","72.4","","100.81","","","","","","Mostly Cloudy"
"-74.04","45.68","MONTREAL MIRABEL INTL A","7034900","2020-03-05 17:00","2020","03","05","17:00","1.7","","-2.8","","72","","","","23","","11","","72.4","","100.88","","","","","","Snow"
"-74.04","45.68","MONTREAL MIRABEL INTL A","7034900","2020-03-05 18:00","2020","03","05","18:00","1.4","","-2.8","","74","","","","24","","13","","40.2","","100.92","","","","","","Snow"
"-74.04","45.68","MONTREAL MIRABEL INTL A","7034900","2020-03-05 19:00","2020","03","05","19:00","1.1","","-2.6","","76","","","","24","","8","","40.2","","100.96","","","","","","Mostly Cloudy"
"-74.04","45.68","MONTREAL MIRABEL INTL A","7034900","2020-03-05 20:00","2020","03","05","20:00","0.8","","-2.9","","76","","","","25","","4","","40.2","","100.95","","","","","","NA"
"-74.04","45.68","MONTREAL MIRABEL INTL A","7034900","2020-03-05 21:00","2020","03","05","21:00","0.0","","-3.6","","77","","","","27","","3","","40.2","","100.93","","","","-1","","NA"
"-74.04","45.68","MONTREAL MIRABEL INTL A","7034900","2020-03-05 22:00","2020","03","05","22:00","-1.9","","-4.4","","83","","","","22","","4","","40.2","","100.92","","","","-3","","Mostly Cloudy"
"-74.04","45.68","MONTREAL MIRABEL INTL A","7034900","2020-03-05 23:00","2020","03","05","23:00","-1.2","","-3.2","","86","","","","23","","5","","40.2","","100.95","","","","-3","","NA"
"-74.04","45.68","MONTREAL MIRABEL INTL A","7034900","2020-03-06 00:00","2020","03","06","00:00","-1.4","","-3.0","","89","","","","","","0","","40.2","","100.92","","","","","","NA"
"-74.04","45.68","MONTREAL MIRABEL INTL A","7034900","2020-03-06 01:00","2020","03","06","01:00","-1.4","","-3.2","","88","","","","4","","3","","40.2","","100.88","","","","-2","","Mostly Cloudy"
"-74.04","45.68","MONTREAL MIRABEL INTL A","7034900","2020-03-06 02:00","2020","03","06","02:00","-1.6","","-3.2","","89","","","","4","","5","","40.2","","100.83","","","","-3","","NA"
"-74.04","45.68","MONTREAL MIRABEL INTL A","7034900","2020-03-06 03:00","2020","03","06","03:00","-1.3","","-3.0","","89","","","","2","","4","","40.2","","100.79","","","","-3","","NA"
"-74.04","45.68","MONTREAL MIRABEL INTL A","7034900","2020-03-06 04:00","2020","03","06","04:00","-1.2","","-3.0","","87","","","","5","","4","","40.2","","100.79","","","","-3","","Mostly Cloudy"
"-74.04","45.68","MONTREAL MIRABEL INTL A","7034900","2020-03-06 05:00","2020","03","06","05:00","-0.9","","-3.6","","82","","","","5","","10","","40.2","","100.83","","","","-4","","NA"
"-74.04","45.68","MONTREAL MIRABEL INTL A","7034900","2020-03-06 06:00","2020","03","06","06:00","-1.4","","-3.7","","84","","","","6","","10","","9.7","","100.83","","","","-5","","Snow"
"-74.04","45.68","MONTREAL MIRABEL INTL A","7034900","2020-03-06 07:00","2020","03","06","07:00","-1.8","","-3.7","","87","","","","5","","16","","4.8","","100.83","","","","-7","","Snow,Blowing Snow"
"-74.04","45.68","MONTREAL MIRABEL INTL A","7034900","2020-03-06 08:00","2020","03","06","08:00","-2.0","","-3.8","","88","","","","5","","14","","3.2","","100.91","","","","-7","","Snow,Blowing Snow"
"-74.04","45.68","MONTREAL MIRABEL INTL A","7034900","2020-03-06 09:00","2020","03","06","09:00","-1.9","","-3.5","","88","","","","4","","14","","2.4","","100.97","","","","-7","","Snow,Blowing Snow"
"-74.04","45.68","MONTREAL MIRABEL INTL A","7034900","2020-03-06 10:00","2020","03","06","10:00","-1.9","","-3.3","","90","","","","4","","11","","1.6","","100.99","","","","-6","","Snow,Blowing Snow"
"-74.04","45.68","MONTREAL MIRABEL INTL A","7034900","2020-03-06 11:00","2020","03","06","11:00","-1.9","","-3.9","","87","","","","5","","13","","2.4","","100.96","","","","-6","","Snow,Blowing Snow"
"-74.04","45.68","MONTREAL MIRABEL INTL A","7034900","2020-03-06 12:00","2020","03","06","12:00","-1.5","","-4.1","","82","","","","4","","13","","4.0","","100.93","","","","-6","","Snow,Blowing Snow"
"-74.04","45.68","MONTREAL MIRABEL INTL A","7034900","2020-03-06 13:00","2020","03","06","13:00","-0.4","","-5.1","","71","","","","5","","15","","16.1","","100.89","","","","-5","","Snow"
"-74.04","45.68","MONTREAL MIRABEL INTL A","7034900","2020-03-06 14:00","2020","03","06","14:00","-0.3","","-6.0","","65","","","","7","","17","","40.2","","100.90","","","","-5","","NA"
"-74.04","45.68","MONTREAL MIRABEL INTL A","7034900","2020-03-06 15:00","2020","03","06","15:00","0.1","","-7.3","","58","","","","6","","15","","40.2","","100.86","","","","","","NA"
"-74.04","45.68","MONTREAL MIRABEL INTL A","7034900","2020-03-06 16:00","2020","03","06","16:00","0.6","","-9.0","","49","","","","5","","15","","40.2","","100.94","","","","","","Cloudy"
"-74.04","45.68","MONTREAL MIRABEL INTL A","7034900","2020-03-06 17:00","2020","03","06","17:00","-0.2","","-9.7","","49","","","","6","","14","","72.4","","101.01","","","","-4","","NA"
"-74.04","45.68","MONTREAL MIRABEL INTL A","7034900","2020-03-06 18:00","2020","03","06","18:00","-0.9","","-10.9","","47","","","","3","","8","","72.4","","101.10","","","","-4","","NA"
"-74.04","45.68","MONTREAL MIRABEL INTL A","7034900","2020-03-06 19:00","2020","03","06","19:00","-2.0","","-11.1","","50","","","","2","","8","","40.2","","101.11","","","","-5","","Mostly Cloudy"
"-74.04","45.68","MONTREAL MIRABEL INTL A","7034900","2020-03-06 20:00","2020","03","06","20:00","-2.4","","-11.8","","49","","","","3","","11","","40.2","","101.21","","","","-6","","NA"
"-74.04","45.68","MONTREAL MIRABEL INTL A","7034900","2020-03-06 21:00","2020","03","06","21:00","-3.8","","-12.2","","52","","","","2","","10","","40.2","","101.29","","","","-8","","NA"
"-74.04","45.68","MONTREAL MIRABEL INTL A","7034900","2020-03-06 22:00","2020","03","06","22:00","-4.7","","-12.7","","54","","","","2","","11","","40.2","","101.37","","","","-9","","Mainly Clear"
"-74.04","45.68","MONTREAL MIRABEL INTL A","7034900","2020-03-06 23:00","2020","03","06","23:00","-5.5","","-13.2","","55","","","","1","","11","","40.2","","101.45","","","","-10","","NA"
"-74.04","45.68","MONTREAL MIRABEL INTL A","7034900","2020-03-07 00:00","2020","03","07","00:00","-6.1","","-14.0","","54","","","","1","","12","","40.2","","101.46","","","","-11","","NA"
"-74.04","45.68","MONTREAL MIRABEL INTL A","7034900","2020-03-07 01:00","2020","03","07","01:00","-6.6","","-14.5","","54","","","","1","","14","","40.2","","101.51","","","","-12","","Clear"
"-74.04","45.68","MONTREAL MIRABEL INTL A","7034900","2020-03-07 02:00","2020","03","07","02:00","-7.4","","-15.0","","55","","","","1","","10","","40.2","","101.53","","","","-12","","NA"
"-74.04","45.68","MONTREAL MIRABEL INTL A","7034900","2020-03-07 03:00","2020","03","07","03:00","-8.0","","-15.0","","57","","","","36","","12","","40.2","","101.56","","","","-13","","NA"
"-74.04","45.68","MONTREAL MIRABEL INTL A","7034900","2020-03-07 04:00","2020","03","07","04:00","-8.3","","-15.7","","56","","","","35","","11","","40.2","","101.56","","","","-14","","Clear"
"-74.04","45.68","MONTREAL MIRABEL INTL A","7034900","2020-03-07 05:00","2020","03","07","05:00","-9.6","","-16.3","","59","","","","36","","7","","40.2","","101.60","","","","-14","","NA"
"-74.04","45.68","MONTREAL MIRABEL INTL A","7034900","2020-03-07 06:00","2020","03","07","06:00","-11.0","","-17.0","","62","","","","32","","4","","56.3","","101.72","","","","-13","","NA"
"-74.04","45.68","MONTREAL MIRABEL INTL A","7034900","2020-03-07 07:00","2020","03","07","07:00","-10.6","","-17.0","","60","","","","33","","8","","72.4","","101.80","","","","-15","","Mainly Clear"
"-74.04","45.68","MONTREAL MIRABEL INTL A","7034900","2020-03-07 08:00","2020","03","07","08:00","-8.5","","-17.2","","50","","","","","","0","","72.4","","101.89","","","","","","NA"
"-74.04","45.68","MONTREAL MIRABEL INTL A","7034900","2020-03-07 09:00","2020","03","07","09:00","-7.0","","-17.0","","45","","","","20","","5","","72.4","","101.91","","","","-10","","NA"
"-74.04","45.68","MONTREAL MIRABEL INTL A","7034900","2020-03-07 10:00","2020","03","07","10:00","-5.0","","-18.0","","36","","","","27","","7","","72.4","","101.96","","","","-8","","Mainly Clear"
"-74.04","45.68","MONTREAL MIRABEL INTL A","7034900","2020-03-07 11:00","2020","03","07","11:00","-4.0","","-16.3","","38","","","","21","","9","","72.4","","101.90","","","","-8","","NA"
"-74.04","45.68","MONTREAL MIRABEL INTL A","7034900","2020-03-07 12:00","2020","03","07","12:00","-2.8","","-17.1","","33","","","","22","","14","","72.4","","101.85","","","","-8","","NA"
"-74.04","45.68","MONTREAL MIRABEL INTL A","7034900","2020-03-07 13:00","2020","03","07","13:00","-2.6","","-15.7","","36","","","","24","","17","","72.4","","101.80","","","","-8","","Clear"
"-74.04","45.68","MONTREAL MIRABEL INTL A","7034900","2020-03-07 14:00","2020","03","07","14:00","-2.2","","-14.4","","39","","","","23","","16","","72.4","","101.73","","","","-7","","NA"
"-74.04","45.68","MONTREAL MIRABEL INTL A","7034900","2020-03-07 15:00","2020","03","07","15:00","-1.9","","-13.1","","42","","","","22","","18","","72.4","","101.67","","","","-7","","NA"
"-74.04","45.68","MONTREAL MIRABEL INTL A","7034900","2020-03-07 16:00","2020","03","07","16:00","-1.8","","-12.9","","43","","","","23","","17","","72.4","","101.64","","","","-7","","Clear"
"-74.04","45.68","MONTREAL MIRABEL INTL A","7034900","2020-03-07 17:00","2020","03","07","17:00","-1.9","","-12.5","","44","","","","24","","21","","72.4","","101.64","","","","-8","","NA"
"-74.04","45.68","MONTREAL MIRABEL INTL A","7034900","2020-03-07 18:00","2020","03","07","18:00","-3.2","","-13.4","","45","","","","24","","16","","40.2","","101.65","","","","-9","","NA"
"-74.04","45.68","MONTREAL MIRABEL INTL A","7034900","2020-03-07 19:00","2020","03","07","19:00","-4.1","","-13.5","","48","","","","25","","10","","40.2","","101.66","","","","-8","","Mainly Clear"
"-74.04","45.68","MONTREAL MIRABEL INTL A","7034900","2020-03-07 20:00","2020","03","07","20:00","-4.1","","-14.4","","45","","","","24","","13","","40.2","","101.65","","","","-9","","NA"
"-74.04","45.68","MONTREAL MIRABEL INTL A","7034900","2020-03-07 21:00","2020","03","07","21:00","-3.9","","-14.8","","43","","","","24","","13","","40.2","","101.63","","","","-9","","NA"
"-74.04","45.68","MONTREAL MIRABEL INTL A","7034900","2020-03-07 22:00","2020","03","07","22:00","-4.1","","-14.9","","43","","","","24","","14","","40.2","","101.57","","","","-9","","Mainly Clear"
"-74.04","45.68","MONTREAL MIRABEL INTL A","7034900","2020-03-07 23:00","2020","03","07","23:00","-4.1","","-13.9","","47","","","","23","","13","","40.2","","101.50","","","","-9","","NA"
"-74.04","45.68","MONTREAL MIRABEL INTL A","7034900","2020-03-08 00:00","2020","03","08","00:00","-4.4","","-13.0","","52","","","","25","","6","","40.2","","101.51","","","","-7","","NA"
"-74.04","45.68","MONTREAL MIRABEL INTL A","7034900","2020-03-08 01:00","2020","03","08","01:00","-4.0","","-10.3","","62","","","","24","","12","","40.2","","101.44","","","","-9","","Mostly Cloudy"
"-74.04","45.68","MONTREAL MIRABEL INTL A","7034900","2020-03-08 02:00","2020","03","08","02:00","-3.6","","-9.4","","64","","","","24","","13","","40.2","","101.41","","","","-8","","NA"
"-74.04","45.68","MONTREAL MIRABEL INTL A","7034900","2020-03-08 03:00","2020","03","08","03:00","-2.6","","-8.1","","66","","","","24","","16","","40.2","","101.39","","","","-8","","NA"
"-74.04","45.68","MONTREAL MIRABEL INTL A","7034900","2020-03-08 04:00","2020","03","08","04:00","-2.5","","-7.9","","67","","","","25","","14","","40.2","","101.45","","","","-7","","Mostly Cloudy"
"-74.04","45.68","MONTREAL MIRABEL INTL A","7034900","2020-03-08 05:00","2020","03","08","05:00","-3.4","","-8.9","","66","","","","24","","9","","72.4","","101.50","","","","-7","","NA"
"-74.04","45.68","MONTREAL MIRABEL INTL A","7034900","2020-03-08 06:00","2020","03","08","06:00","-3.6","","-8.8","","67","","","","25","","7","","72.4","","101.56","","","","-7","","NA"
"-74.04","45.68","MONTREAL MIRABEL INTL A","7034900","2020-03-08 07:00","2020","03","08","07:00","-3.5","","-8.4","","69","","","","25","","7","","72.4","","101.62","","","","-6","","Mostly Cloudy"
"-74.04","45.68","MONTREAL MIRABEL INTL A","7034900","2020-03-08 08:00","2020","03","08","08:00","-2.0","","-7.5","","66","","","","25","","9","","72.4","","101.66","","","","-5","","NA"
"-74.04","45.68","MONTREAL MIRABEL INTL A","7034900","2020-03-08 09:00","2020","03","08","09:00","-0.7","","-5.7","","69","","","","24","","13","","72.4","","101.66","","","","-5","","NA"
"-74.04","45.68","MONTREAL MIRABEL INTL A","7034900","2020-03-08 10:00","2020","03","08","10:00","0.6","","-4.7","","68","","","","25","","17","","40.2","","101.66","","","","","","Mostly Cloudy"
"-74.04","45.68","MONTREAL MIRABEL INTL A","7034900","2020-03-08 11:00","2020","03","08","11:00","2.0","","-5.0","","60","","","","23","","12","","40.2","","101.62","","","","","","NA"
"-74.04","45.68","MONTREAL MIRABEL INTL A","7034900","2020-03-08 12:00","2020","03","08","12:00","2.6","","-6.1","","53","","","","24","","17","","40.2","","101.54","","","","","","NA"
"-74.04","45.68","MONTREAL MIRABEL INTL A","7034900","2020-03-08 13:00","2020","03","08","13:00","3.7","","-5.8","","50","","","","25","","14","","40.2","","101.48","","","","","","Mostly Cloudy"
"-74.04","45.68","MONTREAL MIRABEL INTL A","7034900","2020-03-08 14:00","2020","03","08","14:00","3.8","","-5.2","","52","","","","25","","16","","40.2","","101.41","","","","","","NA"
"-74.04","45.68","MONTREAL MIRABEL INTL A","7034900","2020-03-08 15:00","2020","03","08","15:00","4.3","","-5.1","","50","","","","25","","14","","72.4","","101.37","","","","","","NA"
"-74.04","45.68","MONTREAL MIRABEL INTL A","7034900","2020-03-08 16:00","2020","03","08","16:00","4.4","","-5.3","","49","","","","25","","11","","72.4","","101.31","","","","","","Mostly Cloudy"
"-74.04","45.68","MONTREAL MIRABEL INTL A","7034900","2020-03-08 17:00","2020","03","08","17:00","3.8","","-5.0","","53","","","","22","","7","","72.4","","101.24","","","","","","NA"
"-74.04","45.68","MONTREAL MIRABEL INTL A","7034900","2020-03-08 18:00","2020","03","08","18:00","2.9","","-4.6","","58","","","","17","","4","","40.2","","101.21","","","","","","NA"
"-74.04","45.68","MONTREAL MIRABEL INTL A","7034900","2020-03-08 19:00","2020","03","08","19:00","1.9","","-4.6","","62","","","","16","","5","","40.2","","101.17","","","","","","Mostly Cloudy"
"-74.04","45.68","MONTREAL MIRABEL INTL A","7034900","2020-03-08 20:00","2020","03","08","20:00","2.1","","-4.0","","64","","","","15","","8","","40.2","","101.13","","","","","","NA"
"-74.04","45.68","MONTREAL MIRABEL INTL A","7034900","2020-03-08 21:00","2020","03","08","21:00","2.1","","-2.7","","70","","","","16","","7","","40.2","","101.07","","","","","","NA"
"-74.04","45.68","MONTREAL MIRABEL INTL A","7034900","2020-03-08 22:00","2020","03","08","22:00","1.3","","-3.0","","73","","","","","","0","","40.2","","101.00","","","","","","Mostly Cloudy"
"-74.04","45.68","MONTREAL MIRABEL INTL A","7034900","2020-03-08 23:00","2020","03","08","23:00","-0.4","","-3.8","","78","","","","","","0","","40.2","","100.95","","","","","","NA"
"-74.04","45.68","MONTREAL MIRABEL INTL A","7034900","2020-03-09 00:00","2020","03","09","00:00","-0.1","","-3.0","","81","","","","","","0","","40.2","","100.93","","","","","","NA"
"-74.04","45.68","MONTREAL MIRABEL INTL A","7034900","2020-03-09 01:00","2020","03","09","01:00","0.1","","-2.7","","82","","","","","","0","","40.2","","100.97","","","","","","Mostly Cloudy"
"-74.04","45.68","MONTREAL MIRABEL INTL A","7034900","2020-03-09 02:00","2020","03","09","02:00","0.6","","-3.0","","77","","","","28","","3","","40.2","","100.96","","","","","","NA"
"-74.04","45.68","MONTREAL MIRABEL INTL A","7034900","2020-03-09 03:00","2020","03","09","03:00","2.4","","-2.6","","70","","","","26","","5","","40.2","","100.91","","","","","","NA"
"-74.04","45.68","MONTREAL MIRABEL INTL A","7034900","2020-03-09 04:00","2020","03","09","04:00","3.9","","-3.1","","60","","","","24","","10","","40.2","","100.88","","","","","","Cloudy"
"-74.04","45.68","MONTREAL MIRABEL INTL A","7034900","2020-03-09 05:00","2020","03","09","05:00","3.6","","-3.4","","61","","","","25","","9","","40.2","","100.87","","","","","","NA"
"-74.04","45.68","MONTREAL MIRABEL INTL A","7034900","2020-03-09 06:00","2020","03","09","06:00","2.9","","-3.6","","62","","","","24","","5","","72.4","","100.88","","","","","","NA"
"-74.04","45.68","MONTREAL MIRABEL INTL A","7034900","2020-03-09 07:00","2020","03","09","07:00","2.1","","-3.9","","64","","","","28","","4","","72.4","","100.91","","","","","","Mostly Cloudy"
"-74.04","45.68","MONTREAL MIRABEL INTL A","7034900","2020-03-09 08:00","2020","03","09","08:00","5.2","","-3.0","","55","","","","24","","9","","72.4","","100.91","","","","","","NA"
"-74.04","45.68","MONTREAL MIRABEL INTL A","7034900","2020-03-09 09:00","2020","03","09","09:00","6.7","","-2.7","","51","","","","24","","9","","72.4","","100.93","","","","","","NA"
"-74.04","45.68","MONTREAL MIRABEL INTL A","7034900","2020-03-09 10:00","2020","03","09","10:00","7.9","","-2.5","","48","","","","24","","13","","72.4","","100.96","","","","","","Mainly Clear"
"-74.04","45.68","MONTREAL MIRABEL INTL A","7034900","2020-03-09 11:00","2020","03","09","11:00","8.8","","-2.4","","46","","","","24","","11","","72.4","","100.96","","","","","","NA"
"-74.04","45.68","MONTREAL MIRABEL INTL A","7034900","2020-03-09 12:00","2020","03","09","12:00","9.8","","-2.1","","43","","","","26","","11","","72.4","","100.96","","","","","","NA"
"-74.04","45.68","MONTREAL MIRABEL INTL A","7034900","2020-03-09 13:00","2020","03","09","13:00","3.6","","-2.6","","64","","","","6","","12","","72.4","","101.00","","","","","","Mostly Cloudy"
"-74.04","45.68","MONTREAL MIRABEL INTL A","7034900","2020-03-09 14:00","2020","03","09","14:00","3.1","","-2.8","","65","","","","5","","13","","72.4","","100.96","","","","","","NA"
"-74.04","45.68","MONTREAL MIRABEL INTL A","7034900","2020-03-09 15:00","2020","03","09","15:00","2.4","","-2.6","","70","","","","4","","7","","72.4","","100.94","","","","","","NA"
"-74.04","45.68","MONTREAL MIRABEL INTL A","7034900","2020-03-09 16:00","2020","03","09","16:00","1.2","","-2.9","","74","","","","5","","13","","40.2","","100.96","","","","","","Cloudy"
"-74.04","45.68","MONTREAL MIRABEL INTL A","7034900","2020-03-09 17:00","2020","03","09","17:00","0.3","","-3.3","","77","","","","5","","13","","48.3","","101.09","","","","","","NA"
"-74.04","45.68","MONTREAL MIRABEL INTL A","7034900","2020-03-09 18:00","2020","03","09","18:00","-0.9","","-4.0","","79","","","","3","","6","","48.3","","101.02","","","","-3","","Freezing Rain"
"-74.04","45.68","MONTREAL MIRABEL INTL A","7034900","2020-03-09 19:00","2020","03","09","19:00","-1.2","","-3.3","","85","","","","35","","7","","16.1","","101.13","","","","-4","","Freezing Rain"
"-74.04","45.68","MONTREAL MIRABEL INTL A","7034900","2020-03-09 20:00","2020","03","09","20:00","-1.5","","-2.8","","91","","","","6","","10","","24.1","","101.06","","","","-5","","Freezing Rain"
"-74.04","45.68","MONTREAL MIRABEL INTL A","7034900","2020-03-09 21:00","2020","03","09","21:00","-2.0","","-3.2","","92","","","","6","","8","","24.1","","101.08","","","","-5","","NA"
"-74.04","45.68","MONTREAL MIRABEL INTL A","7034900","2020-03-09 22:00","2020","03","09","22:00","-2.3","","-3.5","","92","","","","6","","13","","12.9","","101.08","","","","-7","","Freezing Rain"
"-74.04","45.68","MONTREAL MIRABEL INTL A","7034900","2020-03-09 23:00","2020","03","09","23:00","-2.5","","-3.6","","92","","","","5","","16","","8.1","","100.94","","","","-8","","Freezing Rain,Fog"
"-74.04","45.68","MONTREAL MIRABEL INTL A","7034900","2020-03-10 00:00","2020","03","10","00:00","-2.6","","-3.6","","93","","","","6","","8","","9.7","","100.98","","","","-6","","Fog"
"-74.04","45.68","MONTREAL MIRABEL INTL A","7034900","2020-03-10 01:00","2020","03","10","01:00","-3.0","","-4.0","","92","","","","5","","7","","9.7","","100.90","","","","-6","","Fog"
"-74.04","45.68","MONTREAL MIRABEL INTL A","7034900","2020-03-10 02:00","2020","03","10","02:00","-3.2","","-4.2","","93","","","","5","","8","","8.1","","100.84","","","","-6","","Freezing Drizzle,Fog"
"-74.04","45.68","MONTREAL MIRABEL INTL A","7034900","2020-03-10 03:00","2020","03","10","03:00","-3.1","","-4.0","","93","","","","5","","8","","6.4","","100.72","","","","-6","","Freezing Rain,Fog"
"-74.04","45.68","MONTREAL MIRABEL INTL A","7034900","2020-03-10 04:00","2020","03","10","04:00","-2.7","","-3.6","","94","","","","6","","7","","6.4","","100.67","","","","-6","","Freezing Rain,Fog"
"-74.04","45.68","MONTREAL MIRABEL INTL A","7034900","2020-03-10 05:00","2020","03","10","05:00","-2.6","","-3.3","","95","","","","4","","5","","4.8","","100.56","","","","-5","","Freezing Rain,Fog"
"-74.04","45.68","MONTREAL MIRABEL INTL A","7034900","2020-03-10 06:00","2020","03","10","06:00","-2.4","","-3.0","","95","","","","8","","11","","4.8","","100.43","","","","-6","","Freezing Rain,Fog"
"-74.04","45.68","MONTREAL MIRABEL INTL A","7034900","2020-03-10 07:00","2020","03","10","07:00","-2.2","","-2.8","","96","","","","3","","7","","4.0","","100.36","","","","-5","","Freezing Rain,Fog"
"-74.04","45.68","MONTREAL MIRABEL INTL A","7034900","2020-03-10 08:00","2020","03","10","08:00","-1.7","","-2.3","","96","","","","5","","9","","3.2","","100.25","","","","-5","","Freezing Rain,Fog"
"-74.04","45.68","MONTREAL MIRABEL INTL A","7034900","2020-03-10 09:00","2020","03","10","09:00","-1.3","","-1.8","","96","","","","5","","8","","2.4","","100.13","","","","-4","","Freezing Rain,Fog"
"-74.04","45.68","MONTREAL MIRABEL INTL A","7034900","2020-03-10 10:00","2020","03","10","10:00","-1.0","","-1.5","","96","","","","4","","12","","2.8","","100.01","","","","-5","","Freezing Rain,Fog"
"-74.04","45.68","MONTREAL MIRABEL INTL A","7034900","2020-03-10 11:00","2020","03","10","11:00","-0.4","","-0.9","","96","","","","4","","9","","3.2","","99.88","","","","-4","","Freezing Rain,Fog"
"-74.04","45.68","MONTREAL MIRABEL INTL A","7034900","2020-03-10 12:00","2020","03","10","12:00","0.0","","-0.5","","96","","","","4","","8","","1.6","","99.76","","","","-3","","Freezing Rain,Fog"
"-74.04","45.68","MONTREAL MIRABEL INTL A","7034900","2020-03-10 13:00","2020","03","10","13:00","0.1","","-0.4","","97","","","","2","","6","","1.6","","99.67","","","","","","Rain,Fog"
"-74.04","45.68","MONTREAL MIRABEL INTL A","7034900","2020-03-10 14:00","2020","03","10","14:00","0.6","","0.1","","97","","","","2","","3","","1.6","","99.63","","","","","","Rain,Fog"
"-74.04","45.68","MONTREAL MIRABEL INTL A","7034900","2020-03-10 15:00","2020","03","10","15:00","1.1","","0.6","","97","","","","","","0","","1.6","","99.63","","","","","","Rain,Fog"
"-74.04","45.68","MONTREAL MIRABEL INTL A","7034900","2020-03-10 16:00","2020","03","10","16:00","1.6","","1.1","","97","","","","","","0","","2.4","","99.67","","","","","","Rain,Fog"
"-74.04","45.68","MONTREAL MIRABEL INTL A","7034900","2020-03-10 17:00","2020","03","10","17:00","2.6","","2.2","","97","","","","24","","9","","1.6","","99.74","","","","","","Rain,Fog"
"-74.04","45.68","MONTREAL MIRABEL INTL A","7034900","2020-03-10 18:00","2020","03","10","18:00","3.0","","2.7","","98","","","","28","","8","","16.1","","99.88","","","","","","NA"
"-74.04","45.68","MONTREAL MIRABEL INTL A","7034900","2020-03-10 19:00","2020","03","10","19:00","3.8","","2.0","","88","","","","30","","14","","32.2","","100.08","","","","","","Cloudy"
"-74.04","45.68","MONTREAL MIRABEL INTL A","7034900","2020-03-10 20:00","2020","03","10","20:00","2.5","","0.1","","84","","","","31","","13","","32.2","","100.25","","","","","","NA"
"-74.04","45.68","MONTREAL MIRABEL INTL A","7034900","2020-03-10 21:00","2020","03","10","21:00","1.9","","-1.1","","80","","","","32","","11","","40.2","","100.45","","","","","","NA"
"-74.04","45.68","MONTREAL MIRABEL INTL A","7034900","2020-03-10 22:00","2020","03","10","22:00","0.6","","-3.3","","75","","","","29","","10","","40.2","","100.62","","","","","","Mostly Cloudy"
"-74.04","45.68","MONTREAL MIRABEL INTL A","7034900","2020-03-10 23:00","2020","03","10","23:00","-0.2","","-4.5","","73","","","","28","","10","","40.2","","100.76","","","","-4","","NA"
"-74.04","45.68","MONTREAL MIRABEL INTL A","7034900","2020-03-11 00:00","2020","03","11","00:00","-1.4","","-6.5","","68","","","","32","","16","","40.2","","100.85","","","","-6","","NA"
"-74.04","45.68","MONTREAL MIRABEL INTL A","7034900","2020-03-11 01:00","2020","03","11","01:00","-2.2","","-7.5","","67","","","","31","","13","","40.2","","100.95","","","","-7","","Mostly Cloudy"
"-74.04","45.68","MONTREAL MIRABEL INTL A","7034900","2020-03-11 02:00","2020","03","11","02:00","-3.1","","-8.7","","65","","","","32","","19","","40.2","","101.01","","","","-9","","NA"
"-74.04","45.68","MONTREAL MIRABEL INTL A","7034900","2020-03-11 03:00","2020","03","11","03:00","-4.5","","-10.2","","65","","","","27","","10","","40.2","","101.03","","","","-9","","NA"
"-74.04","45.68","MONTREAL MIRABEL INTL A","7034900","2020-03-11 04:00","2020","03","11","04:00","-5.2","","-11.3","","62","","","","31","","13","","40.2","","101.14","","","","-10","","Mostly Cloudy"
"-74.04","45.68","MONTREAL MIRABEL INTL A","7034900","2020-03-11 05:00","2020","03","11","05:00","-6.2","","-13.3","","57","","","","32","","21","","40.2","","101.20","","","","-13","","NA"
"-74.04","45.68","MONTREAL MIRABEL INTL A","7034900","2020-03-11 06:00","2020","03","11","06:00","-7.3","","-13.5","","61","","","","31","","5","","48.3","","101.28","","","","-10","","NA"
"-74.04","45.68","MONTREAL MIRABEL INTL A","7034900","2020-03-11 07:00","2020","03","11","07:00","-7.0","","-13.5","","60","","","","30","","9","","48.3","","101.33","","","","-11","","Mainly Clear"
"-74.04","45.68","MONTREAL MIRABEL INTL A","7034900","2020-03-11 08:00","2020","03","11","08:00","-5.9","","-13.4","","56","","","","32","","5","","72.4","","101.40","","","","-8","","NA"
"-74.04","45.68","MONTREAL MIRABEL INTL A","7034900","2020-03-11 09:00","2020","03","11","09:00","-5.1","","-15.4","","45","","","","33","","13","","72.4","","101.44","","","","-10","","NA"
"-74.04","45.68","MONTREAL MIRABEL INTL A","7034900","2020-03-11 10:00","2020","03","11","10:00","-4.1","","-14.5","","44","","","","25","","9","","72.4","","101.39","","","","-8","","Mainly Clear"
"-74.04","45.68","MONTREAL MIRABEL INTL A","7034900","2020-03-11 11:00","2020","03","11","11:00","-3.6","","-13.0","","49","","","","22","","14","","72.4","","101.36","","","","-9","","NA"
"-74.04","45.68","MONTREAL MIRABEL INTL A","7034900","2020-03-11 12:00","2020","03","11","12:00","-3.1","","-12.0","","51","","","","20","","16","","72.4","","101.31","","","","-8","","NA"
"-74.04","45.68","MONTREAL MIRABEL INTL A","7034900","2020-03-11 13:00","2020","03","11","13:00","-2.7","","-11.8","","50","","","","21","","19","","72.4","","101.26","","","","-8","","Mostly Cloudy"
"-74.04","45.68","MONTREAL MIRABEL INTL A","7034900","2020-03-11 14:00","2020","03","11","14:00","-2.4","","-11.2","","51","","","","21","","17","","72.4","","101.17","","","","-8","","NA"
"-74.04","45.68","MONTREAL MIRABEL INTL A","7034900","2020-03-11 15:00","2020","03","11","15:00","-2.2","","-10.7","","52","","","","21","","14","","48.3","","101.16","","","","-7","","NA"
"-74.04","45.68","MONTREAL MIRABEL INTL A","7034900","2020-03-11 16:00","2020","03","11","16:00","-2.4","","-10.4","","54","","","","21","","12","","48.3","","101.14","","","","-7","","Mostly Cloudy"
"-74.04","45.68","MONTREAL MIRABEL INTL A","7034900","2020-03-11 17:00","2020","03","11","17:00","-2.4","","-10.3","","55","","","","22","","12","","40.2","","101.16","","","","-7","","NA"
"-74.04","45.68","MONTREAL MIRABEL INTL A","7034900","2020-03-11 18:00","2020","03","11","18:00","-2.7","","-10.2","","56","","","","22","","10","","24.1","","101.18","","","","-7","","NA"
"-74.04","45.68","MONTREAL MIRABEL INTL A","7034900","2020-03-11 19:00","2020","03","11","19:00","-3.0","","-10.4","","57","","","","23","","9","","24.1","","101.20","","","","-7","","Mostly Cloudy"
"-74.04","45.68","MONTREAL MIRABEL INTL A","7034900","2020-03-11 20:00","2020","03","11","20:00","-3.9","","-10.1","","62","","","","22","","7","","40.2","","101.21","","","","-7","","NA"
"-74.04","45.68","MONTREAL MIRABEL INTL A","7034900","2020-03-11 21:00","2020","03","11","21:00","-5.4","","-10.2","","69","","","","22","","5","","40.2","","101.19","","","","-8","","NA"
"-74.04","45.68","MONTREAL MIRABEL INTL A","7034900","2020-03-11 22:00","2020","03","11","22:00","-5.2","","-10.6","","66","","","","29","","6","","40.2","","101.18","","","","-8","","Mainly Clear"
"-74.04","45.68","MONTREAL MIRABEL INTL A","7034900","2020-03-11 23:00","2020","03","11","23:00","-7.0","","-10.6","","76","","","","","","0","","40.2","","101.18","","","","","","NA"
"-74.04","45.68","MONTREAL MIRABEL INTL A","7034900","2020-03-12 00:00","2020","03","12","00:00","-5.9","","-9.6","","76","","","","8","","5","","40.2","","101.16","","","","-8","","NA"
"-74.04","45.68","MONTREAL MIRABEL INTL A","7034900","2020-03-12 01:00","2020","03","12","01:00","-5.5","","-9.4","","74","","","","6","","5","","40.2","","101.17","","","","-8","","Cloudy"
"-74.04","45.68","MONTREAL MIRABEL INTL A","7034900","2020-03-12 02:00","2020","03","12","02:00","-5.4","","-9.6","","73","","","","5","","8","","40.2","","101.17","","","","-9","","NA"
"-74.04","45.68","MONTREAL MIRABEL INTL A","7034900","2020-03-12 03:00","2020","03","12","03:00","-5.4","","-10.1","","70","","","","5","","10","","40.2","","101.14","","","","-10","","NA"
"-74.04","45.68","MONTREAL MIRABEL INTL A","7034900","2020-03-12 04:00","2020","03","12","04:00","-5.6","","-10.3","","70","","","","7","","11","","40.2","","101.19","","","","-10","","Mostly Cloudy"
"-74.04","45.68","MONTREAL MIRABEL INTL A","7034900","2020-03-12 05:00","2020","03","12","05:00","-5.7","","-10.0","","72","","","","6","","13","","40.2","","101.22","","","","-11","","NA"
"-74.04","45.68","MONTREAL MIRABEL INTL A","7034900","2020-03-12 06:00","2020","03","12","06:00","-5.8","","-10.1","","72","","","","6","","11","","40.2","","101.25","","","","-11","","NA"
"-74.04","45.68","MONTREAL MIRABEL INTL A","7034900","2020-03-12 07:00","2020","03","12","07:00","-5.9","","-10.4","","71","","","","5","","11","","40.2","","101.30","","","","-11","","Cloudy"
"-74.04","45.68","MONTREAL MIRABEL INTL A","7034900","2020-03-12 08:00","2020","03","12","08:00","-5.7","","-10.5","","69","","","","4","","13","","40.2","","101.35","","","","-11","","NA"
"-74.04","45.68","MONTREAL MIRABEL INTL A","7034900","2020-03-12 09:00","2020","03","12","09:00","-5.0","","-10.2","","67","","","","5","","13","","40.2","","101.31","","","","-10","","NA"
"-74.04","45.68","MONTREAL MIRABEL INTL A","7034900","2020-03-12 10:00","2020","03","12","10:00","-3.6","","-10.4","","59","","","","5","","17","","40.2","","101.30","","","","-9","","Mostly Cloudy"
"-74.04","45.68","MONTREAL MIRABEL INTL A","7034900","2020-03-12 11:00","2020","03","12","11:00","-2.5","","-10.0","","57","","","","5","","17","","40.2","","101.21","","","","-8","","NA"
"-74.04","45.68","MONTREAL MIRABEL INTL A","7034900","2020-03-12 12:00","2020","03","12","12:00","-1.7","","-9.8","","54","","","","6","","18","","48.3","","101.21","","","","-7","","NA"
"-74.04","45.68","MONTREAL MIRABEL INTL A","7034900","2020-03-12 13:00","2020","03","12","13:00","-1.0","","-9.1","","55","","","","6","","14","","48.3","","101.16","","","","-5","","Mostly Cloudy"
"-74.04","45.68","MONTREAL MIRABEL INTL A","7034900","2020-03-12 14:00","2020","03","12","14:00","-0.6","","-9.2","","52","","","","5","","17","","48.3","","101.15","","","","-6","","NA"
"-74.04","45.68","MONTREAL MIRABEL INTL A","7034900","2020-03-12 15:00","2020","03","12","15:00","0.0","","-8.2","","54","","","","5","","13","","48.3","","101.10","","","","-4","","NA"
"-74.04","45.68","MONTREAL MIRABEL INTL A","7034900","2020-03-12 16:00","2020","03","12","16:00","0.2","","-7.5","","56","","","","5","","11","","48.3","","101.09","","","","","","Mostly Cloudy"
"-74.04","45.68","MONTREAL MIRABEL INTL A","7034900","2020-03-12 17:00","2020","03","12","17:00","-0.2","","-7.1","","60","","","","6","","10","","40.2","","101.06","","","","-4","","NA"
"-74.04","45.68","MONTREAL MIRABEL INTL A","7034900","2020-03-12 18:00","2020","03","12","18:00","-0.8","","-7.5","","61","","","","6","","12","","40.2","","101.03","","","","-5","","NA"
"-74.04","45.68","MONTREAL MIRABEL INTL A","7034900","2020-03-12 19:00","2020","03","12","19:00","-1.0","","-7.4","","62","","","","5","","10","","40.2","","100.99","","","","-5","","Cloudy"
"-74.04","45.68","MONTREAL MIRABEL INTL A","7034900","2020-03-12 20:00","2020","03","12","20:00","-0.9","","-7.0","","63","","","","6","","12","","40.2","","100.94","","","","-5","","NA"
"-74.04","45.68","MONTREAL MIRABEL INTL A","7034900","2020-03-12 21:00","2020","03","12","21:00","-1.0","","-6.2","","68","","","","5","","16","","40.2","","100.90","","","","-6","","NA"
"-74.04","45.68","MONTREAL MIRABEL INTL A","7034900","2020-03-12 22:00","2020","03","12","22:00","-1.5","","-5.2","","76","","","","6","","14","","40.2","","100.79","","","","-6","","Cloudy"
"-74.04","45.68","MONTREAL MIRABEL INTL A","7034900","2020-03-12 23:00","2020","03","12","23:00","-1.8","","-4.9","","79","","","","7","","10","","40.2","","100.65","","","","-5","","NA"
"-74.04","45.68","MONTREAL MIRABEL INTL A","7034900","2020-03-13 00:00","2020","03","13","00:00","-2.0","","-5.0","","80","","","","5","","10","","40.2","","100.62","","","","-6","","NA"
"-74.04","45.68","MONTREAL MIRABEL INTL A","7034900","2020-03-13 01:00","2020","03","13","01:00","-1.8","","-4.8","","80","","","","6","","12","","40.2","","100.49","","","","-6","","Cloudy"
"-74.04","45.68","MONTREAL MIRABEL INTL A","7034900","2020-03-13 02:00","2020","03","13","02:00","-1.8","","-5.0","","79","","","","6","","13","","40.2","","100.32","","","","-6","","NA"
"-74.04","45.68","MONTREAL MIRABEL INTL A","7034900","2020-03-13 03:00","2020","03","13","03:00","-0.9","","-3.8","","80","","","","5","","12","","40.2","","100.16","","","","-5","","NA"
"-74.04","45.68","MONTREAL MIRABEL INTL A","7034900","2020-03-13 04:00","2020","03","13","04:00","-0.6","","-2.7","","86","","","","6","","13","","40.2","","99.98","","","","-5","","Cloudy"
"-74.04","45.68","MONTREAL MIRABEL INTL A","7034900","2020-03-13 05:00","2020","03","13","05:00","0.1","","-1.2","","91","","","","5","","12","","40.2","","99.81","","","","","","Rain"
"-74.04","45.68","MONTREAL MIRABEL INTL A","7034900","2020-03-13 06:00","2020","03","13","06:00","2.4","","1.1","","91","","","","9","","17","","40.2","","99.58","","","","","","Rain"
"-74.04","45.68","MONTREAL MIRABEL INTL A","7034900","2020-03-13 07:00","2020","03","13","07:00","3.3","","1.2","","86","","","","10","","17","","6.4","","99.36","","","","","","Rain Showers,Fog"
"-74.04","45.68","MONTREAL MIRABEL INTL A","7034900","2020-03-13 08:00","2020","03","13","08:00","3.2","","2.1","","93","","","","11","","18","","8.1","","99.11","","","","","","Rain,Fog"
"-74.04","45.68","MONTREAL MIRABEL INTL A","7034900","2020-03-13 09:00","2020","03","13","09:00","4.0","","3.0","","94","","","","13","","17","","9.7","","98.93","","","","","","Rain,Fog"
"-74.04","45.68","MONTREAL MIRABEL INTL A","7034900","2020-03-13 10:00","2020","03","13","10:00","4.2","","3.2","","94","","","","17","","17","","4.8","","98.77","","","","","","Rain,Fog"
"-74.04","45.68","MONTREAL MIRABEL INTL A","7034900","2020-03-13 11:00","2020","03","13","11:00","4.0","","3.4","","96","","","","22","","11","","6.4","","98.74","","","","","","Rain,Fog"
"-74.04","45.68","MONTREAL MIRABEL INTL A","7034900","2020-03-13 12:00","2020","03","13","12:00","7.0","","6.3","","95","","","","22","","26","","19.3","","98.84","","","","","","NA"
"-74.04","45.68","MONTREAL MIRABEL INTL A","7034900","2020-03-13 13:00","2020","03","13","13:00","7.4","","2.3","","70","","","","24","","28","","72.4","","98.98","","","","","","Mostly Cloudy"
"-74.04","45.68","MONTREAL MIRABEL INTL A","7034900","2020-03-13 14:00","2020","03","13","14:00","6.3","","0.0","","64","","","","24","","18","","72.4","","99.15","","","","","","NA"
"-74.04","45.68","MONTREAL MIRABEL INTL A","7034900","2020-03-13 15:00","2020","03","13","15:00","6.2","","-1.5","","58","","","","24","","21","","72.4","","99.27","","","","","","NA"
"-74.04","45.68","MONTREAL MIRABEL INTL A","7034900","2020-03-13 16:00","2020","03","13","16:00","5.2","","-1.5","","62","","","","24","","33","","72.4","","99.39","","","","","","Mostly Cloudy"
"-74.04","45.68","MONTREAL MIRABEL INTL A","7034900","2020-03-13 17:00","2020","03","13","17:00","4.3","","-2.5","","61","","","","24","","29","","72.4","","99.53","","","","","","NA"
"-74.04","45.68","MONTREAL MIRABEL INTL A","7034900","2020-03-13 18:00","2020","03","13","18:00","3.7","","-2.7","","63","","","","24","","28","","72.4","","99.60","","","","","","NA"
"-74.04","45.68","MONTREAL MIRABEL INTL A","7034900","2020-03-13 19:00","2020","03","13","19:00","3.5","","-3.0","","62","","","","24","","27","","40.2","","99.71","","","","","","Mostly Cloudy"
"-74.04","45.68","MONTREAL MIRABEL INTL A","7034900","2020-03-13 20:00","2020","03","13","20:00","3.3","","-3.5","","61","","","","24","","24","","40.2","","99.79","","","","","","NA"
"-74.04","45.68","MONTREAL MIRABEL INTL A","7034900","2020-03-13 21:00","2020","03","13","21:00","3.0","","-3.4","","63","","","","24","","29","","40.2","","99.88","","","","","","NA"
"-74.04","45.68","MONTREAL MIRABEL INTL A","7034900","2020-03-13 22:00","2020","03","13","22:00","2.7","","-3.4","","65","","","","24","","22","","40.2","","99.94","","","","","","Cloudy"
"-74.04","45.68","MONTREAL MIRABEL INTL A","7034900","2020-03-13 23:00","2020","03","13","23:00","2.6","","-3.6","","64","","","","24","","22","","40.2","","99.96","","","","","","NA"
"-74.04","45.68","MONTREAL MIRABEL INTL A","7034900","2020-03-14 00:00","2020","03","14","00:00","2.6","","-4.3","","60","","","","25","","28","","40.2","","100.00","","","","","","NA"
"-74.04","45.68","MONTREAL MIRABEL INTL A","7034900","2020-03-14 01:00","2020","03","14","01:00","2.3","","-4.0","","64","","","","25","","25","","40.2","","100.11","","","","","","Cloudy"
"-74.04","45.68","MONTREAL MIRABEL INTL A","7034900","2020-03-14 02:00","2020","03","14","02:00","1.8","","-4.0","","65","","","","25","","31","","40.2","","100.19","","","","","","NA"
"-74.04","45.68","MONTREAL MIRABEL INTL A","7034900","2020-03-14 03:00","2020","03","14","03:00","1.5","","-4.9","","62","","","","24","","30","","40.2","","100.26","","","","","","NA"
"-74.04","45.68","MONTREAL MIRABEL INTL A","7034900","2020-03-14 04:00","2020","03","14","04:00","1.2","","-5.0","","63","","","","25","","27","","40.2","","100.37","","","","","","Mostly Cloudy"
"-74.04","45.68","MONTREAL MIRABEL INTL A","7034900","2020-03-14 05:00","2020","03","14","05:00","0.7","","-4.2","","70","","","","27","","25","","40.2","","100.58","","","","","","Snow Showers"
"-74.04","45.68","MONTREAL MIRABEL INTL A","7034900","2020-03-14 06:00","2020","03","14","06:00","0.3","","-4.9","","68","","","","26","","28","","48.3","","100.67","","","","","","NA"
"-74.04","45.68","MONTREAL MIRABEL INTL A","7034900","2020-03-14 07:00","2020","03","14","07:00","0.4","","-7.0","","58","","","","26","","20","","64.4","","100.89","","","","","","Mainly Clear"
"-74.04","45.68","MONTREAL MIRABEL INTL A","7034900","2020-03-14 08:00","2020","03","14","08:00","0.9","","-6.7","","57","","","","27","","17","","64.4","","100.98","","","","","","NA"
"-74.04","45.68","MONTREAL MIRABEL INTL A","7034900","2020-03-14 09:00","2020","03","14","09:00","1.6","","-7.0","","53","","","","27","","28","","64.4","","101.06","","","","","","NA"
"-74.04","45.68","MONTREAL MIRABEL INTL A","7034900","2020-03-14 10:00","2020","03","14","10:00","2.2","","-6.6","","52","","","","29","","20","","64.4","","101.12","","","","","","Mostly Cloudy"
"-74.04","45.68","MONTREAL MIRABEL INTL A","7034900","2020-03-14 11:00","2020","03","14","11:00","2.9","","-6.1","","51","","","","26","","21","","64.4","","101.20","","","","","","NA"
"-74.04","45.68","MONTREAL MIRABEL INTL A","7034900","2020-03-14 12:00","2020","03","14","12:00","3.8","","-7.2","","45","","","","27","","18","","72.4","","101.25","","","","","","NA"
"-74.04","45.68","MONTREAL MIRABEL INTL A","7034900","2020-03-14 13:00","2020","03","14","13:00","4.8","","-9.0","","36","","","","28","","16","","64.4","","101.28","","","","","","Mainly Clear"
"-74.04","45.68","MONTREAL MIRABEL INTL A","7034900","2020-03-14 14:00","2020","03","14","14:00","4.6","","-9.0","","37","","","","28","","17","","72.4","","101.30","","","","","","NA"
"-74.04","45.68","MONTREAL MIRABEL INTL A","7034900","2020-03-14 15:00","2020","03","14","15:00","4.9","","-11.0","","31","","","","32","","22","","72.4","","101.37","","","","","","NA"
"-74.04","45.68","MONTREAL MIRABEL INTL A","7034900","2020-03-14 16:00","2020","03","14","16:00","5.0","","-11.3","","30","","","","31","","16","","72.4","","101.46","","","","","","Clear"
"-74.04","45.68","MONTREAL MIRABEL INTL A","7034900","2020-03-14 17:00","2020","03","14","17:00","3.7","","-11.8","","31","","","","30","","9","","64.4","","101.58","","","","","","NA"
"-74.04","45.68","MONTREAL MIRABEL INTL A","7034900","2020-03-14 18:00","2020","03","14","18:00","2.3","","-12.7","","32","","","","29","","18","","72.4","","101.71","","","","","","NA"
"-74.04","45.68","MONTREAL MIRABEL INTL A","7034900","2020-03-14 19:00","2020","03","14","19:00","1.2","","-12.9","","34","","","","31","","10","","40.2","","101.80","","","","","","Mostly Cloudy"
"-74.04","45.68","MONTREAL MIRABEL INTL A","7034900","2020-03-14 20:00","2020","03","14","20:00","0.7","","-12.6","","36","","","","31","","16","","40.2","","101.89","","","","","","NA"
"-74.04","45.68","MONTREAL MIRABEL INTL A","7034900","2020-03-14 21:00","2020","03","14","21:00","-0.1","","-12.0","","41","","","","32","","10","","40.2","","101.91","","","","-3","","NA"
"-74.04","45.68","MONTREAL MIRABEL INTL A","7034900","2020-03-14 22:00","2020","03","14","22:00","-1.1","","-12.2","","43","","","","34","","14","","40.2","","102.01","","","","-6","","Mostly Cloudy"
"-74.04","45.68","MONTREAL MIRABEL INTL A","7034900","2020-03-14 23:00","2020","03","14","23:00","-2.5","","-12.8","","45","","","","30","","7","","40.2","","102.04","","","","-5","","NA"
"-74.04","45.68","MONTREAL MIRABEL INTL A","7034900","2020-03-15 00:00","2020","03","15","00:00","-3.1","","-12.7","","48","","","","33","","14","","40.2","","102.09","","","","-8","","NA"
"-74.04","45.68","MONTREAL MIRABEL INTL A","7034900","2020-03-15 01:00","2020","03","15","01:00","-3.9","","-12.5","","51","","","","32","","16","","40.2","","102.15","","","","-9","","Mainly Clear"
"-74.04","45.68","MONTREAL MIRABEL INTL A","7034900","2020-03-15 02:00","2020","03","15","02:00","-5.7","","-12.5","","59","","","","1","","8","","40.2","","102.18","","","","-9","","NA"
"-74.04","45.68","MONTREAL MIRABEL INTL A","7034900","2020-03-15 03:00","2020","03","15","03:00","-6.5","","-13.2","","59","","","","36","","9","","40.2","","102.26","","","","-11","","NA"
"-74.04","45.68","MONTREAL MIRABEL INTL A","7034900","2020-03-15 04:00","2020","03","15","04:00","-7.7","","-13.0","","66","","","","2","","7","","40.2","","102.38","","","","-11","","Mainly Clear"
"-74.04","45.68","MONTREAL MIRABEL INTL A","7034900","2020-03-15 05:00","2020","03","15","05:00","-8.1","","-13.7","","65","","","","1","","9","","40.2","","102.49","","","","-13","","NA"
"-74.04","45.68","MONTREAL MIRABEL INTL A","7034900","2020-03-15 06:00","2020","03","15","06:00","-8.8","","-14.3","","65","","","","36","","10","","48.3","","102.56","","","","-14","","NA"
"-74.04","45.68","MONTREAL MIRABEL INTL A","7034900","2020-03-15 07:00","2020","03","15","07:00","-9.2","","-14.5","","65","","","","35","","13","","48.3","","102.64","","","","-15","","Mainly Clear"
"-74.04","45.68","MONTREAL MIRABEL INTL A","7034900","2020-03-15 08:00","2020","03","15","08:00","-8.5","","-15.0","","60","","","","1","","12","","48.3","","102.68","","","","-14","","NA"
"-74.04","45.68","MONTREAL MIRABEL INTL A","7034900","2020-03-15 09:00","2020","03","15","09:00","-7.7","","-15.5","","54","","","","4","","9","","48.3","","102.73","","","","-12","","NA"
"-74.04","45.68","MONTREAL MIRABEL INTL A","7034900","2020-03-15 10:00","2020","03","15","10:00","-6.9","","-15.4","","51","","","","3","","8","","48.3","","102.75","","","","-11","","Clear"
"-74.04","45.68","MONTREAL MIRABEL INTL A","7034900","2020-03-15 11:00","2020","03","15","11:00","-5.7","","-15.0","","48","","","","11","","7","","48.3","","102.73","","","","-9","","NA"
"-74.04","45.68","MONTREAL MIRABEL INTL A","7034900","2020-03-15 12:00","2020","03","15","12:00","-4.8","","-14.5","","47","","","","18","","9","","56.3","","102.74","","","","-9","","NA"
"-74.04","45.68","MONTREAL MIRABEL INTL A","7034900","2020-03-15 13:00","2020","03","15","13:00","-4.1","","-14.0","","46","","","","22","","9","","56.3","","102.66","","","","-8","","Clear"
"-74.04","45.68","MONTREAL MIRABEL INTL A","7034900","2020-03-15 14:00","2020","03","15","14:00","-3.6","","-12.9","","49","","","","22","","15","","56.3","","102.64","","","","-9","","NA"
"-74.04","45.68","MONTREAL MIRABEL INTL A","7034900","2020-03-15 15:00","2020","03","15","15:00","-2.8","","-12.7","","46","","","","21","","16","","56.3","","102.61","","","","-8","","NA"
"-74.04","45.68","MONTREAL MIRABEL INTL A","7034900","2020-03-15 16:00","2020","03","15","16:00","-1.7","","-13.0","","42","","","","21","","13","","56.3","","102.59","","","","-6","","Clear"
"-74.04","45.68","MONTREAL MIRABEL INTL A","7034900","2020-03-15 17:00","2020","03","15","17:00","-2.1","","-13.2","","42","","","","20","","11","","56.3","","102.57","","","","-6","","NA"
"-74.04","45.68","MONTREAL MIRABEL INTL A","7034900","2020-03-15 18:00","2020","03","15","18:00","-2.3","","-15.4","","36","","","","27","","7","","72.4","","102.60","","","","-5","","NA"
"-74.04","45.68","MONTREAL MIRABEL INTL A","7034900","2020-03-15 19:00","2020","03","15","19:00","-3.3","","-15.8","","38","","","","32","","10","","40.2","","102.69","","","","-7","","Clear"
"-74.04","45.68","MONTREAL MIRABEL INTL A","7034900","2020-03-15 20:00","2020","03","15","20:00","-4.3","","-16.8","","38","","","","32","","11","","40.2","","102.73","","","","-9","","NA"
"-74.04","45.68","MONTREAL MIRABEL INTL A","7034900","2020-03-15 21:00","2020","03","15","21:00","-6.0","","-17.0","","42","","","","35","","8","","40.2","","102.78","","","","-10","","NA"
"-74.04","45.68","MONTREAL MIRABEL INTL A","7034900","2020-03-15 22:00","2020","03","15","22:00","-7.3","","-17.4","","45","","","","","","0","","40.2","","102.84","","","","","","Clear"
"-74.04","45.68","MONTREAL MIRABEL INTL A","7034900","2020-03-15 23:00","2020","03","15","23:00","-8.9","","-16.5","","55","","","","5","","4","","40.2","","102.85","","","","-11","","NA"
"-74.04","45.68","MONTREAL MIRABEL INTL A","7034900","2020-03-16 00:00","2020","03","16","00:00","-8.5","","-18.0","","47","","","","4","","4","","40.2","","102.89","","","","-11","","NA"
"-74.04","45.68","MONTREAL MIRABEL INTL A","7034900","2020-03-16 01:00","2020","03","16","01:00","-9.8","","-17.7","","53","","","","4","","3","","40.2","","102.91","","","","-12","","Clear"
"-74.04","45.68","MONTREAL MIRABEL INTL A","7034900","2020-03-16 02:00","2020","03","16","02:00","-11.4","","-17.9","","59","","","","5","","6","","40.2","","102.88","","","","-15","","NA"
"-74.04","45.68","MONTREAL MIRABEL INTL A","7034900","2020-03-16 03:00","2020","03","16","03:00","-12.1","","-18.9","","57","","","","3","","3","","40.2","","102.91","","","","-14","","NA"
"-74.04","45.68","MONTREAL MIRABEL INTL A","7034900","2020-03-16 04:00","2020","03","16","04:00","-13.0","","-18.9","","62","","","","3","","3","","40.2","","102.91","","","","-15","","Clear"
"-74.04","45.68","MONTREAL MIRABEL INTL A","7034900","2020-03-16 05:00","2020","03","16","05:00","-13.5","","-18.9","","64","","","","","","0","","40.2","","102.91","","","","","","NA"
"-74.04","45.68","MONTREAL MIRABEL INTL A","7034900","2020-03-16 06:00","2020","03","16","06:00","-13.1","","-19.2","","61","","","","","","0","","40.2","","102.92","","","","","","NA"
"-74.04","45.68","MONTREAL MIRABEL INTL A","7034900","2020-03-16 07:00","2020","03","16","07:00","-13.1","","-19.0","","61","","","","5","","5","","56.3","","102.92","","","","-16","","Clear"
"-74.04","45.68","MONTREAL MIRABEL INTL A","7034900","2020-03-16 08:00","2020","03","16","08:00","-10.9","","-18.6","","54","","","","6","","6","","56.3","","102.92","","","","-15","","NA"
"-74.04","45.68","MONTREAL MIRABEL INTL A","7034900","2020-03-16 09:00","2020","03","16","09:00","-9.8","","-17.7","","53","","","","2","","7","","56.3","","102.89","","","","-14","","NA"
"-74.04","45.68","MONTREAL MIRABEL INTL A","7034900","2020-03-16 10:00","2020","03","16","10:00","-8.7","","-16.8","","52","","","","3","","8","","56.3","","102.81","","","","-13","","Mostly Cloudy"
"-74.04","45.68","MONTREAL MIRABEL INTL A","7034900","2020-03-16 11:00","2020","03","16","11:00","-7.2","","-16.5","","48","","","","5","","10","","56.3","","102.69","","","","-12","","NA"
"-74.04","45.68","MONTREAL MIRABEL INTL A","7034900","2020-03-16 12:00","2020","03","16","12:00","-5.6","","-15.6","","46","","","","3","","8","","56.3","","102.60","","","","-9","","NA"
"-74.04","45.68","MONTREAL MIRABEL INTL A","7034900","2020-03-16 13:00","2020","03","16","13:00","-4.4","","-14.9","","44","","","","2","","9","","56.3","","102.44","","","","-8","","Mostly Cloudy"
"-74.04","45.68","MONTREAL MIRABEL INTL A","7034900","2020-03-16 14:00","2020","03","16","14:00","-3.4","","-13.0","","48","","","","4","","10","","56.3","","102.29","","","","-7","","NA"
"-74.04","45.68","MONTREAL MIRABEL INTL A","7034900","2020-03-16 15:00","2020","03","16","15:00","-2.9","","-13.0","","46","","","","4","","12","","56.3","","102.13","","","","-7","","NA"
"-74.04","45.68","MONTREAL MIRABEL INTL A","7034900","2020-03-16 16:00","2020","03","16","16:00","-3.1","","-13.2","","46","","","","4","","14","","56.3","","102.05","","","","-8","","Mostly Cloudy"
"-74.04","45.68","MONTREAL MIRABEL INTL A","7034900","2020-03-16 17:00","2020","03","16","17:00","-3.6","","-12.7","","50","","","","5","","10","","48.3","","101.92","","","","-8","","NA"
"-74.04","45.68","MONTREAL MIRABEL INTL A","7034900","2020-03-16 18:00","2020","03","16","18:00","-4.4","","-13.2","","51","","","","5","","9","","40.2","","101.81","","","","-8","","NA"
"-74.04","45.68","MONTREAL MIRABEL INTL A","7034900","2020-03-16 19:00","2020","03","16","19:00","-5.1","","-11.8","","60","","","","5","","9","","40.2","","101.73","","","","-9","","Cloudy"
"-74.04","45.68","MONTREAL MIRABEL INTL A","7034900","2020-03-16 20:00","2020","03","16","20:00","-5.6","","-11.1","","65","","","","4","","5","","40.2","","101.67","","","","-8","","NA"
"-74.04","45.68","MONTREAL MIRABEL INTL A","7034900","2020-03-16 21:00","2020","03","16","21:00","-5.9","","-11.8","","63","","","","5","","7","","40.2","","101.56","","","","-9","","NA"
"-74.04","45.68","MONTREAL MIRABEL INTL A","7034900","2020-03-16 22:00","2020","03","16","22:00","-5.9","","-11.7","","64","","","","4","","7","","40.2","","101.43","","","","-9","","Cloudy"
"-74.04","45.68","MONTREAL MIRABEL INTL A","7034900","2020-03-16 23:00","2020","03","16","23:00","-5.7","","-12.3","","60","","","","6","","9","","40.2","","101.26","","","","-10","","NA"
"-74.04","45.68","MONTREAL MIRABEL INTL A","7034900","2020-03-17 00:00","2020","03","17","00:00","-5.3","","-12.4","","57","","","","2","","6","","40.2","","101.14","","","","-8","","NA"
"-74.04","45.68","MONTREAL MIRABEL INTL A","7034900","2020-03-17 01:00","2020","03","17","01:00","-4.6","","-11.7","","58","","","","9","","4","","40.2","","101.03","","","","-6","","Cloudy"
"-74.04","45.68","MONTREAL MIRABEL INTL A","7034900","2020-03-17 02:00","2020","03","17","02:00","-4.3","","-10.6","","62","","","","4","","8","","40.2","","100.97","","","","-8","","NA"
"-74.04","45.68","MONTREAL MIRABEL INTL A","7034900","2020-03-17 03:00","2020","03","17","03:00","-4.3","","-9.5","","67","","","","6","","7","","32.2","","100.83","","","","-7","","Snow"
"-74.04","45.68","MONTREAL MIRABEL INTL A","7034900","2020-03-17 04:00","2020","03","17","04:00","-3.6","","-7.2","","76","","","","1","","7","","16.1","","100.74","","","","-7","","Snow"
"-74.04","45.68","MONTREAL MIRABEL INTL A","7034900","2020-03-17 05:00","2020","03","17","05:00","-3.5","","-5.3","","87","","","","2","","4","","9.7","","100.65","","","","-5","","Snow,Ice Pellets"
"-74.04","45.68","MONTREAL MIRABEL INTL A","7034900","2020-03-17 06:00","2020","03","17","06:00","-0.2","","-1.0","","94","","","","16","","10","","4.8","","100.54","","","","-4","","Snow"
"-74.04","45.68","MONTREAL MIRABEL INTL A","7034900","2020-03-17 07:00","2020","03","17","07:00","0.0","","-0.6","","95","","","","16","","10","","2.4","","100.47","","","","-3","","Snow"
"-74.04","45.68","MONTREAL MIRABEL INTL A","7034900","2020-03-17 08:00","2020","03","17","08:00","0.2","","-0.4","","96","","","","17","","10","","1.6","","100.37","","","","","","Snow"
"-74.04","45.68","MONTREAL MIRABEL INTL A","7034900","2020-03-17 09:00","2020","03","17","09:00","0.4","","-0.1","","97","","","","19","","9","","1.2","","100.32","","","","","","Snow"
"-74.04","45.68","MONTREAL MIRABEL INTL A","7034900","2020-03-17 10:00","2020","03","17","10:00","1.6","","1.1","","96","","","","22","","17","","4.8","","100.28","","","","","","Rain,Snow"
"-74.04","45.68","MONTREAL MIRABEL INTL A","7034900","2020-03-17 11:00","2020","03","17","11:00","1.9","","0.9","","93","","","","22","","25","","4.8","","100.25","","","","","","Rain,Snow"
"-74.04","45.68","MONTREAL MIRABEL INTL A","7034900","2020-03-17 12:00","2020","03","17","12:00","1.8","","0.7","","93","","","","23","","18","","12.9","","100.26","","","","","","Rain"
"-74.04","45.68","MONTREAL MIRABEL INTL A","7034900","2020-03-17 13:00","2020","03","17","13:00","2.0","","0.8","","92","","","","22","","19","","12.9","","100.27","","","","","","Rain"
"-74.04","45.68","MONTREAL MIRABEL INTL A","7034900","2020-03-17 14:00","2020","03","17","14:00","3.3","","1.1","","85","","","","23","","18","","16.1","","100.25","","","","","","Rain"
"-74.04","45.68","MONTREAL MIRABEL INTL A","7034900","2020-03-17 15:00","2020","03","17","15:00","3.8","","0.4","","78","","","","25","","19","","24.1","","100.28","","","","","","NA"
"-74.04","45.68","MONTREAL MIRABEL INTL A","7034900","2020-03-17 16:00","2020","03","17","16:00","3.9","","1.4","","84","","","","26","","11","","24.1","","100.31","","","","","","Mostly Cloudy"
"-74.04","45.68","MONTREAL MIRABEL INTL A","7034900","2020-03-17 17:00","2020","03","17","17:00","4.2","","-0.2","","73","","","","24","","15","","40.2","","100.36","","","","","","NA"
"-74.04","45.68","MONTREAL MIRABEL INTL A","7034900","2020-03-17 18:00","2020","03","17","18:00","3.1","","-0.6","","76","","","","26","","10","","48.3","","100.49","","","","","","Rain Showers"
"-74.04","45.68","MONTREAL MIRABEL INTL A","7034900","2020-03-17 19:00","2020","03","17","19:00","1.8","","-1.6","","79","","","","26","","9","","40.2","","100.68","","","","","","Rain Showers"
"-74.04","45.68","MONTREAL MIRABEL INTL A","7034900","2020-03-17 20:00","2020","03","17","20:00","0.9","","-2.0","","81","","","","27","","7","","40.2","","100.83","","","","","","NA"
"-74.04","45.68","MONTREAL MIRABEL INTL A","7034900","2020-03-17 21:00","2020","03","17","21:00","0.5","","-3.4","","75","","","","24","","5","","40.2","","100.95","","","","","","NA"
"-74.04","45.68","MONTREAL MIRABEL INTL A","7034900","2020-03-17 22:00","2020","03","17","22:00","-1.5","","-4.8","","78","","","","22","","5","","40.2","","101.04","","","","-3","","Mainly Clear"
"-74.04","45.68","MONTREAL MIRABEL INTL A","7034900","2020-03-17 23:00","2020","03","17","23:00","-0.4","","-3.8","","78","","","","23","","10","","40.2","","101.15","","","","-4","","NA"
"-74.04","45.68","MONTREAL MIRABEL INTL A","7034900","2020-03-18 00:00","2020","03","18","00:00","-1.2","","-4.0","","81","","","","24","","7","","40.2","","101.24","","","","-4","","NA"
"-74.04","45.68","MONTREAL MIRABEL INTL A","7034900","2020-03-18 01:00","2020","03","18","01:00","-2.3","","-4.8","","82","","","","30","","6","","40.2","","101.41","","","","-5","","Mainly Clear"
"-74.04","45.68","MONTREAL MIRABEL INTL A","7034900","2020-03-18 02:00","2020","03","18","02:00","-3.6","","-6.1","","83","","","","","","0","","40.2","","101.52","","","","","","NA"
"-74.04","45.68","MONTREAL MIRABEL INTL A","7034900","2020-03-18 03:00","2020","03","18","03:00","-3.1","","-7.1","","74","","","","","","0","","40.2","","101.61","","","","","","NA"
"-74.04","45.68","MONTREAL MIRABEL INTL A","7034900","2020-03-18 04:00","2020","03","18","04:00","-4.8","","-6.9","","85","","","","22","","3","","40.2","","101.76","","","","-6","","Mainly Clear"
"-74.04","45.68","MONTREAL MIRABEL INTL A","7034900","2020-03-18 05:00","2020","03","18","05:00","-5.8","","-11.1","","66","","","","","","0","","40.2","","101.86","","","","","","NA"
"-74.04","45.68","MONTREAL MIRABEL INTL A","7034900","2020-03-18 06:00","2020","03","18","06:00","-5.0","","-11.6","","60","","","","32","","3","","40.2","","101.99","","","","-6","","NA"
"-74.04","45.68","MONTREAL MIRABEL INTL A","7034900","2020-03-18 07:00","2020","03","18","07:00","-5.1","","-10.3","","67","","","","4","","5","","48.3","","102.08","","","","-7","","Mainly Clear"
"-74.04","45.68","MONTREAL MIRABEL INTL A","7034900","2020-03-18 08:00","2020","03","18","08:00","-3.4","","-11.1","","56","","","","1","","4","","48.3","","102.17","","","","-5","","NA"
"-74.04","45.68","MONTREAL MIRABEL INTL A","7034900","2020-03-18 09:00","2020","03","18","09:00","-2.0","","-14.6","","38","","","","8","","5","","72.4","","102.27","","","","-4","","NA"
"-74.04","45.68","MONTREAL MIRABEL INTL A","7034900","2020-03-18 10:00","2020","03","18","10:00","-1.6","","-16.6","","31","","","","","","0","","72.4","","102.29","","","","","","Mostly Cloudy"
"-74.04","45.68","MONTREAL MIRABEL INTL A","7034900","2020-03-18 11:00","2020","03","18","11:00","-0.7","","-16.0","","31","","","","6","","5","","72.4","","102.25","","","","-2","","NA"
"-74.04","45.68","MONTREAL MIRABEL INTL A","7034900","2020-03-18 12:00","2020","03","18","12:00","0.2","","-13.6","","35","","","","17","","10","","72.4","","102.23","","","","","","NA"
"-74.04","45.68","MONTREAL MIRABEL INTL A","7034900","2020-03-18 13:00","2020","03","18","13:00","0.5","","-14.7","","31","","","","16","","8","","72.4","","102.18","","","","","","Mostly Cloudy"
"-74.04","45.68","MONTREAL MIRABEL INTL A","7034900","2020-03-18 14:00","2020","03","18","14:00","1.0","","-13.6","","33","","","","15","","8","","48.3","","102.14","","","","","","NA"
"-74.04","45.68","MONTREAL MIRABEL INTL A","7034900","2020-03-18 15:00","2020","03","18","15:00","1.8","","-11.3","","37","","","","14","","7","","48.3","","102.10","","","","","","NA"
"-74.04","45.68","MONTREAL MIRABEL INTL A","7034900","2020-03-18 16:00","2020","03","18","16:00","1.7","","-10.3","","41","","","","12","","7","","40.2","","102.02","","","","","","Cloudy"
"-74.04","45.68","MONTREAL MIRABEL INTL A","7034900","2020-03-18 17:00","2020","03","18","17:00","1.7","","-10.1","","41","","","","12","","4","","40.2","","102.00","","","","","","NA"
"-74.04","45.68","MONTREAL MIRABEL INTL A","7034900","2020-03-18 18:00","2020","03","18","18:00","0.9","","-8.0","","51","","","","8","","4","","40.2","","102.03","","","","","","NA"
"-74.04","45.68","MONTREAL MIRABEL INTL A","7034900","2020-03-18 19:00","2020","03","18","19:00","-0.1","","-7.3","","58","","","","8","","9","","40.2","","102.03","","","","-3","","Cloudy"
"-74.04","45.68","MONTREAL MIRABEL INTL A","7034900","2020-03-18 20:00","2020","03","18","20:00","-0.4","","-7.0","","61","","","","36","","5","","40.2","","102.02","","","","-2","","NA"
"-74.04","45.68","MONTREAL MIRABEL INTL A","7034900","2020-03-18 21:00","2020","03","18","21:00","-0.9","","-6.4","","66","","","","6","","4","","40.2","","101.98","","","","-2","","NA"
"-74.04","45.68","MONTREAL MIRABEL INTL A","7034900","2020-03-18 22:00","2020","03","18","22:00","-1.4","","-7.0","","66","","","","3","","6","","40.2","","101.93","","","","-4","","Cloudy"
"-74.04","45.68","MONTREAL MIRABEL INTL A","7034900","2020-03-18 23:00","2020","03","18","23:00","-1.6","","-7.3","","65","","","","3","","5","","40.2","","101.86","","","","-3","","NA"
"-74.04","45.68","MONTREAL MIRABEL INTL A","7034900","2020-03-19 00:00","2020","03","19","00:00","-1.4","","-7.8","","62","","","","5","","6","","40.2","","101.80","","","","-4","","NA"
"-74.04","45.68","MONTREAL MIRABEL INTL A","7034900","2020-03-19 01:00","2020","03","19","01:00","-1.5","","-7.4","","64","","","","5","","9","","40.2","","101.76","","","","-5","","Cloudy"
"-74.04","45.68","MONTREAL MIRABEL INTL A","7034900","2020-03-19 02:00","2020","03","19","02:00","-1.4","","-7.6","","63","","","","5","","8","","40.2","","101.72","","","","-4","","NA"
"-74.04","45.68","MONTREAL MIRABEL INTL A","7034900","2020-03-19 03:00","2020","03","19","03:00","-0.9","","-8.2","","58","","","","5","","8","","40.2","","101.67","","","","-4","","NA"
"-74.04","45.68","MONTREAL MIRABEL INTL A","7034900","2020-03-19 04:00","2020","03","19","04:00","-0.8","","-8.4","","57","","","","5","","8","","40.2","","101.69","","","","-4","","Cloudy"
"-74.04","45.68","MONTREAL MIRABEL INTL A","7034900","2020-03-19 05:00","2020","03","19","05:00","-1.0","","-8.5","","57","","","","5","","9","","40.2","","101.71","","","","-4","","NA"
"-74.04","45.68","MONTREAL MIRABEL INTL A","7034900","2020-03-19 06:00","2020","03","19","06:00","-1.4","","-8.1","","61","","","","5","","10","","40.2","","101.72","","","","-5","","NA"
"-74.04","45.68","MONTREAL MIRABEL INTL A","7034900","2020-03-19 07:00","2020","03","19","07:00","-1.4","","-8.6","","58","","","","5","","12","","48.3","","101.74","","","","-5","","Mostly Cloudy"
"-74.04","45.68","MONTREAL MIRABEL INTL A","7034900","2020-03-19 08:00","2020","03","19","08:00","-1.4","","-8.1","","60","","","","6","","13","","48.3","","101.75","","","","-6","","NA"
"-74.04","45.68","MONTREAL MIRABEL INTL A","7034900","2020-03-19 09:00","2020","03","19","09:00","-0.7","","-6.8","","63","","","","5","","11","","48.3","","101.78","","","","-4","","NA"
"-74.04","45.68","MONTREAL MIRABEL INTL A","7034900","2020-03-19 10:00","2020","03","19","10:00","0.4","","-6.2","","61","","","","6","","9","","40.2","","101.84","","","","","","Cloudy"
"-74.04","45.68","MONTREAL MIRABEL INTL A","7034900","2020-03-19 11:00","2020","03","19","11:00","1.2","","-5.4","","61","","","","6","","13","","48.3","","101.70","","","","","","NA"
"-74.04","45.68","MONTREAL MIRABEL INTL A","7034900","2020-03-19 12:00","2020","03","19","12:00","1.7","","-4.8","","62","","","","5","","15","","48.3","","101.63","","","","","","NA"
"-74.04","45.68","MONTREAL MIRABEL INTL A","7034900","2020-03-19 13:00","2020","03","19","13:00","2.9","","-3.9","","61","","","","6","","10","","40.2","","101.58","","","","","","Cloudy"
"-74.04","45.68","MONTREAL MIRABEL INTL A","7034900","2020-03-19 14:00","2020","03","19","14:00","3.4","","-3.5","","61","","","","4","","15","","40.2","","101.47","","","","","","NA"
"-74.04","45.68","MONTREAL MIRABEL INTL A","7034900","2020-03-19 15:00","2020","03","19","15:00","4.2","","-2.9","","60","","","","5","","14","","40.2","","101.48","","","","","","NA"
"-74.04","45.68","MONTREAL MIRABEL INTL A","7034900","2020-03-19 16:00","2020","03","19","16:00","4.1","","-2.5","","62","","","","6","","10","","40.2","","101.42","","","","","","Mostly Cloudy"
"-74.04","45.68","MONTREAL MIRABEL INTL A","7034900","2020-03-19 17:00","2020","03","19","17:00","3.3","","-2.7","","65","","","","6","","9","","40.2","","101.38","","","","","","NA"
"-74.04","45.68","MONTREAL MIRABEL INTL A","7034900","2020-03-19 18:00","2020","03","19","18:00","2.6","","-2.6","","69","","","","5","","9","","40.2","","101.34","","","","","","NA"
"-74.04","45.68","MONTREAL MIRABEL INTL A","7034900","2020-03-19 19:00","2020","03","19","19:00","2.3","","-2.6","","70","","","","5","","5","","40.2","","101.32","","","","","","Mostly Cloudy"
"-74.04","45.68","MONTREAL MIRABEL INTL A","7034900","2020-03-19 20:00","2020","03","19","20:00","1.7","","-2.4","","74","","","","5","","5","","40.2","","101.22","","","","","","NA"
"-74.04","45.68","MONTREAL MIRABEL INTL A","7034900","2020-03-19 21:00","2020","03","19","21:00","2.0","","-2.3","","73","","","","6","","9","","40.2","","101.08","","","","","","NA"
"-74.04","45.68","MONTREAL MIRABEL INTL A","7034900","2020-03-19 22:00","2020","03","19","22:00","1.7","","-1.7","","78","","","","4","","9","","40.2","","100.93","","","","","","Mostly Cloudy"
"-74.04","45.68","MONTREAL MIRABEL INTL A","7034900","2020-03-19 23:00","2020","03","19","23:00","1.5","","-1.4","","81","","","","4","","8","","40.2","","100.82","","","","","","NA"
"-74.04","45.68","MONTREAL MIRABEL INTL A","7034900","2020-03-20 00:00","2020","03","20","00:00","1.7","","-0.8","","83","","","","4","","8","","40.2","","100.67","","","","","","NA"
"-74.04","45.68","MONTREAL MIRABEL INTL A","7034900","2020-03-20 01:00","2020","03","20","01:00","1.8","","-0.5","","85","","","","4","","8","","40.2","","100.48","","","","","","Cloudy"
"-74.04","45.68","MONTREAL MIRABEL INTL A","7034900","2020-03-20 02:00","2020","03","20","02:00","1.5","","-0.5","","87","","","","","","0","","24.1","","100.40","","","","","","Rain"
"-74.04","45.68","MONTREAL MIRABEL INTL A","7034900","2020-03-20 03:00","2020","03","20","03:00","1.4","","0.6","","94","","","","5","","7","","16.1","","100.14","","","","","","Rain"
"-74.04","45.68","MONTREAL MIRABEL INTL A","7034900","2020-03-20 04:00","2020","03","20","04:00","1.2","","0.6","","96","","","","6","","9","","12.9","","99.87","","","","","","Rain"
"-74.04","45.68","MONTREAL MIRABEL INTL A","7034900","2020-03-20 05:00","2020","03","20","05:00","1.2","","0.8","","97","","","","2","","3","","4.0","","99.74","","","","","","Rain,Fog"
"-74.04","45.68","MONTREAL MIRABEL INTL A","7034900","2020-03-20 06:00","2020","03","20","06:00","1.3","","1.0","","98","","","","3","","7","","1.6","","99.54","","","","","","Rain,Fog"
"-74.04","45.68","MONTREAL MIRABEL INTL A","7034900","2020-03-20 07:00","2020","03","20","07:00","1.4","","1.1","","98","","","","3","","6","","1.6","","99.37","","","","","","Rain,Fog"
"-74.04","45.68","MONTREAL MIRABEL INTL A","7034900","2020-03-20 08:00","2020","03","20","08:00","1.5","","1.2","","98","","","","3","","6","","1.6","","99.29","","","","","","Rain,Fog"
"-74.04","45.68","MONTREAL MIRABEL INTL A","7034900","2020-03-20 09:00","2020","03","20","09:00","2.1","","1.8","","98","","","","4","","7","","1.6","","99.21","","","","","","Rain,Fog"
"-74.04","45.68","MONTREAL MIRABEL INTL A","7034900","2020-03-20 10:00","2020","03","20","10:00","2.1","","1.9","","98","","","","35","","5","","1.6","","99.05","","","","","","Rain,Fog"
"-74.04","45.68","MONTREAL MIRABEL INTL A","7034900","2020-03-20 11:00","2020","03","20","11:00","2.6","","2.4","","98","","","","7","","9","","1.6","","98.88","","","","","","Rain,Fog"
"-74.04","45.68","MONTREAL MIRABEL INTL A","7034900","2020-03-20 12:00","2020","03","20","12:00","3.1","","2.8","","98","","","","6","","5","","1.2","","98.69","","","","","","Rain,Fog"
"-74.04","45.68","MONTREAL MIRABEL INTL A","7034900","2020-03-20 13:00","2020","03","20","13:00","3.4","","3.1","","98","","","","7","","4","","0.8","","98.49","","","","","","Rain,Fog"
"-74.04","45.68","MONTREAL MIRABEL INTL A","7034900","2020-03-20 14:00","2020","03","20","14:00","11.6","","11.4","","98","","","","25","","19","","8.1","","98.35","","","","","","Rain Showers"
"-74.04","45.68","MONTREAL MIRABEL INTL A","7034900","2020-03-20 15:00","2020","03","20","15:00","12.6","","10.0","","84","","","","25","","31","","16.1","","98.48","","","","","","NA"
"-74.04","45.68","MONTREAL MIRABEL INTL A","7034900","2020-03-20 16:00","2020","03","20","16:00","10.4","","5.4","","71","","","","25","","30","","32.2","","98.79","","","","","","Mostly Cloudy"
"-74.04","45.68","MONTREAL MIRABEL INTL A","7034900","2020-03-20 17:00","2020","03","20","17:00","8.0","","3.7","","74","","","","25","","26","","40.2","","99.11","","","","","","NA"
"-74.04","45.68","MONTREAL MIRABEL INTL A","7034900","2020-03-20 18:00","2020","03","20","18:00","5.5","","1.3","","74","","","","28","","20","","48.3","","99.44","","","","","","NA"
"-74.04","45.68","MONTREAL MIRABEL INTL A","7034900","2020-03-20 19:00","2020","03","20","19:00","3.5","","-0.2","","77","","","","27","","10","","40.2","","99.72","","","","","","Mainly Clear"
"-74.04","45.68","MONTREAL MIRABEL INTL A","7034900","2020-03-20 20:00","2020","03","20","20:00","2.5","","-0.6","","80","","","","28","","17","","40.2","","100.00","","","","","","NA"
"-74.04","45.68","MONTREAL MIRABEL INTL A","7034900","2020-03-20 21:00","2020","03","20","21:00","1.1","","-3.7","","70","","","","29","","13","","40.2","","100.25","","","","","","NA"
"-74.04","45.68","MONTREAL MIRABEL INTL A","7034900","2020-03-20 22:00","2020","03","20","22:00","-0.4","","-6.2","","65","","","","30","","23","","40.2","","100.45","","","","-6","","Cloudy"
"-74.04","45.68","MONTREAL MIRABEL INTL A","7034900","2020-03-20 23:00","2020","03","20","23:00","-1.1","","-7.1","","64","","","","30","","20","","40.2","","100.66","","","","-7","","NA"
"-74.04","45.68","MONTREAL MIRABEL INTL A","7034900","2020-03-21 00:00","2020","03","21","00:00","-3.2","","-9.9","","60","","","","32","","19","","40.2","","100.93","","","","-9","","NA"
"-74.04","45.68","MONTREAL MIRABEL INTL A","7034900","2020-03-21 01:00","2020","03","21","01:00","-4.1","","-10.0","","64","","","","29","","14","","40.2","","101.12","","","","-9","","Mainly Clear"
"-74.04","45.68","MONTREAL MIRABEL INTL A","7034900","2020-03-21 02:00","2020","03","21","02:00","-5.6","","-12.7","","57","","","","32","","20","","40.2","","101.31","","","","-12","","NA"
"-74.04","45.68","MONTREAL MIRABEL INTL A","7034900","2020-03-21 03:00","2020","03","21","03:00","-7.0","","-15.4","","52","","","","31","","13","","40.2","","101.43","","","","-13","","NA"
"-74.04","45.68","MONTREAL MIRABEL INTL A","7034900","2020-03-21 04:00","2020","03","21","04:00","-8.1","","-16.6","","51","","","","32","","9","","40.2","","101.60","","","","-13","","Mainly Clear"
"-74.04","45.68","MONTREAL MIRABEL INTL A","7034900","2020-03-21 05:00","2020","03","21","05:00","-9.1","","-17.2","","52","","","","28","","8","","40.2","","101.76","","","","-13","","NA"
"-74.04","45.68","MONTREAL MIRABEL INTL A","7034900","2020-03-21 06:00","2020","03","21","06:00","-10.2","","-17.5","","55","","","","28","","10","","72.4","","101.89","","","","-15","","NA"
"-74.04","45.68","MONTREAL MIRABEL INTL A","7034900","2020-03-21 07:00","2020","03","21","07:00","-10.0","","-18.3","","51","","","","26","","10","","72.4","","102.06","","","","-15","","Clear"
"-74.04","45.68","MONTREAL MIRABEL INTL A","7034900","2020-03-21 08:00","2020","03","21","08:00","-9.0","","-18.0","","49","","","","31","","8","","72.4","","102.15","","","","-13","","NA"
"-74.04","45.68","MONTREAL MIRABEL INTL A","7034900","2020-03-21 09:00","2020","03","21","09:00","-7.7","","-18.5","","42","","","","25","","10","","72.4","","102.24","","","","-13","","NA"
"-74.04","45.68","MONTREAL MIRABEL INTL A","7034900","2020-03-21 10:00","2020","03","21","10:00","-6.6","","-17.1","","44","","","","25","","12","","72.4","","102.28","","","","-12","","Clear"
"-74.04","45.68","MONTREAL MIRABEL INTL A","7034900","2020-03-21 11:00","2020","03","21","11:00","-5.5","","-17.2","","40","","","","26","","14","","72.4","","102.33","","","","-11","","NA"
"-74.04","45.68","MONTREAL MIRABEL INTL A","7034900","2020-03-21 12:00","2020","03","21","12:00","-4.4","","-18.2","","34","","","","27","","14","","72.4","","102.31","","","","-10","","NA"
"-74.04","45.68","MONTREAL MIRABEL INTL A","7034900","2020-03-21 13:00","2020","03","21","13:00","-3.6","","-19.0","","30","","","","31","","14","","72.4","","102.25","","","","-9","","Clear"
"-74.04","45.68","MONTREAL MIRABEL INTL A","7034900","2020-03-21 14:00","2020","03","21","14:00","-3.1","","-19.9","","26","","","","30","","12","","72.4","","102.20","","","","-8","","NA"
"-74.04","45.68","MONTREAL MIRABEL INTL A","7034900","2020-03-21 15:00","2020","03","21","15:00","-2.6","","-18.2","","29","","","","29","","11","","72.4","","102.17","","","","-7","","NA"
"-74.04","45.68","MONTREAL MIRABEL INTL A","7034900","2020-03-21 16:00","2020","03","21","16:00","-2.6","","-18.0","","30","","","","30","","13","","72.4","","102.21","","","","-7","","Mostly Cloudy"
"-74.04","45.68","MONTREAL MIRABEL INTL A","7034900","2020-03-21 17:00","2020","03","21","17:00","-3.0","","-17.3","","33","","","","30","","7","","72.4","","102.29","","","","-6","","NA"
"-74.04","45.68","MONTREAL MIRABEL INTL A","7034900","2020-03-21 18:00","2020","03","21","18:00","-4.2","","-17.7","","35","","","","32","","10","","64.4","","102.37","","","","-8","","NA"
"-74.04","45.68","MONTREAL MIRABEL INTL A","7034900","2020-03-21 19:00","2020","03","21","19:00","-4.9","","-17.1","","38","","","","30","","8","","40.2","","102.45","","","","-8","","Mainly Clear"
"-74.04","45.68","MONTREAL MIRABEL INTL A","7034900","2020-03-21 20:00","2020","03","21","20:00","-5.5","","-17.1","","40","","","","31","","8","","40.2","","102.52","","","","-9","","NA"
"-74.04","45.68","MONTREAL MIRABEL INTL A","7034900","2020-03-21 21:00","2020","03","21","21:00","-6.3","","-16.9","","43","","","","33","","10","","40.2","","102.59","","","","-11","","NA"
"-74.04","45.68","MONTREAL MIRABEL INTL A","7034900","2020-03-21 22:00","2020","03","21","22:00","-7.4","","-16.4","","49","","","","35","","9","","40.2","","102.65","","","","-12","","Mainly Clear"
"-74.04","45.68","MONTREAL MIRABEL INTL A","7034900","2020-03-21 23:00","2020","03","21","23:00","-7.8","","-16.1","","52","","","","35","","10","","40.2","","102.70","","","","-13","","NA"
"-74.04","45.68","MONTREAL MIRABEL INTL A","7034900","2020-03-22 00:00","2020","03","22","00:00","-8.7","","-15.9","","56","","","","36","","7","","40.2","","102.74","","","","-13","","NA"
"-74.04","45.68","MONTREAL MIRABEL INTL A","7034900","2020-03-22 01:00","2020","03","22","01:00","-9.5","","-15.2","","64","","","","","","0","","40.2","","102.79","","","","","","Clear"
"-74.04","45.68","MONTREAL MIRABEL INTL A","7034900","2020-03-22 02:00","2020","03","22","02:00","-10.7","","-16.3","","64","","","","","","0","","40.2","","102.80","","","","","","NA"
"-74.04","45.68","MONTREAL MIRABEL INTL A","7034900","2020-03-22 03:00","2020","03","22","03:00","-11.7","","-16.6","","67","","","","","","0","","40.2","","102.84","","","","","","NA"
"-74.04","45.68","MONTREAL MIRABEL INTL A","7034900","2020-03-22 04:00","2020","03","22","04:00","-12.4","","-15.8","","76","","","","24","","3","","40.2","","102.92","","","","-14","","Clear"
"-74.04","45.68","MONTREAL MIRABEL INTL A","7034900","2020-03-22 05:00","2020","03","22","05:00","-13.6","","-15.9","","83","","","","29","","4","","40.2","","103.01","","","","-16","","NA"
"-74.04","45.68","MONTREAL MIRABEL INTL A","7034900","2020-03-22 06:00","2020","03","22","06:00","-13.7","","-16.1","","82","","","","2","","5","","72.4","","103.12","","","","-17","","NA"
"-74.04","45.68","MONTREAL MIRABEL INTL A","7034900","2020-03-22 07:00","2020","03","22","07:00","-11.8","","-15.6","","74","","","","","","0","","72.4","","103.20","","","","","","Clear"
"-74.04","45.68","MONTREAL MIRABEL INTL A","7034900","2020-03-22 08:00","2020","03","22","08:00","-8.6","","-14.8","","61","","","","7","","3","","72.4","","103.27","","","","-10","","NA"
"-74.04","45.68","MONTREAL MIRABEL INTL A","7034900","2020-03-22 09:00","2020","03","22","09:00","-7.2","","-18.0","","43","","","","6","","10","","72.4","","103.28","","","","-12","","NA"
"-74.04","45.68","MONTREAL MIRABEL INTL A","7034900","2020-03-22 10:00","2020","03","22","10:00","-6.2","","-19.1","","36","","","","9","","7","","72.4","","103.28","","","","-10","","Clear"
"-74.04","45.68","MONTREAL MIRABEL INTL A","7034900","2020-03-22 11:00","2020","03","22","11:00","-5.6","","-18.9","","35","","","","7","","4","","72.4","","103.27","","","","-7","","NA"
"-74.04","45.68","MONTREAL MIRABEL INTL A","7034900","2020-03-22 12:00","2020","03","22","12:00","-4.8","","-18.3","","34","","","","10","","3","","72.4","","103.24","","","","-6","","NA"
"-74.04","45.68","MONTREAL MIRABEL INTL A","7034900","2020-03-22 13:00","2020","03","22","13:00","-3.6","","-16.8","","36","","","","12","","9","","72.4","","103.21","","","","-7","","Clear"
"-74.04","45.68","MONTREAL MIRABEL INTL A","7034900","2020-03-22 14:00","2020","03","22","14:00","-3.0","","-16.4","","35","","","","17","","7","","72.4","","103.10","","","","-6","","NA"
"-74.04","45.68","MONTREAL MIRABEL INTL A","7034900","2020-03-22 15:00","2020","03","22","15:00","-1.8","","-16.4","","32","","","","11","","7","","72.4","","103.04","","","","-4","","NA"
"-74.04","45.68","MONTREAL MIRABEL INTL A","7034900","2020-03-22 16:00","2020","03","22","16:00","-1.9","","-15.1","","36","","","","8","","10","","72.4","","102.99","","","","-6","","Clear"
"-74.04","45.68","MONTREAL MIRABEL INTL A","7034900","2020-03-22 17:00","2020","03","22","17:00","-1.9","","-16.5","","32","","","","10","","9","","72.4","","102.99","","","","-5","","NA"
"-74.04","45.68","MONTREAL MIRABEL INTL A","7034900","2020-03-22 18:00","2020","03","22","18:00","-3.5","","-14.6","","42","","","","8","","11","","64.4","","102.97","","","","-8","","NA"
"-74.04","45.68","MONTREAL MIRABEL INTL A","7034900","2020-03-22 19:00","2020","03","22","19:00","-5.0","","-13.6","","51","","","","7","","7","","40.2","","102.95","","","","-8","","Clear"
"-74.04","45.68","MONTREAL MIRABEL INTL A","7034900","2020-03-22 20:00","2020","03","22","20:00","-6.0","","-13.5","","56","","","","4","","5","","40.2","","102.94","","","","-8","","NA"
"-74.04","45.68","MONTREAL MIRABEL INTL A","7034900","2020-03-22 21:00","2020","03","22","21:00","-6.8","","-13.5","","59","","","","5","","9","","40.2","","102.89","","","","-11","","NA"
"-74.04","45.68","MONTREAL MIRABEL INTL A","7034900","2020-03-22 22:00","2020","03","22","22:00","-7.7","","-14.1","","60","","","","6","","5","","40.2","","102.85","","","","-10","","Clear"
"-74.04","45.68","MONTREAL MIRABEL INTL A","7034900","2020-03-22 23:00","2020","03","22","23:00","-8.5","","-14.4","","63","","","","5","","6","","40.2","","102.78","","","","-12","","NA"
"-74.04","45.68","MONTREAL MIRABEL INTL A","7034900","2020-03-23 00:00","2020","03","23","00:00","-8.9","","-14.2","","66","","","","4","","7","","40.2","","102.73","","","","-13","","NA"
"-74.04","45.68","MONTREAL MIRABEL INTL A","7034900","2020-03-23 01:00","2020","03","23","01:00","-8.7","","-15.2","","60","","","","4","","7","","40.2","","102.64","","","","-13","","Clear"
"-74.04","45.68","MONTREAL MIRABEL INTL A","7034900","2020-03-23 02:00","2020","03","23","02:00","-9.1","","-14.7","","64","","","","5","","6","","40.2","","102.57","","","","-12","","NA"
"-74.04","45.68","MONTREAL MIRABEL INTL A","7034900","2020-03-23 03:00","2020","03","23","03:00","-8.5","","-14.6","","62","","","","7","","9","","40.2","","102.47","","","","-13","","NA"
"-74.04","45.68","MONTREAL MIRABEL INTL A","7034900","2020-03-23 04:00","2020","03","23","04:00","-7.8","","-14.2","","61","","","","5","","8","","40.2","","102.36","","","","-12","","Mainly Clear"
"-74.04","45.68","MONTREAL MIRABEL INTL A","7034900","2020-03-23 05:00","2020","03","23","05:00","-8.0","","-13.8","","63","","","","5","","9","","40.2","","102.28","","","","-13","","NA"
"-74.04","45.68","MONTREAL MIRABEL INTL A","7034900","2020-03-23 06:00","2020","03","23","06:00","-8.5","","-13.9","","65","","","","6","","10","","72.4","","102.19","","","","-13","","NA"
"-74.04","45.68","MONTREAL MIRABEL INTL A","7034900","2020-03-23 07:00","2020","03","23","07:00","-7.8","","-13.6","","63","","","","6","","8","","72.4","","102.14","","","","-12","","Mostly Cloudy"
"-74.04","45.68","MONTREAL MIRABEL INTL A","7034900","2020-03-23 08:00","2020","03","23","08:00","-6.5","","-12.6","","62","","","","2","","9","","40.2","","102.09","","","","-11","","NA"
"-74.04","45.68","MONTREAL MIRABEL INTL A","7034900","2020-03-23 09:00","2020","03","23","09:00","-5.6","","-11.6","","63","","","","5","","13","","40.2","","102.04","","","","-11","","NA"
"-74.04","45.68","MONTREAL MIRABEL INTL A","7034900","2020-03-23 10:00","2020","03","23","10:00","-4.8","","-10.4","","65","","","","4","","11","","32.2","","101.98","","","","-9","","Cloudy"
"-74.04","45.68","MONTREAL MIRABEL INTL A","7034900","2020-03-23 11:00","2020","03","23","11:00","-3.7","","-8.2","","71","","","","2","","9","","6.4","","101.91","","","","-7","","Snow"
"-74.04","45.68","MONTREAL MIRABEL INTL A","7034900","2020-03-23 12:00","2020","03","23","12:00","-2.2","","-4.4","","85","","","","4","","7","","2.0","","101.82","","","","-5","","Snow"
"-74.04","45.68","MONTREAL MIRABEL INTL A","7034900","2020-03-23 13:00","2020","03","23","13:00","-0.5","","-4.5","","75","","","","8","","12","","12.9","","101.67","","","","-4","","Snow"
"-74.04","45.68","MONTREAL MIRABEL INTL A","7034900","2020-03-23 14:00","2020","03","23","14:00","-0.5","","-4.4","","75","","","","15","","14","","2.0","","101.60","","","","-5","","Snow"
"-74.04","45.68","MONTREAL MIRABEL INTL A","7034900","2020-03-23 15:00","2020","03","23","15:00","-1.2","","-2.9","","89","","","","12","","14","","2.0","","101.51","","","","-6","","Snow"
"-74.04","45.68","MONTREAL MIRABEL INTL A","7034900","2020-03-23 16:00","2020","03","23","16:00","-1.4","","-2.6","","92","","","","12","","9","","1.2","","101.45","","","","-5","","Snow"
"-74.04","45.68","MONTREAL MIRABEL INTL A","7034900","2020-03-23 17:00","2020","03","23","17:00","-1.1","","-2.1","","93","","","","8","","9","","1.0","","101.34","","","","-4","","Snow"
"-74.04","45.68","MONTREAL MIRABEL INTL A","7034900","2020-03-23 18:00","2020","03","23","18:00","-1.0","","-1.9","","93","","","","8","","8","","2.4","","101.29","","","","-4","","Snow"
"-74.04","45.68","MONTREAL MIRABEL INTL A","7034900","2020-03-23 19:00","2020","03","23","19:00","-1.2","","-1.9","","95","","","","6","","5","","2.4","","101.24","","","","-3","","Snow"
"-74.04","45.68","MONTREAL MIRABEL INTL A","7034900","2020-03-23 20:00","2020","03","23","20:00","-1.2","","-1.9","","96","","","","6","","5","","2.4","","101.21","","","","-3","","Snow"
"-74.04","45.68","MONTREAL MIRABEL INTL A","7034900","2020-03-23 21:00","2020","03","23","21:00","-1.4","","-1.9","","96","","","","5","","8","","3.2","","101.16","","","","-4","","Snow"
"-74.04","45.68","MONTREAL MIRABEL INTL A","7034900","2020-03-23 22:00","2020","03","23","22:00","-1.3","","-1.9","","96","","","","6","","9","","2.4","","101.08","","","","-5","","Snow"
"-74.04","45.68","MONTREAL MIRABEL INTL A","7034900","2020-03-23 23:00","2020","03","23","23:00","-1.3","","-1.9","","96","","","","4","","7","","3.2","","101.07","","","","-4","","Snow"
"-74.04","45.68","MONTREAL MIRABEL INTL A","7034900","2020-03-24 00:00","2020","03","24","00:00","-1.4","","-1.9","","96","","","","4","","3","","4.8","","101.01","","","","-2","","Snow"
"-74.04","45.68","MONTREAL MIRABEL INTL A","7034900","2020-03-24 01:00","2020","03","24","01:00","-1.3","","-1.9","","96","","","","36","","10","","4.8","","101.01","","","","-5","","Snow"
"-74.04","45.68","MONTREAL MIRABEL INTL A","7034900","2020-03-24 02:00","2020","03","24","02:00","-1.2","","-1.8","","96","","","","36","","11","","6.4","","100.99","","","","-5","","Fog"
"-74.04","45.68","MONTREAL MIRABEL INTL A","7034900","2020-03-24 03:00","2020","03","24","03:00","-1.4","","-2.2","","94","","","","35","","5","","8.1","","100.98","","","","-3","","Fog"
"-74.04","45.68","MONTREAL MIRABEL INTL A","7034900","2020-03-24 04:00","2020","03","24","04:00","-2.0","","-2.8","","94","","","","","","0","","24.1","","100.98","","","","","","Cloudy"
"-74.04","45.68","MONTREAL MIRABEL INTL A","7034900","2020-03-24 05:00","2020","03","24","05:00","-1.8","","-2.5","","95","","","","","","0","","32.2","","101.01","","","","","","NA"
"-74.04","45.68","MONTREAL MIRABEL INTL A","7034900","2020-03-24 06:00","2020","03","24","06:00","-1.7","","-2.6","","94","","","","23","","6","","32.2","","101.07","","","","-4","","NA"
"-74.04","45.68","MONTREAL MIRABEL INTL A","7034900","2020-03-24 07:00","2020","03","24","07:00","-0.9","","-2.2","","90","","","","23","","5","","32.2","","101.14","","","","-3","","Mostly Cloudy"
"-74.04","45.68","MONTREAL MIRABEL INTL A","7034900","2020-03-24 08:00","2020","03","24","08:00","-0.4","","-2.8","","84","","","","27","","5","","32.2","","101.19","","","","-2","","NA"
"-74.04","45.68","MONTREAL MIRABEL INTL A","7034900","2020-03-24 09:00","2020","03","24","09:00","1.1","","-3.1","","74","","","","36","","4","","40.2","","101.24","","","","","","NA"
"-74.04","45.68","MONTREAL MIRABEL INTL A","7034900","2020-03-24 10:00","2020","03","24","10:00","2.0","","-3.9","","65","","","","9","","5","","40.2","","101.27","","","","","","Mainly Clear"
"-74.04","45.68","MONTREAL MIRABEL INTL A","7034900","2020-03-24 11:00","2020","03","24","11:00","2.8","","-2.9","","66","","","","23","","11","","72.4","","101.26","","","","","","NA"
"-74.04","45.68","MONTREAL MIRABEL INTL A","7034900","2020-03-24 12:00","2020","03","24","12:00","3.5","","-2.7","","64","","","","22","","9","","72.4","","101.23","","","","","","NA"
"-74.04","45.68","MONTREAL MIRABEL INTL A","7034900","2020-03-24 13:00","2020","03","24","13:00","3.5","","-2.3","","66","","","","22","","12","","72.4","","101.17","","","","","","Mostly Cloudy"
"-74.04","45.68","MONTREAL MIRABEL INTL A","7034900","2020-03-24 14:00","2020","03","24","14:00","3.8","","-1.8","","67","","","","22","","11","","72.4","","101.12","","","","","","NA"
"-74.04","45.68","MONTREAL MIRABEL INTL A","7034900","2020-03-24 15:00","2020","03","24","15:00","3.8","","-2.3","","64","","","","24","","13","","72.4","","101.10","","","","","","NA"
"-74.04","45.68","MONTREAL MIRABEL INTL A","7034900","2020-03-24 16:00","2020","03","24","16:00","4.1","","-2.0","","64","","","","22","","13","","72.4","","101.11","","","","","","Mostly Cloudy"
"-74.04","45.68","MONTREAL MIRABEL INTL A","7034900","2020-03-24 17:00","2020","03","24","17:00","3.8","","-1.4","","69","","","","24","","15","","72.4","","101.15","","","","","","NA"
"-74.04","45.68","MONTREAL MIRABEL INTL A","7034900","2020-03-24 18:00","2020","03","24","18:00","3.1","","-1.3","","73","","","","23","","12","","72.4","","101.18","","","","","","NA"
"-74.04","45.68","MONTREAL MIRABEL INTL A","7034900","2020-03-24 19:00","2020","03","24","19:00","2.6","","-1.0","","77","","","","24","","13","","40.2","","101.22","","","","","","Mainly Clear"
"-74.04","45.68","MONTREAL MIRABEL INTL A","7034900","2020-03-24 20:00","2020","03","24","20:00","1.9","","-1.2","","80","","","","24","","7","","40.2","","101.23","","","","","","NA"
"-74.04","45.68","MONTREAL MIRABEL INTL A","7034900","2020-03-24 21:00","2020","03","24","21:00","1.0","","-1.5","","84","","","","23","","7","","40.2","","101.26","","","","","","NA"
"-74.04","45.68","MONTREAL MIRABEL INTL A","7034900","2020-03-24 22:00","2020","03","24","22:00","0.4","","-1.6","","86","","","","26","","8","","40.2","","101.27","","","","","","Mainly Clear"
"-74.04","45.68","MONTREAL MIRABEL INTL A","7034900","2020-03-24 23:00","2020","03","24","23:00","-1.4","","-2.6","","92","","","","25","","4","","40.2","","101.25","","","","-3","","NA"
"-74.04","45.68","MONTREAL MIRABEL INTL A","7034900","2020-03-25 00:00","2020","03","25","00:00","-2.2","","-2.8","","95","","","","9","","4","","40.2","","101.19","","","","-4","","NA"
"-74.04","45.68","MONTREAL MIRABEL INTL A","7034900","2020-03-25 01:00","2020","03","25","01:00","-3.1","","-3.6","","96","","","","5","","4","","40.2","","101.16","","","","-5","","Mainly Clear"
"-74.04","45.68","MONTREAL MIRABEL INTL A","7034900","2020-03-25 02:00","2020","03","25","02:00","-3.9","","-4.5","","96","","","","36","","4","","32.2","","101.20","","","","-6","","NA"
"-74.04","45.68","MONTREAL MIRABEL INTL A","7034900","2020-03-25 03:00","2020","03","25","03:00","-4.5","","-5.1","","95","","","","4","","4","","2.4","","101.17","","","","-6","","Fog"
"-74.04","45.68","MONTREAL MIRABEL INTL A","7034900","2020-03-25 04:00","2020","03","25","04:00","-4.3","","-4.9","","96","","","","5","","5","","32.2","","101.16","","","","-6","","Mainly Clear"
"-74.04","45.68","MONTREAL MIRABEL INTL A","7034900","2020-03-25 05:00","2020","03","25","05:00","-4.6","","-5.3","","95","","","","5","","5","","40.2","","101.18","","","","-7","","NA"
"-74.04","45.68","MONTREAL MIRABEL INTL A","7034900","2020-03-25 06:00","2020","03","25","06:00","-5.0","","-5.7","","95","","","","6","","9","","40.2","","101.21","","","","-9","","NA"
"-74.04","45.68","MONTREAL MIRABEL INTL A","7034900","2020-03-25 07:00","2020","03","25","07:00","-3.5","","-4.0","","96","","","","2","","9","","2.4","","101.17","","","","-7","","Fog"
"-74.04","45.68","MONTREAL MIRABEL INTL A","7034900","2020-03-25 08:00","2020","03","25","08:00","-2.5","","-3.0","","97","","","","5","","8","","3.2","","101.15","","","","-6","","Fog"
"-74.04","45.68","MONTREAL MIRABEL INTL A","7034900","2020-03-25 09:00","2020","03","25","09:00","-2.1","","-2.6","","96","","","","5","","10","","4.0","","101.15","","","","-6","","Fog"
"-74.04","45.68","MONTREAL MIRABEL INTL A","7034900","2020-03-25 10:00","2020","03","25","10:00","-0.6","","-1.7","","92","","","","5","","14","","19.3","","101.11","","","","-5","","Mostly Cloudy"
"-74.04","45.68","MONTREAL MIRABEL INTL A","7034900","2020-03-25 11:00","2020","03","25","11:00","1.3","","-1.9","","79","","","","4","","12","","40.2","","101.04","","","","","","NA"
"-74.04","45.68","MONTREAL MIRABEL INTL A","7034900","2020-03-25 12:00","2020","03","25","12:00","3.2","","-1.4","","72","","","","8","","5","","72.4","","100.97","","","","","","NA"
"-74.04","45.68","MONTREAL MIRABEL INTL A","7034900","2020-03-25 13:00","2020","03","25","13:00","5.4","","-3.4","","53","","","","14","","12","","72.4","","100.89","","","","","","Mostly Cloudy"
"-74.04","45.68","MONTREAL MIRABEL INTL A","7034900","2020-03-25 14:00","2020","03","25","14:00","6.2","","-3.2","","51","","","","11","","9","","72.4","","100.84","","","","","","NA"
"-74.04","45.68","MONTREAL MIRABEL INTL A","7034900","2020-03-25 15:00","2020","03","25","15:00","6.3","","-3.5","","49","","","","11","","7","","72.4","","100.80","","","","","","NA"
"-74.04","45.68","MONTREAL MIRABEL INTL A","7034900","2020-03-25 16:00","2020","03","25","16:00","6.4","","-3.5","","49","","","","9","","3","","72.4","","100.74","","","","","","Cloudy"
"-74.04","45.68","MONTREAL MIRABEL INTL A","7034900","2020-03-25 17:00","2020","03","25","17:00","5.7","","-2.8","","54","","","","12","","10","","72.4","","100.73","","","","","","NA"
"-74.04","45.68","MONTREAL MIRABEL INTL A","7034900","2020-03-25 18:00","2020","03","25","18:00","5.1","","-2.3","","59","","","","9","","10","","56.3","","100.74","","","","","","NA"
"-74.04","45.68","MONTREAL MIRABEL INTL A","7034900","2020-03-25 19:00","2020","03","25","19:00","4.4","","-2.0","","63","","","","9","","8","","40.2","","100.69","","","","","","Cloudy"
"-74.04","45.68","MONTREAL MIRABEL INTL A","7034900","2020-03-25 20:00","2020","03","25","20:00","3.8","","-1.6","","68","","","","1","","6","","40.2","","100.68","","","","","","NA"
"-74.04","45.68","MONTREAL MIRABEL INTL A","7034900","2020-03-25 21:00","2020","03","25","21:00","2.8","","-1.8","","72","","","","8","","3","","40.2","","100.68","","","","","","NA"
"-74.04","45.68","MONTREAL MIRABEL INTL A","7034900","2020-03-25 22:00","2020","03","25","22:00","2.9","","-2.0","","70","","","","","","0","","40.2","","100.66","","","","","","Cloudy"
"-74.04","45.68","MONTREAL MIRABEL INTL A","7034900","2020-03-25 23:00","2020","03","25","23:00","2.4","","-1.8","","74","","","","","","0","","40.2","","100.62","","","","","","NA"
"-74.04","45.68","MONTREAL MIRABEL INTL A","7034900","2020-03-26 00:00","2020","03","26","00:00","2.0","","-1.4","","78","","","","8","","6","","40.2","","100.59","","","","","","NA"
"-74.04","45.68","MONTREAL MIRABEL INTL A","7034900","2020-03-26 01:00","2020","03","26","01:00","2.0","","-1.3","","79","","","","","","0","","40.2","","100.60","","","","","","Cloudy"
"-74.04","45.68","MONTREAL MIRABEL INTL A","7034900","2020-03-26 02:00","2020","03","26","02:00","1.4","","-1.4","","82","","","","","","0","","40.2","","100.58","","","","","","NA"
"-74.04","45.68","MONTREAL MIRABEL INTL A","7034900","2020-03-26 03:00","2020","03","26","03:00","1.5","","-1.5","","80","","","","","","0","","40.2","","100.55","","","","","","NA"
"-74.04","45.68","MONTREAL MIRABEL INTL A","7034900","2020-03-26 04:00","2020","03","26","04:00","1.5","","-1.3","","81","","","","","","0","","40.2","","100.54","","","","","","Cloudy"
"-74.04","45.68","MONTREAL MIRABEL INTL A","7034900","2020-03-26 05:00","2020","03","26","05:00","1.2","","-1.1","","85","","","","8","","4","","40.2","","100.49","","","","","","NA"
"-74.04","45.68","MONTREAL MIRABEL INTL A","7034900","2020-03-26 06:00","2020","03","26","06:00","1.2","","-1.0","","85","","","","5","","4","","72.4","","100.50","","","","","","NA"
"-74.04","45.68","MONTREAL MIRABEL INTL A","7034900","2020-03-26 07:00","2020","03","26","07:00","2.1","","-0.7","","82","","","","","","0","","72.4","","100.51","","","","","","Cloudy"
"-74.04","45.68","MONTREAL MIRABEL INTL A","7034900","2020-03-26 08:00","2020","03","26","08:00","1.8","","-1.1","","82","","","","6","","8","","72.4","","100.43","","","","","","NA"
"-74.04","45.68","MONTREAL MIRABEL INTL A","7034900","2020-03-26 09:00","2020","03","26","09:00","2.4","","-0.6","","80","","","","36","","4","","72.4","","100.42","","","","","","NA"
"-74.04","45.68","MONTREAL MIRABEL INTL A","7034900","2020-03-26 10:00","2020","03","26","10:00","3.1","","0.0","","80","","","","12","","3","","72.4","","100.37","","","","","","Rain"
"-74.04","45.68","MONTREAL MIRABEL INTL A","7034900","2020-03-26 11:00","2020","03","26","11:00","3.0","","0.9","","86","","","","7","","5","","40.2","","100.22","","","","","","Rain"
"-74.04","45.68","MONTREAL MIRABEL INTL A","7034900","2020-03-26 12:00","2020","03","26","12:00","5.0","","1.1","","76","","","","8","","4","","72.4","","100.05","","","","","","NA"
"-74.04","45.68","MONTREAL MIRABEL INTL A","7034900","2020-03-26 13:00","2020","03","26","13:00","4.7","","1.0","","77","","","","2","","6","","72.4","","99.97","","","","","","Mostly Cloudy"
"-74.04","45.68","MONTREAL MIRABEL INTL A","7034900","2020-03-26 14:00","2020","03","26","14:00","7.0","","1.0","","66","","","","3","","4","","40.2","","99.79","","","","","","NA"
"-74.04","45.68","MONTREAL MIRABEL INTL A","7034900","2020-03-26 15:00","2020","03","26","15:00","6.2","","0.6","","67","","","","2","","4","","72.4","","99.59","","","","","","NA"
"-74.04","45.68","MONTREAL MIRABEL INTL A","7034900","2020-03-26 16:00","2020","03","26","16:00","5.0","","2.1","","81","","","","1","","9","","16.1","","99.55","","","","","","Rain"
"-74.04","45.68","MONTREAL MIRABEL INTL A","7034900","2020-03-26 17:00","2020","03","26","17:00","4.1","","3.2","","94","","","","10","","4","","24.1","","99.55","","","","","","Rain"
"-74.04","45.68","MONTREAL MIRABEL INTL A","7034900","2020-03-26 18:00","2020","03","26","18:00","4.2","","3.7","","97","","","","35","","3","","24.1","","99.52","","","","","","NA"
"-74.04","45.68","MONTREAL MIRABEL INTL A","7034900","2020-03-26 19:00","2020","03","26","19:00","3.4","","2.9","","97","","","","","","0","","9.7","","99.48","","","","","","Rain,Fog"
"-74.04","45.68","MONTREAL MIRABEL INTL A","7034900","2020-03-26 20:00","2020","03","26","20:00","4.2","","3.9","","98","","","","25","","3","","2.4","","99.47","","","","","","Fog"
"-74.04","45.68","MONTREAL MIRABEL INTL A","7034900","2020-03-26 21:00","2020","03","26","21:00","3.9","","3.5","","98","","","","26","","10","","3.2","","99.50","","","","","","Fog"
"-74.04","45.68","MONTREAL MIRABEL INTL A","7034900","2020-03-26 22:00","2020","03","26","22:00","3.8","","2.4","","91","","","","30","","7","","40.2","","99.56","","","","","","Cloudy"
"-74.04","45.68","MONTREAL MIRABEL INTL A","7034900","2020-03-26 23:00","2020","03","26","23:00","2.8","","0.8","","87","","","","26","","10","","40.2","","99.64","","","","","","NA"
"-74.04","45.68","MONTREAL MIRABEL INTL A","7034900","2020-03-27 00:00","2020","03","27","00:00","2.2","","0.4","","88","","","","27","","10","","40.2","","99.72","","","","","","NA"
"-74.04","45.68","MONTREAL MIRABEL INTL A","7034900","2020-03-27 01:00","2020","03","27","01:00","2.0","","-0.3","","85","","","","27","","7","","40.2","","99.80","","","","","","Mainly Clear"
"-74.04","45.68","MONTREAL MIRABEL INTL A","7034900","2020-03-27 02:00","2020","03","27","02:00","1.2","","-0.8","","87","","","","26","","11","","40.2","","99.82","","","","","","NA"
"-74.04","45.68","MONTREAL MIRABEL INTL A","7034900","2020-03-27 03:00","2020","03","27","03:00","1.0","","-1.3","","85","","","","26","","9","","40.2","","99.87","","","","","","NA"
"-74.04","45.68","MONTREAL MIRABEL INTL A","7034900","2020-03-27 04:00","2020","03","27","04:00","0.6","","-1.8","","85","","","","27","","9","","40.2","","99.97","","","","","","Clear"
"-74.04","45.68","MONTREAL MIRABEL INTL A","7034900","2020-03-27 05:00","2020","03","27","05:00","-0.3","","-2.2","","87","","","","26","","10","","40.2","","100.02","","","","-4","","NA"
"-74.04","45.68","MONTREAL MIRABEL INTL A","7034900","2020-03-27 06:00","2020","03","27","06:00","-1.4","","-3.3","","87","","","","26","","9","","72.4","","100.08","","","","-5","","NA"
"-74.04","45.68","MONTREAL MIRABEL INTL A","7034900","2020-03-27 07:00","2020","03","27","07:00","0.6","","-2.2","","81","","","","25","","6","","72.4","","100.17","","","","","","Mainly Clear"
"-74.04","45.68","MONTREAL MIRABEL INTL A","7034900","2020-03-27 08:00","2020","03","27","08:00","1.7","","-2.0","","76","","","","25","","13","","72.4","","100.25","","","","","","NA"
"-74.04","45.68","MONTREAL MIRABEL INTL A","7034900","2020-03-27 09:00","2020","03","27","09:00","3.6","","-2.4","","65","","","","25","","6","","72.4","","100.30","","","","","","NA"
"-74.04","45.68","MONTREAL MIRABEL INTL A","7034900","2020-03-27 10:00","2020","03","27","10:00","3.7","","-2.9","","62","","","","21","","11","","72.4","","100.33","","","","","","Clear"
"-74.04","45.68","MONTREAL MIRABEL INTL A","7034900","2020-03-27 11:00","2020","03","27","11:00","4.5","","-4.3","","53","","","","23","","14","","72.4","","100.34","","","","","","NA"
"-74.04","45.68","MONTREAL MIRABEL INTL A","7034900","2020-03-27 12:00","2020","03","27","12:00","4.4","","-3.6","","56","","","","23","","21","","72.4","","100.36","","","","","","NA"
"-74.04","45.68","MONTREAL MIRABEL INTL A","7034900","2020-03-27 13:00","2020","03","27","13:00","5.3","","-4.2","","50","","","","22","","16","","72.4","","100.38","","","","","","Clear"
"-74.04","45.68","MONTREAL MIRABEL INTL A","7034900","2020-03-27 14:00","2020","03","27","14:00","6.2","","-5.4","","43","","","","22","","14","","72.4","","100.38","","","","","","NA"
"-74.04","45.68","MONTREAL MIRABEL INTL A","7034900","2020-03-27 15:00","2020","03","27","15:00","7.7","","-7.8","","32","","","","24","","13","","72.4","","100.40","","","","","","NA"
"-74.04","45.68","MONTREAL MIRABEL INTL A","7034900","2020-03-27 16:00","2020","03","27","16:00","8.7","","-12.8","","20","","","","28","","12","","72.4","","100.45","","","","","","Clear"
"-74.04","45.68","MONTREAL MIRABEL INTL A","7034900","2020-03-27 17:00","2020","03","27","17:00","8.3","","-13.1","","21","","","","31","","14","","72.4","","100.53","","","","","","NA"
"-74.04","45.68","MONTREAL MIRABEL INTL A","7034900","2020-03-27 18:00","2020","03","27","18:00","7.0","","-13.2","","22","","","","31","","8","","72.4","","100.65","","","","","","NA"
"-74.04","45.68","MONTREAL MIRABEL INTL A","7034900","2020-03-27 19:00","2020","03","27","19:00","5.9","","-12.7","","25","","","","30","","9","","40.2","","100.69","","","","","","Clear"
"-74.04","45.68","MONTREAL MIRABEL INTL A","7034900","2020-03-27 20:00","2020","03","27","20:00","3.3","","-11.1","","34","","","","26","","5","","40.2","","100.78","","","","","","NA"
"-74.04","45.68","MONTREAL MIRABEL INTL A","7034900","2020-03-27 21:00","2020","03","27","21:00","2.8","","-11.9","","33","","","","26","","6","","40.2","","100.84","","","","","","NA"
"-74.04","45.68","MONTREAL MIRABEL INTL A","7034900","2020-03-27 22:00","2020","03","27","22:00","0.7","","-11.7","","39","","","","35","","3","","40.2","","100.85","","","","","","Clear"
"-74.04","45.68","MONTREAL MIRABEL INTL A","7034900","2020-03-27 23:00","2020","03","27","23:00","-1.4","","-10.7","","49","","","","35","","3","","40.2","","100.89","","","","-2","","NA"
"-74.04","45.68","MONTREAL MIRABEL INTL A","7034900","2020-03-28 00:00","2020","03","28","00:00","-1.7","","-10.1","","53","","","","18","","4","","40.2","","100.94","","","","-3","","NA"
"-74.04","45.68","MONTREAL MIRABEL INTL A","7034900","2020-03-28 01:00","2020","03","28","01:00","-2.6","","-10.0","","57","","","","","","0","","40.2","","101.00","","","","","","Clear"
"-74.04","45.68","MONTREAL MIRABEL INTL A","7034900","2020-03-28 02:00","2020","03","28","02:00","-3.1","","-10.4","","58","","","","","","0","","40.2","","101.00","","","","","","NA"
"-74.04","45.68","MONTREAL MIRABEL INTL A","7034900","2020-03-28 03:00","2020","03","28","03:00","-4.3","","-9.1","","69","","","","1","","3","","40.2","","100.98","","","","-6","","NA"
"-74.04","45.68","MONTREAL MIRABEL INTL A","7034900","2020-03-28 04:00","2020","03","28","04:00","-5.0","","-8.8","","75","","","","2","","8","","40.2","","101.01","","","","-9","","Clear"
"-74.04","45.68","MONTREAL MIRABEL INTL A","7034900","2020-03-28 05:00","2020","03","28","05:00","-4.4","","-7.8","","77","","","","5","","7","","40.2","","101.03","","","","-8","","NA"
"-74.04","45.68","MONTREAL MIRABEL INTL A","7034900","2020-03-28 06:00","2020","03","28","06:00","-4.3","","-8.2","","74","","","","2","","6","","72.4","","101.03","","","","-7","","NA"
"-74.04","45.68","MONTREAL MIRABEL INTL A","7034900","2020-03-28 07:00","2020","03","28","07:00","-3.1","","-7.2","","73","","","","","","0","","72.4","","101.10","","","","","","Mainly Clear"
"-74.04","45.68","MONTREAL MIRABEL INTL A","7034900","2020-03-28 08:00","2020","03","28","08:00","-0.3","","-7.5","","58","","","","4","","5","","72.4","","101.17","","","","-2","","NA"
"-74.04","45.68","MONTREAL MIRABEL INTL A","7034900","2020-03-28 09:00","2020","03","28","09:00","1.1","","-6.9","","55","","","","4","","9","","72.4","","101.18","","","","","","NA"
"-74.04","45.68","MONTREAL MIRABEL INTL A","7034900","2020-03-28 10:00","2020","03","28","10:00","2.2","","-6.8","","52","","","","4","","7","","72.4","","101.17","","","","","","Mostly Cloudy"
"-74.04","45.68","MONTREAL MIRABEL INTL A","7034900","2020-03-28 11:00","2020","03","28","11:00","3.3","","-6.2","","50","","","","3","","7","","72.4","","101.15","","","","","","NA"
"-74.04","45.68","MONTREAL MIRABEL INTL A","7034900","2020-03-28 12:00","2020","03","28","12:00","3.9","","-7.0","","45","","","","3","","7","","72.4","","101.12","","","","","","NA"
"-74.04","45.68","MONTREAL MIRABEL INTL A","7034900","2020-03-28 13:00","2020","03","28","13:00","4.7","","-7.1","","42","","","","3","","8","","72.4","","101.08","","","","","","Cloudy"
"-74.04","45.68","MONTREAL MIRABEL INTL A","7034900","2020-03-28 14:00","2020","03","28","14:00","4.6","","-6.9","","43","","","","4","","10","","72.4","","100.99","","","","","","NA"
"-74.04","45.68","MONTREAL MIRABEL INTL A","7034900","2020-03-28 15:00","2020","03","28","15:00","5.4","","-6.9","","41","","","","5","","13","","72.4","","100.94","","","","","","NA"
"-74.04","45.68","MONTREAL MIRABEL INTL A","7034900","2020-03-28 16:00","2020","03","28","16:00","4.9","","-6.0","","45","","","","5","","7","","72.4","","100.90","","","","","","Mostly Cloudy"
"-74.04","45.68","MONTREAL MIRABEL INTL A","7034900","2020-03-28 17:00","2020","03","28","17:00","4.2","","-5.2","","50","","","","5","","7","","72.4","","100.92","","","","","","NA"
"-74.04","45.68","MONTREAL MIRABEL INTL A","7034900","2020-03-28 18:00","2020","03","28","18:00","4.0","","-5.5","","50","","","","5","","3","","56.3","","100.99","","","","","","NA"
"-74.04","45.68","MONTREAL MIRABEL INTL A","7034900","2020-03-28 19:00","2020","03","28","19:00","3.3","","-5.6","","52","","","","4","","4","","40.2","","101.04","","","","","","Mostly Cloudy"
"-74.04","45.68","MONTREAL MIRABEL INTL A","7034900","2020-03-28 20:00","2020","03","28","20:00","2.7","","-4.5","","59","","","","5","","8","","40.2","","101.08","","","","","","NA"
"-74.04","45.68","MONTREAL MIRABEL INTL A","7034900","2020-03-28 21:00","2020","03","28","21:00","2.3","","-4.2","","62","","","","5","","6","","40.2","","101.09","","","","","","NA"
"-74.04","45.68","MONTREAL MIRABEL INTL A","7034900","2020-03-28 22:00","2020","03","28","22:00","2.4","","-5.0","","59","","","","6","","7","","40.2","","101.08","","","","","","Cloudy"
"-74.04","45.68","MONTREAL MIRABEL INTL A","7034900","2020-03-28 23:00","2020","03","28","23:00","2.0","","-4.3","","63","","","","6","","5","","40.2","","101.03","","","","","","NA"
"-74.04","45.68","MONTREAL MIRABEL INTL A","7034900","2020-03-29 00:00","2020","03","29","00:00","3.1","","-6.6","","49","","","","5","","8","","40.2","","100.99","","","","","","NA"
"-74.04","45.68","MONTREAL MIRABEL INTL A","7034900","2020-03-29 01:00","2020","03","29","01:00","3.0","","-6.2","","51","","","","6","","7","","40.2","","101.00","","","","","","Cloudy"
"-74.04","45.68","MONTREAL MIRABEL INTL A","7034900","2020-03-29 02:00","2020","03","29","02:00","2.8","","-6.1","","52","","","","5","","7","","40.2","","100.94","","","","","","NA"
"-74.04","45.68","MONTREAL MIRABEL INTL A","7034900","2020-03-29 03:00","2020","03","29","03:00","2.5","","-5.3","","56","","","","6","","8","","40.2","","100.88","","","","","","NA"
"-74.04","45.68","MONTREAL MIRABEL INTL A","7034900","2020-03-29 04:00","2020","03","29","04:00","2.6","","-5.6","","55","","","","6","","9","","40.2","","100.84","","","","","","Cloudy"
"-74.04","45.68","MONTREAL MIRABEL INTL A","7034900","2020-03-29 05:00","2020","03","29","05:00","2.4","","-5.5","","56","","","","5","","11","","40.2","","100.83","","","","","","NA"
"-74.04","45.68","MONTREAL MIRABEL INTL A","7034900","2020-03-29 06:00","2020","03","29","06:00","2.1","","-5.1","","59","","","","6","","12","","40.2","","100.85","","","","","","NA"
"-74.04","45.68","MONTREAL MIRABEL INTL A","7034900","2020-03-29 07:00","2020","03","29","07:00","2.0","","-4.7","","61","","","","6","","12","","72.4","","100.85","","","","","","Cloudy"
"-74.04","45.68","MONTREAL MIRABEL INTL A","7034900","2020-03-29 08:00","2020","03","29","08:00","2.0","","-4.5","","62","","","","7","","17","","72.4","","100.78","","","","","","NA"
"-74.04","45.68","MONTREAL MIRABEL INTL A","7034900","2020-03-29 09:00","2020","03","29","09:00","1.1","","-2.4","","78","","","","6","","15","","16.1","","100.69","","","","","","Rain"
"-74.04","45.68","MONTREAL MIRABEL INTL A","7034900","2020-03-29 10:00","2020","03","29","10:00","1.0","","-1.6","","83","","","","7","","16","","16.1","","100.59","","","","","","Rain"
"-74.04","45.68","MONTREAL MIRABEL INTL A","7034900","2020-03-29 11:00","2020","03","29","11:00","1.1","","-0.6","","88","","","","7","","13","","8.1","","100.43","","","","","","Rain,Fog"
"-74.04","45.68","MONTREAL MIRABEL INTL A","7034900","2020-03-29 12:00","2020","03","29","12:00","1.8","","0.8","","93","","","","6","","14","","6.4","","100.32","","","","","","Rain,Fog"
"-74.04","45.68","MONTREAL MIRABEL INTL A","7034900","2020-03-29 13:00","2020","03","29","13:00","1.9","","1.2","","95","","","","6","","17","","4.0","","100.11","","","","","","Rain,Fog"
"-74.04","45.68","MONTREAL MIRABEL INTL A","7034900","2020-03-29 14:00","2020","03","29","14:00","3.2","","2.7","","96","","","","7","","17","","3.2","","100.01","","","","","","Moderate Rain,Fog"
"-74.04","45.68","MONTREAL MIRABEL INTL A","7034900","2020-03-29 15:00","2020","03","29","15:00","3.8","","3.4","","97","","","","7","","18","","4.8","","99.88","","","","","","Moderate Rain,Fog"
"-74.04","45.68","MONTREAL MIRABEL INTL A","7034900","2020-03-29 16:00","2020","03","29","16:00","3.6","","3.1","","96","","","","7","","14","","4.0","","99.89","","","","","","Moderate Rain,Fog"
"-74.04","45.68","MONTREAL MIRABEL INTL A","7034900","2020-03-29 17:00","2020","03","29","17:00","3.1","","2.6","","97","","","","6","","15","","3.2","","99.91","","","","","","Moderate Rain,Fog"
"-74.04","45.68","MONTREAL MIRABEL INTL A","7034900","2020-03-29 18:00","2020","03","29","18:00","2.8","","2.4","","97","","","","6","","15","","4.8","","99.94","","","","","","Moderate Rain,Fog"
"-74.04","45.68","MONTREAL MIRABEL INTL A","7034900","2020-03-29 19:00","2020","03","29","19:00","2.3","","1.8","","97","","","","6","","16","","4.8","","99.98","","","","","","Rain,Fog"
"-74.04","45.68","MONTREAL MIRABEL INTL A","7034900","2020-03-29 20:00","2020","03","29","20:00","2.2","","1.8","","97","","","","5","","14","","12.9","","100.01","","","","","","NA"
"-74.04","45.68","MONTREAL MIRABEL INTL A","7034900","2020-03-29 21:00","2020","03","29","21:00","2.0","","1.6","","97","","","","5","","12","","8.1","","99.99","","","","","","Rain,Fog"
"-74.04","45.68","MONTREAL MIRABEL INTL A","7034900","2020-03-29 22:00","2020","03","29","22:00","2.2","","1.8","","98","","","","6","","11","","6.4","","100.03","","","","","","Rain,Fog"
"-74.04","45.68","MONTREAL MIRABEL INTL A","7034900","2020-03-29 23:00","2020","03","29","23:00","1.9","","1.6","","98","","","","6","","7","","12.9","","100.02","","","","","","Rain"
"-74.04","45.68","MONTREAL MIRABEL INTL A","7034900","2020-03-30 00:00","2020","03","30","00:00","2.2","","1.9","","98","","","","4","","9","","12.9","","100.01","","","","","","Rain"
"-74.04","45.68","MONTREAL MIRABEL INTL A","7034900","2020-03-30 01:00","2020","03","30","01:00","2.3","","2.0","","98","","","","2","","6","","12.9","","100.00","","","","","","Rain"
"-74.04","45.68","MONTREAL MIRABEL INTL A","7034900","2020-03-30 02:00","2020","03","30","02:00","2.1","","1.8","","98","","","","5","","10","","4.8","","99.94","","","","","","Rain"
"-74.04","45.68","MONTREAL MIRABEL INTL A","7034900","2020-03-30 03:00","2020","03","30","03:00","2.0","","1.7","","98","","","","1","","4","","3.2","","99.92","","","","","","Rain,Fog"
"-74.04","45.68","MONTREAL MIRABEL INTL A","7034900","2020-03-30 04:00","2020","03","30","04:00","2.0","","1.8","","98","","","","3","","10","","3.2","","99.95","","","","","","Rain,Fog"
"-74.04","45.68","MONTREAL MIRABEL INTL A","7034900","2020-03-30 05:00","2020","03","30","05:00","1.7","","1.4","","98","","","","2","","5","","4.8","","99.98","","","","","","Fog"
"-74.04","45.68","MONTREAL MIRABEL INTL A","7034900","2020-03-30 06:00","2020","03","30","06:00","1.7","","1.5","","98","","","","6","","9","","4.0","","100.02","","","","","","Rain,Fog"
"-74.04","45.68","MONTREAL MIRABEL INTL A","7034900","2020-03-30 07:00","2020","03","30","07:00","1.5","","1.3","","98","","","","4","","7","","4.0","","100.05","","","","","","Rain,Fog"
"-74.04","45.68","MONTREAL MIRABEL INTL A","7034900","2020-03-30 08:00","2020","03","30","08:00","1.6","","1.4","","98","","","","4","","6","","4.0","","100.08","","","","","","Rain,Fog"
"-74.04","45.68","MONTREAL MIRABEL INTL A","7034900","2020-03-30 09:00","2020","03","30","09:00","2.2","","2.0","","98","","","","3","","6","","4.0","","100.11","","","","","","Rain,Fog"
"-74.04","45.68","MONTREAL MIRABEL INTL A","7034900","2020-03-30 10:00","2020","03","30","10:00","2.2","","2.0","","98","","","","5","","9","","4.0","","100.15","","","","","","Rain,Fog"
"-74.04","45.68","MONTREAL MIRABEL INTL A","7034900","2020-03-30 11:00","2020","03","30","11:00","2.5","","2.2","","98","","","","5","","7","","4.0","","100.18","","","","","","Rain,Fog"
"-74.04","45.68","MONTREAL MIRABEL INTL A","7034900","2020-03-30 12:00","2020","03","30","12:00","2.5","","2.2","","98","","","","4","","10","","4.8","","100.20","","","","","","Rain,Fog"
"-74.04","45.68","MONTREAL MIRABEL INTL A","7034900","2020-03-30 13:00","2020","03","30","13:00","2.3","","2.0","","98","","","","2","","5","","4.8","","100.26","","","","","","Rain,Fog"
"-74.04","45.68","MONTREAL MIRABEL INTL A","7034900","2020-03-30 14:00","2020","03","30","14:00","2.1","","1.7","","97","","","","3","","6","","4.8","","100.28","","","","","","Rain,Fog"
"-74.04","45.68","MONTREAL MIRABEL INTL A","7034900","2020-03-30 15:00","2020","03","30","15:00","1.9","","1.4","","97","","","","5","","15","","4.8","","100.31","","","","","","Rain,Fog"
"-74.04","45.68","MONTREAL MIRABEL INTL A","7034900","2020-03-30 16:00","2020","03","30","16:00","1.8","","1.2","","96","","","","5","","12","","8.1","","100.38","","","","","","Rain,Fog"
"-74.04","45.68","MONTREAL MIRABEL INTL A","7034900","2020-03-30 17:00","2020","03","30","17:00","1.6","","1.0","","95","","","","5","","15","","8.1","","100.46","","","","","","Rain,Fog"
"-74.04","45.68","MONTREAL MIRABEL INTL A","7034900","2020-03-30 18:00","2020","03","30","18:00","1.4","","0.7","","95","","","","5","","14","","9.7","","100.56","","","","","","Rain,Fog"
"-74.04","45.68","MONTREAL MIRABEL INTL A","7034900","2020-03-30 19:00","2020","03","30","19:00","1.0","","0.4","","95","","","","5","","17","","8.1","","100.64","","","","","","Rain,Fog"
"-74.04","45.68","MONTREAL MIRABEL INTL A","7034900","2020-03-30 20:00","2020","03","30","20:00","0.7","","0.1","","95","","","","5","","19","","16.1","","100.73","","","","","","NA"
"-74.04","45.68","MONTREAL MIRABEL INTL A","7034900","2020-03-30 21:00","2020","03","30","21:00","0.6","","-0.1","","95","","","","5","","19","","24.1","","100.77","","","","","","NA"
"-74.04","45.68","MONTREAL MIRABEL INTL A","7034900","2020-03-30 22:00","2020","03","30","22:00","0.4","","-0.5","","94","","","","5","","18","","4.8","","100.80","","","","","","Snow,Fog"
"-74.04","45.68","MONTREAL MIRABEL INTL A","7034900","2020-03-30 23:00","2020","03","30","23:00","0.3","","-0.4","","95","","","","6","","16","","4.8","","100.83","","","","","","Rain,Snow,Fog"
"-74.04","45.68","MONTREAL MIRABEL INTL A","7034900","2020-03-31 00:00","2020","03","31","00:00","0.3","","-0.4","","95","","","","5","","19","","24.1","","100.88","","","","","","NA"
"-74.04","45.68","MONTREAL MIRABEL INTL A","7034900","2020-03-31 01:00","2020","03","31","01:00","0.2","","-0.5","","94","","","","5","","19","","9.7","","100.91","","","","","","Fog"
"-74.04","45.68","MONTREAL MIRABEL INTL A","7034900","2020-03-31 02:00","2020","03","31","02:00","0.3","","-0.8","","93","","","","5","","17","","32.2","","100.95","","","","","","NA"
"-74.04","45.68","MONTREAL MIRABEL INTL A","7034900","2020-03-31 03:00","2020","03","31","03:00","0.4","","-1.3","","89","","","","5","","19","","32.2","","100.98","","","","","","NA"
"-74.04","45.68","MONTREAL MIRABEL INTL A","7034900","2020-03-31 04:00","2020","03","31","04:00","0.3","","-1.7","","86","","","","5","","16","","40.2","","101.01","","","","","","Cloudy"
"-74.04","45.68","MONTREAL MIRABEL INTL A","7034900","2020-03-31 05:00","2020","03","31","05:00","0.3","","-2.3","","83","","","","5","","13","","40.2","","101.06","","","","","","NA"
"-74.04","45.68","MONTREAL MIRABEL INTL A","7034900","2020-03-31 06:00","2020","03","31","06:00","0.3","","-3.0","","78","","","","5","","17","","40.2","","101.11","","","","","","NA"
"-74.04","45.68","MONTREAL MIRABEL INTL A","7034900","2020-03-31 07:00","2020","03","31","07:00","0.5","","-3.8","","73","","","","5","","17","","72.4","","101.17","","","","","","Cloudy"
"-74.04","45.68","MONTREAL MIRABEL INTL A","7034900","2020-03-31 08:00","2020","03","31","08:00","1.0","","-4.0","","69","","","","5","","20","","72.4","","101.17","","","","","","NA"
"-74.04","45.68","MONTREAL MIRABEL INTL A","7034900","2020-03-31 09:00","2020","03","31","09:00","1.8","","-4.0","","65","","","","6","","21","","72.4","","101.18","","","","","","NA"
"-74.04","45.68","MONTREAL MIRABEL INTL A","7034900","2020-03-31 10:00","2020","03","31","10:00","3.0","","-4.9","","56","","","","6","","16","","72.4","","101.15","","","","","","Mostly Cloudy"
"-74.04","45.68","MONTREAL MIRABEL INTL A","7034900","2020-03-31 11:00","2020","03","31","11:00","4.2","","-5.9","","48","","","","5","","18","","72.4","","101.11","","","","","","NA"
"-74.04","45.68","MONTREAL MIRABEL INTL A","7034900","2020-03-31 12:00","2020","03","31","12:00","4.4","","-7.8","","41","","","","5","","16","","72.4","","101.07","","","","","","NA"
"-74.04","45.68","MONTREAL MIRABEL INTL A","7034900","2020-03-31 13:00","2020","03","31","13:00","4.8","","-8.5","","38","","","","5","","19","","72.4","","101.01","","","","","","Clear"
"-74.04","45.68","MONTREAL MIRABEL INTL A","7034900","2020-03-31 14:00","2020","03","31","14:00","5.2","","-8.8","","36","","","","6","","18","","72.4","","100.94","","","","","","NA"
"-74.04","45.68","MONTREAL MIRABEL INTL A","7034900","2020-03-31 15:00","2020","03","31","15:00","5.8","","-6.9","","39","","","","7","","14","","72.4","","100.88","","","","","","NA"
"-74.04","45.68","MONTREAL MIRABEL INTL A","7034900","2020-03-31 16:00","2020","03","31","16:00","5.9","","-7.7","","37","","","","6","","11","","72.4","","100.87","","","","","","Mainly Clear"
"-74.04","45.68","MONTREAL MIRABEL INTL A","7034900","2020-03-31 17:00","2020","03","31","17:00","5.8","","-6.0","","42","","","","6","","10","","72.4","","100.88","","","","","","NA"
"-74.04","45.68","MONTREAL MIRABEL INTL A","7034900","2020-03-31 18:00","2020","03","31","18:00","4.6","","-5.5","","48","","","","5","","6","","72.4","","100.86","","","","","","NA"
"-74.04","45.68","MONTREAL MIRABEL INTL A","7034900","2020-03-31 19:00","2020","03","31","19:00","2.3","","-5.6","","56","","","","4","","4","","40.2","","100.86","","","","","","Mainly Clear"
"-74.04","45.68","MONTREAL MIRABEL INTL A","7034900","2020-03-31 20:00","2020","03","31","20:00","1.4","","-5.7","","59","","","","","","0","","40.2","","100.85","","","","","","NA"
"-74.04","45.68","MONTREAL MIRABEL INTL A","7034900","2020-03-31 21:00","2020","03","31","21:00","1.4","","-7.1","","53","","","","7","","10","","40.2","","100.83","","","","","","NA"
"-74.04","45.68","MONTREAL MIRABEL INTL A","7034900","2020-03-31 22:00","2020","03","31","22:00","1.4","","-7.0","","54","","","","7","","13","","40.2","","100.79","","","","","","Mainly Clear"
"-74.04","45.68","MONTREAL MIRABEL INTL A","7034900","2020-03-31 23:00","2020","03","31","23:00","-0.6","","-6.5","","64","","","","1","","5","","40.2","","100.75","","","","-2","","NA"
