"Longitude (x)","Latitude (y)","Station Name","Climate ID","Date/Time (LST)","Year","Month","Day","Time (LST)","Temp (°C)","Temp Flag","Dew Point Temp (°C)","Dew Point Temp Flag","Rel Hum (%)","Rel Hum Flag","Precip. Amount (mm)","Precip. Amount Flag","Wind Dir (10s deg)","Wind Dir Flag","Wind Spd (km/h)","Wind Spd Flag","Visibility (km)","Visibility Flag","Stn Press (kPa)","Stn Press Flag","Hmdx","Hmdx Flag","Wind Chill","Wind Chill Flag","Weather"
"-73.74","45.47","MONTREAL/PIERRE ELLIOTT TRUDEAU INTL","702S006","2021-03-01 00:00","2021","03","01","00:00","4.0","","-1.5","","68","","0.0","","15","","39","","","","100.08","","","","","","NA"
"-73.74","45.47","MONTREAL/PIERRE ELLIOTT TRUDEAU INTL","702S006","2021-03-01 01:00","2021","03","01","01:00","3.6","","-1.1","","71","","0.0","","15","","43","","","","99.94","","","","","","NA"
"-73.74","45.47","MONTREAL/PIERRE ELLIOTT TRUDEAU INTL","702S006","2021-03-01 02:00","2021","03","01","02:00","3.2","","-0.3","","78","","0.0","","15","","45","","","","99.77","","","","","","NA"
"-73.74","45.47","MONTREAL/PIERRE ELLIOTT TRUDEAU INTL","702S006","2021-03-01 03:00","2021","03","01","03:00","3.0","","0.3","","83","","0.0","","15","","42","","","","99.54","","","","","","NA"
"-73.74","45.47","MONTREAL/PIERRE ELLIOTT TRUDEAU INTL","702S006","2021-03-01 04:00","2021","03","01","04:00","2.9","","0.9","","87","","0.0","","16","","37","","","","99.50","","","","","","NA"
"-73.74","45.47","MONTREAL/PIERRE ELLIOTT TRUDEAU INTL","702S006","2021-03-01 05:00","2021","03","01","05:00","2.2","","1.5","","95","","2.7","","16","","20","","","","99.44","","","","","","NA"
"-73.74","45.47","MONTREAL/PIERRE ELLIOTT TRUDEAU INTL","702S006","2021-03-01 06:00","2021","03","01","06:00","2.0","","1.5","","97","","1.3","","17","","21","","","","99.48","","","","","","NA"
"-73.74","45.47","MONTREAL/PIERRE ELLIOTT TRUDEAU INTL","702S006","2021-03-01 07:00","2021","03","01","07:00","2.7","","2.3","","98","","1.1","","19","","16","","","","99.49","","","","","","NA"
"-73.74","45.47","MONTREAL/PIERRE ELLIOTT TRUDEAU INTL","702S006","2021-03-01 08:00","2021","03","01","08:00","4.3","","3.3","","93","","0.0","","25","","20","","","","99.44","","","","","","NA"
"-73.74","45.47","MONTREAL/PIERRE ELLIOTT TRUDEAU INTL","702S006","2021-03-01 09:00","2021","03","01","09:00","4.2","","2.4","","88","","0.0","","25","","22","","","","99.49","","","","","","NA"
"-73.74","45.47","MONTREAL/PIERRE ELLIOTT TRUDEAU INTL","702S006","2021-03-01 10:00","2021","03","01","10:00","4.7","","0.8","","76","","0.0","","26","","22","","","","99.52","","","","","","NA"
"-73.74","45.47","MONTREAL/PIERRE ELLIOTT TRUDEAU INTL","702S006","2021-03-01 11:00","2021","03","01","11:00","4.5","","-0.7","","69","","0.0","","26","","20","","","","99.48","","","","","","NA"
"-73.74","45.47","MONTREAL/PIERRE ELLIOTT TRUDEAU INTL","702S006","2021-03-01 12:00","2021","03","01","12:00","4.7","","-1.8","","63","","0.0","","26","","28","","","","99.46","","","","","","NA"
"-73.74","45.47","MONTREAL/PIERRE ELLIOTT TRUDEAU INTL","702S006","2021-03-01 13:00","2021","03","01","13:00","2.6","","-3.5","","64","","0.0","","29","","30","","","","99.47","","","","","","NA"
"-73.74","45.47","MONTREAL/PIERRE ELLIOTT TRUDEAU INTL","702S006","2021-03-01 14:00","2021","03","01","14:00","2.2","","-7.1","","50","","0.0","","28","","32","","","","99.45","","","","","","NA"
"-73.74","45.47","MONTREAL/PIERRE ELLIOTT TRUDEAU INTL","702S006","2021-03-01 15:00","2021","03","01","15:00","0.3","","-8.3","","53","","0.0","","29","","36","","","","99.62","","","","","","NA"
"-73.74","45.47","MONTREAL/PIERRE ELLIOTT TRUDEAU INTL","702S006","2021-03-01 16:00","2021","03","01","16:00","-2.3","","-10.6","","53","","0.0","","29","","42","","","","99.77","","","","-11","","NA"
"-73.74","45.47","MONTREAL/PIERRE ELLIOTT TRUDEAU INTL","702S006","2021-03-01 17:00","2021","03","01","17:00","-4.0","","-12.9","","50","","0.0","","31","","42","","","","99.96","","","","-13","","NA"
"-73.74","45.47","MONTREAL/PIERRE ELLIOTT TRUDEAU INTL","702S006","2021-03-01 18:00","2021","03","01","18:00","-6.1","","-13.1","","57","","0.0","","32","","40","","","","99.99","","","","-16","","NA"
"-73.74","45.47","MONTREAL/PIERRE ELLIOTT TRUDEAU INTL","702S006","2021-03-01 19:00","2021","03","01","19:00","-7.6","","-16.1","","50","","0.0","","32","","40","","","","100.12","","","","-18","","NA"
"-73.74","45.47","MONTREAL/PIERRE ELLIOTT TRUDEAU INTL","702S006","2021-03-01 20:00","2021","03","01","20:00","-8.6","","-18.5","","45","","0.0","","31","","31","","","","100.37","","","","-18","","NA"
"-73.74","45.47","MONTREAL/PIERRE ELLIOTT TRUDEAU INTL","702S006","2021-03-01 21:00","2021","03","01","21:00","-10.1","","-18.8","","49","","0.2","","32","","38","","","","100.55","","","","-21","","NA"
"-73.74","45.47","MONTREAL/PIERRE ELLIOTT TRUDEAU INTL","702S006","2021-03-01 22:00","2021","03","01","22:00","-11.6","","-19.3","","53","","0.0","","32","","38","","","","100.68","","","","-23","","NA"
"-73.74","45.47","MONTREAL/PIERRE ELLIOTT TRUDEAU INTL","702S006","2021-03-01 23:00","2021","03","01","23:00","-13.4","","-24.0","","40","","0.0","","30","","44","","","","100.78","","","","-26","","NA"
"-73.74","45.47","MONTREAL/PIERRE ELLIOTT TRUDEAU INTL","702S006","2021-03-02 00:00","2021","03","02","00:00","-14.3","","-23.2","","47","","0.0","","29","","37","","","","100.87","","","","-26","","NA"
"-73.74","45.47","MONTREAL/PIERRE ELLIOTT TRUDEAU INTL","702S006","2021-03-02 01:00","2021","03","02","01:00","-15.3","","-22.9","","52","","0.0","","30","","39","","","","100.98","","","","-28","","NA"
"-73.74","45.47","MONTREAL/PIERRE ELLIOTT TRUDEAU INTL","702S006","2021-03-02 02:00","2021","03","02","02:00","-16.1","","-23.3","","54","","0.0","","29","","35","","","","101.08","","","","-28","","NA"
"-73.74","45.47","MONTREAL/PIERRE ELLIOTT TRUDEAU INTL","702S006","2021-03-02 03:00","2021","03","02","03:00","-17.0","","-24.8","","51","","0.0","","29","","32","","","","101.19","","","","-29","","NA"
"-73.74","45.47","MONTREAL/PIERRE ELLIOTT TRUDEAU INTL","702S006","2021-03-02 04:00","2021","03","02","04:00","-17.3","","-25.2","","50","","0.0","","28","","34","","","","101.26","","","","-30","","NA"
"-73.74","45.47","MONTREAL/PIERRE ELLIOTT TRUDEAU INTL","702S006","2021-03-02 05:00","2021","03","02","05:00","-17.7","","-25.1","","53","","0.0","","29","","34","","","","101.34","","","","-30","","NA"
"-73.74","45.47","MONTREAL/PIERRE ELLIOTT TRUDEAU INTL","702S006","2021-03-02 06:00","2021","03","02","06:00","-17.7","","-25.1","","52","","0.2","","28","","25","","","","101.43","","","","-29","","NA"
"-73.74","45.47","MONTREAL/PIERRE ELLIOTT TRUDEAU INTL","702S006","2021-03-02 07:00","2021","03","02","07:00","-17.7","","-24.5","","55","","0.0","","28","","22","","","","101.50","","","","-28","","NA"
"-73.74","45.47","MONTREAL/PIERRE ELLIOTT TRUDEAU INTL","702S006","2021-03-02 08:00","2021","03","02","08:00","-17.2","","-24.3","","54","","0.0","","27","","24","","","","101.60","","","","-28","","NA"
"-73.74","45.47","MONTREAL/PIERRE ELLIOTT TRUDEAU INTL","702S006","2021-03-02 09:00","2021","03","02","09:00","-16.8","","-24.6","","51","","0.0","","27","","35","","","","101.66","","","","-29","","NA"
"-73.74","45.47","MONTREAL/PIERRE ELLIOTT TRUDEAU INTL","702S006","2021-03-02 10:00","2021","03","02","10:00","-16.2","","-24.7","","48","","0.0","","27","","33","","","","101.66","","","","-28","","NA"
"-73.74","45.47","MONTREAL/PIERRE ELLIOTT TRUDEAU INTL","702S006","2021-03-02 11:00","2021","03","02","11:00","-15.0","","-24.1","","46","","0.0","","26","","31","","","","101.62","","","","-26","","NA"
"-73.74","45.47","MONTREAL/PIERRE ELLIOTT TRUDEAU INTL","702S006","2021-03-02 12:00","2021","03","02","12:00","-14.0","","-24.0","","43","","0.0","","26","","31","","","","101.57","","","","-25","","NA"
"-73.74","45.47","MONTREAL/PIERRE ELLIOTT TRUDEAU INTL","702S006","2021-03-02 13:00","2021","03","02","13:00","-12.3","","-22.0","","44","","0.0","","26","","35","","","","101.50","","","","-23","","NA"
"-73.74","45.47","MONTREAL/PIERRE ELLIOTT TRUDEAU INTL","702S006","2021-03-02 14:00","2021","03","02","14:00","-11.0","","-21.1","","43","","0.0","","27","","34","","","","101.43","","","","-21","","NA"
"-73.74","45.47","MONTREAL/PIERRE ELLIOTT TRUDEAU INTL","702S006","2021-03-02 15:00","2021","03","02","15:00","-10.4","","-20.2","","45","","0.0","","26","","29","","","","101.38","","","","-20","","NA"
"-73.74","45.47","MONTREAL/PIERRE ELLIOTT TRUDEAU INTL","702S006","2021-03-02 16:00","2021","03","02","16:00","-9.9","","-20.5","","42","","0.0","","26","","30","","","","101.32","","","","-19","","NA"
"-73.74","45.47","MONTREAL/PIERRE ELLIOTT TRUDEAU INTL","702S006","2021-03-02 17:00","2021","03","02","17:00","-9.2","","-20.6","","39","","0.0","","26","","25","","","","101.33","","","","-18","","NA"
"-73.74","45.47","MONTREAL/PIERRE ELLIOTT TRUDEAU INTL","702S006","2021-03-02 18:00","2021","03","02","18:00","-9.2","","-20.5","","39","","0.0","","26","","24","","","","101.30","","","","-18","","NA"
"-73.74","45.47","MONTREAL/PIERRE ELLIOTT TRUDEAU INTL","702S006","2021-03-02 19:00","2021","03","02","19:00","-8.9","","-19.0","","44","","0.0","","25","","18","","","","101.29","","","","-16","","NA"
"-73.74","45.47","MONTREAL/PIERRE ELLIOTT TRUDEAU INTL","702S006","2021-03-02 20:00","2021","03","02","20:00","-8.9","","-17.6","","49","","0.0","","25","","17","","","","101.25","","","","-16","","NA"
"-73.74","45.47","MONTREAL/PIERRE ELLIOTT TRUDEAU INTL","702S006","2021-03-02 21:00","2021","03","02","21:00","-8.6","","-16.4","","53","","0.0","","25","","16","","","","101.19","","","","-15","","NA"
"-73.74","45.47","MONTREAL/PIERRE ELLIOTT TRUDEAU INTL","702S006","2021-03-02 22:00","2021","03","02","22:00","-8.1","","-14.9","","58","","0.0","","24","","13","","","","101.13","","","","-14","","NA"
"-73.74","45.47","MONTREAL/PIERRE ELLIOTT TRUDEAU INTL","702S006","2021-03-02 23:00","2021","03","02","23:00","-8.3","","-10.3","","85","","0.0","","24","","8","","","","101.01","","","","-12","","NA"
"-73.74","45.47","MONTREAL/PIERRE ELLIOTT TRUDEAU INTL","702S006","2021-03-03 00:00","2021","03","03","00:00","-8.1","","-9.7","","88","","0.3","","24","","6","","","","100.91","","","","-11","","NA"
"-73.74","45.47","MONTREAL/PIERRE ELLIOTT TRUDEAU INTL","702S006","2021-03-03 01:00","2021","03","03","01:00","-7.6","","-9.0","","90","","0.3","","23","","8","","","","100.82","","","","-12","","NA"
"-73.74","45.47","MONTREAL/PIERRE ELLIOTT TRUDEAU INTL","702S006","2021-03-03 02:00","2021","03","03","02:00","-7.8","","-9.4","","88","","0.2","","21","","5","","","","100.71","","","","-10","","NA"
"-73.74","45.47","MONTREAL/PIERRE ELLIOTT TRUDEAU INTL","702S006","2021-03-03 03:00","2021","03","03","03:00","-7.5","","-8.9","","89","","0.0","","16","","10","","","","100.59","","","","-12","","NA"
"-73.74","45.47","MONTREAL/PIERRE ELLIOTT TRUDEAU INTL","702S006","2021-03-03 04:00","2021","03","03","04:00","-7.2","","-8.6","","90","","0.2","","16","","6","","","","100.51","","","","-10","","NA"
"-73.74","45.47","MONTREAL/PIERRE ELLIOTT TRUDEAU INTL","702S006","2021-03-03 05:00","2021","03","03","05:00","-6.4","","-7.8","","90","","0.2","","22","","5","","","","100.49","","","","-9","","NA"
"-73.74","45.47","MONTREAL/PIERRE ELLIOTT TRUDEAU INTL","702S006","2021-03-03 06:00","2021","03","03","06:00","-6.5","","-8.0","","90","","0.3","","25","","4","","","","100.49","","","","-8","","NA"
"-73.74","45.47","MONTREAL/PIERRE ELLIOTT TRUDEAU INTL","702S006","2021-03-03 07:00","2021","03","03","07:00","-6.6","","-8.0","","89","","0.0","","34","","7","","","","100.52","","","","-10","","NA"
"-73.74","45.47","MONTREAL/PIERRE ELLIOTT TRUDEAU INTL","702S006","2021-03-03 08:00","2021","03","03","08:00","-6.8","","-8.4","","88","","0.2","","35","","7","","","","100.56","","","","-10","","NA"
"-73.74","45.47","MONTREAL/PIERRE ELLIOTT TRUDEAU INTL","702S006","2021-03-03 09:00","2021","03","03","09:00","-6.3","","-8.4","","85","","0.0","","31","","8","","","","100.56","","","","-10","","NA"
"-73.74","45.47","MONTREAL/PIERRE ELLIOTT TRUDEAU INTL","702S006","2021-03-03 10:00","2021","03","03","10:00","-4.2","","-7.5","","78","","0.0","","29","","5","","","","100.54","","","","-6","","NA"
"-73.74","45.47","MONTREAL/PIERRE ELLIOTT TRUDEAU INTL","702S006","2021-03-03 11:00","2021","03","03","11:00","-3.1","","-7.1","","74","","0.0","","31","","15","","","","100.53","","","","-8","","NA"
"-73.74","45.47","MONTREAL/PIERRE ELLIOTT TRUDEAU INTL","702S006","2021-03-03 12:00","2021","03","03","12:00","-2.1","","-8.2","","63","","0.0","","35","","5","","","","100.50","","","","-4","","NA"
"-73.74","45.47","MONTREAL/PIERRE ELLIOTT TRUDEAU INTL","702S006","2021-03-03 13:00","2021","03","03","13:00","0.1","","-7.2","","58","","0.0","","23","","2","","","","100.46","","","","","","NA"
"-73.74","45.47","MONTREAL/PIERRE ELLIOTT TRUDEAU INTL","702S006","2021-03-03 14:00","2021","03","03","14:00","-1.1","","-6.8","","66","","0.0","","20","","9","","","","100.47","","","","-4","","NA"
"-73.74","45.47","MONTREAL/PIERRE ELLIOTT TRUDEAU INTL","702S006","2021-03-03 15:00","2021","03","03","15:00","-0.6","","-7.0","","62","","0.0","","29","","18","","","","100.49","","","","-6","","NA"
"-73.74","45.47","MONTREAL/PIERRE ELLIOTT TRUDEAU INTL","702S006","2021-03-03 16:00","2021","03","03","16:00","-0.1","","-8.1","","55","","0.0","","28","","17","","","","100.54","","","","-5","","NA"
"-73.74","45.47","MONTREAL/PIERRE ELLIOTT TRUDEAU INTL","702S006","2021-03-03 17:00","2021","03","03","17:00","-0.1","","-8.4","","54","","0.0","","28","","14","","","","100.57","","","","-4","","NA"
"-73.74","45.47","MONTREAL/PIERRE ELLIOTT TRUDEAU INTL","702S006","2021-03-03 18:00","2021","03","03","18:00","-0.8","","-8.2","","57","","0.0","","27","","14","","","","100.66","","","","-5","","NA"
"-73.74","45.47","MONTREAL/PIERRE ELLIOTT TRUDEAU INTL","702S006","2021-03-03 19:00","2021","03","03","19:00","-1.4","","-8.2","","60","","0.0","","30","","13","","","","100.69","","","","-6","","NA"
"-73.74","45.47","MONTREAL/PIERRE ELLIOTT TRUDEAU INTL","702S006","2021-03-03 20:00","2021","03","03","20:00","-1.9","","-8.2","","62","","0.0","","31","","13","","","","100.69","","","","-6","","NA"
"-73.74","45.47","MONTREAL/PIERRE ELLIOTT TRUDEAU INTL","702S006","2021-03-03 21:00","2021","03","03","21:00","-1.8","","-8.5","","60","","0.0","","34","","12","","","","100.70","","","","-6","","NA"
"-73.74","45.47","MONTREAL/PIERRE ELLIOTT TRUDEAU INTL","702S006","2021-03-03 22:00","2021","03","03","22:00","-2.0","","-8.5","","61","","0.0","","32","","13","","","","100.72","","","","-6","","NA"
"-73.74","45.47","MONTREAL/PIERRE ELLIOTT TRUDEAU INTL","702S006","2021-03-03 23:00","2021","03","03","23:00","-2.3","","-8.8","","61","","0.0","","32","","17","","","","100.70","","","","-8","","NA"
"-73.74","45.47","MONTREAL/PIERRE ELLIOTT TRUDEAU INTL","702S006","2021-03-04 00:00","2021","03","04","00:00","-2.9","","-9.2","","62","","0.0","","32","","15","","","","100.73","","","","-8","","NA"
"-73.74","45.47","MONTREAL/PIERRE ELLIOTT TRUDEAU INTL","702S006","2021-03-04 01:00","2021","03","04","01:00","-3.2","","-9.5","","62","","0.0","","33","","11","","","","100.74","","","","-7","","NA"
"-73.74","45.47","MONTREAL/PIERRE ELLIOTT TRUDEAU INTL","702S006","2021-03-04 02:00","2021","03","04","02:00","-4.1","","-12.6","","52","","0.0","","34","","16","","","","100.76","","","","-10","","NA"
"-73.74","45.47","MONTREAL/PIERRE ELLIOTT TRUDEAU INTL","702S006","2021-03-04 03:00","2021","03","04","03:00","-5.9","","-13.5","","55","","0.0","","34","","13","","","","100.75","","","","-11","","NA"
"-73.74","45.47","MONTREAL/PIERRE ELLIOTT TRUDEAU INTL","702S006","2021-03-04 04:00","2021","03","04","04:00","-6.0","","-13.9","","54","","0.0","","34","","15","","","","100.76","","","","-12","","NA"
"-73.74","45.47","MONTREAL/PIERRE ELLIOTT TRUDEAU INTL","702S006","2021-03-04 05:00","2021","03","04","05:00","-6.3","","-14.1","","54","","0.0","","32","","17","","","","100.78","","","","-13","","NA"
"-73.74","45.47","MONTREAL/PIERRE ELLIOTT TRUDEAU INTL","702S006","2021-03-04 06:00","2021","03","04","06:00","-7.3","","-14.5","","56","","0.0","","31","","20","","","","100.82","","","","-14","","NA"
"-73.74","45.47","MONTREAL/PIERRE ELLIOTT TRUDEAU INTL","702S006","2021-03-04 07:00","2021","03","04","07:00","-8.5","","-15.9","","55","","0.0","","30","","23","","","","100.87","","","","-17","","NA"
"-73.74","45.47","MONTREAL/PIERRE ELLIOTT TRUDEAU INTL","702S006","2021-03-04 08:00","2021","03","04","08:00","-9.4","","-17.0","","54","","0.0","","30","","21","","","","100.88","","","","-17","","NA"
"-73.74","45.47","MONTREAL/PIERRE ELLIOTT TRUDEAU INTL","702S006","2021-03-04 09:00","2021","03","04","09:00","-9.7","","-18.7","","48","","0.0","","29","","22","","","","100.91","","","","-18","","NA"
"-73.74","45.47","MONTREAL/PIERRE ELLIOTT TRUDEAU INTL","702S006","2021-03-04 10:00","2021","03","04","10:00","-9.1","","-19.1","","44","","0.0","","28","","24","","","","100.87","","","","-17","","NA"
"-73.74","45.47","MONTREAL/PIERRE ELLIOTT TRUDEAU INTL","702S006","2021-03-04 11:00","2021","03","04","11:00","-8.8","","-18.8","","44","","0.0","","29","","30","","","","100.85","","","","-18","","NA"
"-73.74","45.47","MONTREAL/PIERRE ELLIOTT TRUDEAU INTL","702S006","2021-03-04 12:00","2021","03","04","12:00","-7.2","","-16.8","","46","","0.0","","27","","22","","","","100.80","","","","-15","","NA"
"-73.74","45.47","MONTREAL/PIERRE ELLIOTT TRUDEAU INTL","702S006","2021-03-04 13:00","2021","03","04","13:00","-7.3","","-18.4","","41","","0.0","","27","","27","","","","100.71","","","","-16","","NA"
"-73.74","45.47","MONTREAL/PIERRE ELLIOTT TRUDEAU INTL","702S006","2021-03-04 14:00","2021","03","04","14:00","-6.9","","-17.5","","43","","0.0","","27","","30","","","","100.67","","","","-15","","NA"
"-73.74","45.47","MONTREAL/PIERRE ELLIOTT TRUDEAU INTL","702S006","2021-03-04 15:00","2021","03","04","15:00","-6.7","","-17.3","","43","","0.0","","27","","31","","","","100.64","","","","-15","","NA"
"-73.74","45.47","MONTREAL/PIERRE ELLIOTT TRUDEAU INTL","702S006","2021-03-04 16:00","2021","03","04","16:00","-6.9","","-17.7","","42","","0.0","","28","","33","","","","100.68","","","","-16","","NA"
"-73.74","45.47","MONTREAL/PIERRE ELLIOTT TRUDEAU INTL","702S006","2021-03-04 17:00","2021","03","04","17:00","-7.3","","-16.9","","46","","0.0","","30","","30","","","","100.74","","","","-16","","NA"
"-73.74","45.47","MONTREAL/PIERRE ELLIOTT TRUDEAU INTL","702S006","2021-03-04 18:00","2021","03","04","18:00","-7.6","","-16.1","","51","","0.0","","30","","25","","","","100.78","","","","-16","","NA"
"-73.74","45.47","MONTREAL/PIERRE ELLIOTT TRUDEAU INTL","702S006","2021-03-04 19:00","2021","03","04","19:00","-7.8","","-16.4","","50","","0.0","","29","","32","","","","100.79","","","","-17","","NA"
"-73.74","45.47","MONTREAL/PIERRE ELLIOTT TRUDEAU INTL","702S006","2021-03-04 20:00","2021","03","04","20:00","-8.2","","-16.5","","51","","0.0","","28","","34","","","","100.82","","","","-18","","NA"
"-73.74","45.47","MONTREAL/PIERRE ELLIOTT TRUDEAU INTL","702S006","2021-03-04 21:00","2021","03","04","21:00","-8.5","","-18.0","","46","","0.0","","29","","26","","","","100.81","","","","-17","","NA"
"-73.74","45.47","MONTREAL/PIERRE ELLIOTT TRUDEAU INTL","702S006","2021-03-04 22:00","2021","03","04","22:00","-8.7","","-20.1","","39","","0.0","","28","","26","","","","100.77","","","","-17","","NA"
"-73.74","45.47","MONTREAL/PIERRE ELLIOTT TRUDEAU INTL","702S006","2021-03-04 23:00","2021","03","04","23:00","-8.7","","-20.1","","39","","0.0","","28","","26","","","","100.73","","","","-17","","NA"
"-73.74","45.47","MONTREAL/PIERRE ELLIOTT TRUDEAU INTL","702S006","2021-03-05 00:00","2021","03","05","00:00","-8.9","","-21.4","","36","","0.0","","28","","28","","","","100.68","","","","-18","","NA"
"-73.74","45.47","MONTREAL/PIERRE ELLIOTT TRUDEAU INTL","702S006","2021-03-05 01:00","2021","03","05","01:00","-9.3","","-19.5","","43","","0.0","","27","","23","","","","100.67","","","","-18","","NA"
"-73.74","45.47","MONTREAL/PIERRE ELLIOTT TRUDEAU INTL","702S006","2021-03-05 02:00","2021","03","05","02:00","-9.8","","-19.6","","45","","0.0","","27","","26","","","","100.63","","","","-19","","NA"
"-73.74","45.47","MONTREAL/PIERRE ELLIOTT TRUDEAU INTL","702S006","2021-03-05 03:00","2021","03","05","03:00","-10.0","","-19.7","","45","","0.0","","27","","22","","","","100.59","","","","-18","","NA"
"-73.74","45.47","MONTREAL/PIERRE ELLIOTT TRUDEAU INTL","702S006","2021-03-05 04:00","2021","03","05","04:00","-10.4","","-19.7","","46","","0.0","","27","","23","","","","100.59","","","","-19","","NA"
"-73.74","45.47","MONTREAL/PIERRE ELLIOTT TRUDEAU INTL","702S006","2021-03-05 05:00","2021","03","05","05:00","-10.9","","-20.6","","45","","0.0","","28","","23","","","","100.59","","","","-20","","NA"
"-73.74","45.47","MONTREAL/PIERRE ELLIOTT TRUDEAU INTL","702S006","2021-03-05 06:00","2021","03","05","06:00","-11.5","","-20.8","","46","","0.0","","28","","24","","","","100.61","","","","-21","","NA"
"-73.74","45.47","MONTREAL/PIERRE ELLIOTT TRUDEAU INTL","702S006","2021-03-05 07:00","2021","03","05","07:00","-12.0","","-21.6","","44","","0.0","","28","","28","","","","100.63","","","","-22","","NA"
"-73.74","45.47","MONTREAL/PIERRE ELLIOTT TRUDEAU INTL","702S006","2021-03-05 08:00","2021","03","05","08:00","-12.3","","-21.3","","47","","0.0","","27","","24","","","","100.63","","","","-22","","NA"
"-73.74","45.47","MONTREAL/PIERRE ELLIOTT TRUDEAU INTL","702S006","2021-03-05 09:00","2021","03","05","09:00","-12.4","","-22.0","","44","","0.0","","27","","23","","","","100.59","","","","-21","","NA"
"-73.74","45.47","MONTREAL/PIERRE ELLIOTT TRUDEAU INTL","702S006","2021-03-05 10:00","2021","03","05","10:00","-11.8","","-20.9","","47","","0.0","","26","","25","","","","100.52","","","","-21","","NA"
"-73.74","45.47","MONTREAL/PIERRE ELLIOTT TRUDEAU INTL","702S006","2021-03-05 11:00","2021","03","05","11:00","-11.5","","-20.9","","46","","0.0","","26","","29","","","","100.47","","","","-21","","NA"
"-73.74","45.47","MONTREAL/PIERRE ELLIOTT TRUDEAU INTL","702S006","2021-03-05 12:00","2021","03","05","12:00","-10.6","","-19.9","","46","","0.0","","26","","33","","","","100.44","","","","-21","","NA"
"-73.74","45.47","MONTREAL/PIERRE ELLIOTT TRUDEAU INTL","702S006","2021-03-05 13:00","2021","03","05","13:00","-9.6","","-18.8","","47","","0.0","","26","","29","","","","100.39","","","","-19","","NA"
"-73.74","45.47","MONTREAL/PIERRE ELLIOTT TRUDEAU INTL","702S006","2021-03-05 14:00","2021","03","05","14:00","-8.7","","-16.8","","52","","0.0","","27","","27","","","","100.41","","","","-17","","NA"
"-73.74","45.47","MONTREAL/PIERRE ELLIOTT TRUDEAU INTL","702S006","2021-03-05 15:00","2021","03","05","15:00","-8.3","","-15.7","","55","","0.0","","31","","26","","","","100.46","","","","-17","","NA"
"-73.74","45.47","MONTREAL/PIERRE ELLIOTT TRUDEAU INTL","702S006","2021-03-05 16:00","2021","03","05","16:00","-8.2","","-16.8","","50","","0.0","","30","","29","","","","100.54","","","","-17","","NA"
"-73.74","45.47","MONTREAL/PIERRE ELLIOTT TRUDEAU INTL","702S006","2021-03-05 17:00","2021","03","05","17:00","-8.3","","-16.9","","50","","0.0","","31","","28","","","","100.64","","","","-17","","NA"
"-73.74","45.47","MONTREAL/PIERRE ELLIOTT TRUDEAU INTL","702S006","2021-03-05 18:00","2021","03","05","18:00","-9.4","","-18.1","","49","","0.0","","32","","30","","","","100.76","","","","-19","","NA"
"-73.74","45.47","MONTREAL/PIERRE ELLIOTT TRUDEAU INTL","702S006","2021-03-05 19:00","2021","03","05","19:00","-9.6","","-17.4","","53","","0.0","","31","","25","","","","100.83","","","","-18","","NA"
"-73.74","45.47","MONTREAL/PIERRE ELLIOTT TRUDEAU INTL","702S006","2021-03-05 20:00","2021","03","05","20:00","-9.8","","-17.3","","54","","0.0","","29","","21","","","","100.86","","","","-18","","NA"
"-73.74","45.47","MONTREAL/PIERRE ELLIOTT TRUDEAU INTL","702S006","2021-03-05 21:00","2021","03","05","21:00","-10.4","","-17.8","","55","","0.0","","29","","19","","","","100.90","","","","-18","","NA"
"-73.74","45.47","MONTREAL/PIERRE ELLIOTT TRUDEAU INTL","702S006","2021-03-05 22:00","2021","03","05","22:00","-10.2","","-17.7","","54","","0.0","","28","","16","","","","100.95","","","","-17","","NA"
"-73.74","45.47","MONTREAL/PIERRE ELLIOTT TRUDEAU INTL","702S006","2021-03-05 23:00","2021","03","05","23:00","-10.1","","-17.5","","55","","0.0","","28","","18","","","","100.96","","","","-18","","NA"
"-73.74","45.47","MONTREAL/PIERRE ELLIOTT TRUDEAU INTL","702S006","2021-03-06 00:00","2021","03","06","00:00","-10.5","","-17.5","","56","","0.0","","27","","14","","","","100.99","","","","-17","","NA"
"-73.74","45.47","MONTREAL/PIERRE ELLIOTT TRUDEAU INTL","702S006","2021-03-06 01:00","2021","03","06","01:00","-10.5","","-17.1","","58","","0.0","","26","","16","","","","101.04","","","","-18","","NA"
"-73.74","45.47","MONTREAL/PIERRE ELLIOTT TRUDEAU INTL","702S006","2021-03-06 02:00","2021","03","06","02:00","-10.9","","-17.6","","58","","0.0","","25","","17","","","","101.05","","","","-18","","NA"
"-73.74","45.47","MONTREAL/PIERRE ELLIOTT TRUDEAU INTL","702S006","2021-03-06 03:00","2021","03","06","03:00","-11.3","","-17.4","","60","","0.0","","25","","20","","","","101.07","","","","-20","","NA"
"-73.74","45.47","MONTREAL/PIERRE ELLIOTT TRUDEAU INTL","702S006","2021-03-06 04:00","2021","03","06","04:00","-10.8","","-16.8","","62","","0.0","","26","","17","","","","101.10","","","","-18","","NA"
"-73.74","45.47","MONTREAL/PIERRE ELLIOTT TRUDEAU INTL","702S006","2021-03-06 05:00","2021","03","06","05:00","-10.5","","-16.3","","62","","0.0","","27","","19","","","","101.13","","","","-18","","NA"
"-73.74","45.47","MONTREAL/PIERRE ELLIOTT TRUDEAU INTL","702S006","2021-03-06 06:00","2021","03","06","06:00","-10.1","","-15.9","","63","","0.0","","27","","17","","","","101.15","","","","-17","","NA"
"-73.74","45.47","MONTREAL/PIERRE ELLIOTT TRUDEAU INTL","702S006","2021-03-06 07:00","2021","03","06","07:00","-10.2","","-15.7","","64","","0.0","","25","","15","","","","101.18","","","","-17","","NA"
"-73.74","45.47","MONTREAL/PIERRE ELLIOTT TRUDEAU INTL","702S006","2021-03-06 08:00","2021","03","06","08:00","-9.6","","-15.4","","63","","0.0","","26","","14","","","","101.21","","","","-16","","NA"
"-73.74","45.47","MONTREAL/PIERRE ELLIOTT TRUDEAU INTL","702S006","2021-03-06 09:00","2021","03","06","09:00","-8.9","","-15.7","","58","","0.0","","27","","24","","","","101.22","","","","-17","","NA"
"-73.74","45.47","MONTREAL/PIERRE ELLIOTT TRUDEAU INTL","702S006","2021-03-06 10:00","2021","03","06","10:00","-8.5","","-15.7","","56","","0.0","","26","","24","","","","101.24","","","","-17","","NA"
"-73.74","45.47","MONTREAL/PIERRE ELLIOTT TRUDEAU INTL","702S006","2021-03-06 11:00","2021","03","06","11:00","-8.5","","-16.2","","54","","0.0","","27","","24","","","","101.27","","","","-17","","NA"
"-73.74","45.47","MONTREAL/PIERRE ELLIOTT TRUDEAU INTL","702S006","2021-03-06 12:00","2021","03","06","12:00","-7.8","","-14.8","","57","","0.0","","28","","23","","","","101.29","","","","-16","","NA"
"-73.74","45.47","MONTREAL/PIERRE ELLIOTT TRUDEAU INTL","702S006","2021-03-06 13:00","2021","03","06","13:00","-6.7","","-15.3","","50","","0.0","","26","","20","","","","101.27","","","","-14","","NA"
"-73.74","45.47","MONTREAL/PIERRE ELLIOTT TRUDEAU INTL","702S006","2021-03-06 14:00","2021","03","06","14:00","-6.0","","-14.4","","51","","0.0","","26","","21","","","","101.30","","","","-13","","NA"
"-73.74","45.47","MONTREAL/PIERRE ELLIOTT TRUDEAU INTL","702S006","2021-03-06 15:00","2021","03","06","15:00","-6.0","","-15.2","","48","","0.0","","26","","25","","","","101.32","","","","-14","","NA"
"-73.74","45.47","MONTREAL/PIERRE ELLIOTT TRUDEAU INTL","702S006","2021-03-06 16:00","2021","03","06","16:00","-5.9","","-15.0","","48","","0.0","","26","","25","","","","101.38","","","","-13","","NA"
"-73.74","45.47","MONTREAL/PIERRE ELLIOTT TRUDEAU INTL","702S006","2021-03-06 17:00","2021","03","06","17:00","-6.2","","-14.9","","50","","0.0","","26","","24","","","","101.44","","","","-14","","NA"
"-73.74","45.47","MONTREAL/PIERRE ELLIOTT TRUDEAU INTL","702S006","2021-03-06 18:00","2021","03","06","18:00","-7.0","","-14.4","","56","","0.0","","27","","18","","","","101.54","","","","-14","","NA"
"-73.74","45.47","MONTREAL/PIERRE ELLIOTT TRUDEAU INTL","702S006","2021-03-06 19:00","2021","03","06","19:00","-7.5","","-15.2","","54","","0.0","","26","","15","","","","101.64","","","","-14","","NA"
"-73.74","45.47","MONTREAL/PIERRE ELLIOTT TRUDEAU INTL","702S006","2021-03-06 20:00","2021","03","06","20:00","-8.1","","-15.2","","57","","0.0","","26","","14","","","","101.71","","","","-14","","NA"
"-73.74","45.47","MONTREAL/PIERRE ELLIOTT TRUDEAU INTL","702S006","2021-03-06 21:00","2021","03","06","21:00","-8.6","","-15.8","","56","","0.0","","28","","10","","","","101.77","","","","-14","","NA"
"-73.74","45.47","MONTREAL/PIERRE ELLIOTT TRUDEAU INTL","702S006","2021-03-06 22:00","2021","03","06","22:00","-9.3","","-15.3","","62","","0.0","","26","","9","","","","101.78","","","","-14","","NA"
"-73.74","45.47","MONTREAL/PIERRE ELLIOTT TRUDEAU INTL","702S006","2021-03-06 23:00","2021","03","06","23:00","-10.2","","-15.7","","64","","0.0","","28","","9","","","","101.79","","","","-15","","NA"
"-73.74","45.47","MONTREAL/PIERRE ELLIOTT TRUDEAU INTL","702S006","2021-03-07 00:00","2021","03","07","00:00","-9.8","","-15.2","","65","","0.0","","29","","9","","","","101.81","","","","-15","","NA"
"-73.74","45.47","MONTREAL/PIERRE ELLIOTT TRUDEAU INTL","702S006","2021-03-07 01:00","2021","03","07","01:00","-9.0","","-15.2","","61","","0.0","","27","","7","","","","101.86","","","","-13","","NA"
"-73.74","45.47","MONTREAL/PIERRE ELLIOTT TRUDEAU INTL","702S006","2021-03-07 02:00","2021","03","07","02:00","-8.7","","-14.8","","61","","0.0","","27","","7","","","","101.89","","","","-13","","NA"
"-73.74","45.47","MONTREAL/PIERRE ELLIOTT TRUDEAU INTL","702S006","2021-03-07 03:00","2021","03","07","03:00","-8.7","","-15.1","","60","","0.0","","25","","6","","","","101.93","","","","-12","","NA"
"-73.74","45.47","MONTREAL/PIERRE ELLIOTT TRUDEAU INTL","702S006","2021-03-07 04:00","2021","03","07","04:00","-8.6","","-14.8","","61","","0.0","","25","","5","","","","101.96","","","","-11","","NA"
"-73.74","45.47","MONTREAL/PIERRE ELLIOTT TRUDEAU INTL","702S006","2021-03-07 05:00","2021","03","07","05:00","-8.6","","-14.3","","64","","0.0","","26","","6","","","","102.05","","","","-12","","NA"
"-73.74","45.47","MONTREAL/PIERRE ELLIOTT TRUDEAU INTL","702S006","2021-03-07 06:00","2021","03","07","06:00","-8.7","","-14.3","","64","","0.0","","27","","9","","","","102.14","","","","-13","","NA"
"-73.74","45.47","MONTREAL/PIERRE ELLIOTT TRUDEAU INTL","702S006","2021-03-07 07:00","2021","03","07","07:00","-8.8","","-14.3","","65","","0.0","","29","","9","","","","102.19","","","","-13","","NA"
"-73.74","45.47","MONTREAL/PIERRE ELLIOTT TRUDEAU INTL","702S006","2021-03-07 08:00","2021","03","07","08:00","-8.5","","-15.1","","59","","0.0","","28","","9","","","","102.28","","","","-13","","NA"
"-73.74","45.47","MONTREAL/PIERRE ELLIOTT TRUDEAU INTL","702S006","2021-03-07 09:00","2021","03","07","09:00","-8.0","","-14.9","","57","","0.0","","30","","9","","","","102.34","","","","-13","","NA"
"-73.74","45.47","MONTREAL/PIERRE ELLIOTT TRUDEAU INTL","702S006","2021-03-07 10:00","2021","03","07","10:00","-7.5","","-14.8","","56","","0.0","","29","","9","","","","102.38","","","","-12","","NA"
"-73.74","45.47","MONTREAL/PIERRE ELLIOTT TRUDEAU INTL","702S006","2021-03-07 11:00","2021","03","07","11:00","-7.0","","-15.2","","52","","0.0","","26","","12","","","","102.39","","","","-12","","NA"
"-73.74","45.47","MONTREAL/PIERRE ELLIOTT TRUDEAU INTL","702S006","2021-03-07 12:00","2021","03","07","12:00","-6.2","","-14.4","","52","","0.0","","26","","15","","","","102.37","","","","-12","","NA"
"-73.74","45.47","MONTREAL/PIERRE ELLIOTT TRUDEAU INTL","702S006","2021-03-07 13:00","2021","03","07","13:00","-5.8","","-14.5","","50","","0.0","","24","","19","","","","102.34","","","","-12","","NA"
"-73.74","45.47","MONTREAL/PIERRE ELLIOTT TRUDEAU INTL","702S006","2021-03-07 14:00","2021","03","07","14:00","-5.5","","-14.7","","48","","0.0","","24","","18","","","","102.36","","","","-12","","NA"
"-73.74","45.47","MONTREAL/PIERRE ELLIOTT TRUDEAU INTL","702S006","2021-03-07 15:00","2021","03","07","15:00","-4.9","","-14.1","","48","","0.0","","25","","17","","","","102.36","","","","-11","","NA"
"-73.74","45.47","MONTREAL/PIERRE ELLIOTT TRUDEAU INTL","702S006","2021-03-07 16:00","2021","03","07","16:00","-4.9","","-14.3","","48","","0.0","","25","","17","","","","102.42","","","","-11","","NA"
"-73.74","45.47","MONTREAL/PIERRE ELLIOTT TRUDEAU INTL","702S006","2021-03-07 17:00","2021","03","07","17:00","-5.1","","-14.1","","49","","0.0","","24","","17","","","","102.41","","","","-11","","NA"
"-73.74","45.47","MONTREAL/PIERRE ELLIOTT TRUDEAU INTL","702S006","2021-03-07 18:00","2021","03","07","18:00","-5.7","","-14.2","","51","","0.0","","25","","16","","","","102.48","","","","-12","","NA"
"-73.74","45.47","MONTREAL/PIERRE ELLIOTT TRUDEAU INTL","702S006","2021-03-07 19:00","2021","03","07","19:00","-6.4","","-14.2","","54","","0.0","","25","","16","","","","102.53","","","","-13","","NA"
"-73.74","45.47","MONTREAL/PIERRE ELLIOTT TRUDEAU INTL","702S006","2021-03-07 20:00","2021","03","07","20:00","-7.0","","-14.4","","55","","0.0","","25","","14","","","","102.57","","","","-13","","NA"
"-73.74","45.47","MONTREAL/PIERRE ELLIOTT TRUDEAU INTL","702S006","2021-03-07 21:00","2021","03","07","21:00","-7.6","","-15.1","","55","","0.0","","25","","6","","","","102.57","","","","-11","","NA"
"-73.74","45.47","MONTREAL/PIERRE ELLIOTT TRUDEAU INTL","702S006","2021-03-07 22:00","2021","03","07","22:00","-8.3","","-15.5","","56","","0.0","","26","","7","","","","102.59","","","","-12","","NA"
"-73.74","45.47","MONTREAL/PIERRE ELLIOTT TRUDEAU INTL","702S006","2021-03-07 23:00","2021","03","07","23:00","-8.6","","-16.4","","53","","0.0","","27","","10","","","","102.56","","","","-14","","NA"
"-73.74","45.47","MONTREAL/PIERRE ELLIOTT TRUDEAU INTL","702S006","2021-03-08 00:00","2021","03","08","00:00","-8.9","","-16.5","","54","","0.0","","23","","7","","","","102.53","","","","-13","","NA"
"-73.74","45.47","MONTREAL/PIERRE ELLIOTT TRUDEAU INTL","702S006","2021-03-08 01:00","2021","03","08","01:00","-10.4","","-16.7","","60","","0.0","","19","","9","","","","102.57","","","","-15","","NA"
"-73.74","45.47","MONTREAL/PIERRE ELLIOTT TRUDEAU INTL","702S006","2021-03-08 02:00","2021","03","08","02:00","-10.7","","-17.7","","56","","0.0","","22","","6","","","","102.57","","","","-14","","NA"
"-73.74","45.47","MONTREAL/PIERRE ELLIOTT TRUDEAU INTL","702S006","2021-03-08 03:00","2021","03","08","03:00","-11.6","","-18.4","","57","","0.0","","25","","4","","","","102.57","","","","-14","","NA"
"-73.74","45.47","MONTREAL/PIERRE ELLIOTT TRUDEAU INTL","702S006","2021-03-08 04:00","2021","03","08","04:00","-11.4","","-18.7","","55","","0.0","","25","","5","","","","102.60","","","","-15","","NA"
"-73.74","45.47","MONTREAL/PIERRE ELLIOTT TRUDEAU INTL","702S006","2021-03-08 05:00","2021","03","08","05:00","-12.8","","-19.1","","60","","0.0","","29","","3","","","","102.65","","","","-15","","NA"
"-73.74","45.47","MONTREAL/PIERRE ELLIOTT TRUDEAU INTL","702S006","2021-03-08 06:00","2021","03","08","06:00","-13.6","","-19.6","","61","","0.0","","28","","4","","","","102.71","","","","-16","","NA"
"-73.74","45.47","MONTREAL/PIERRE ELLIOTT TRUDEAU INTL","702S006","2021-03-08 07:00","2021","03","08","07:00","-14.0","","-19.5","","63","","0.0","","25","","1","","","","102.73","","","","-15","","NA"
"-73.74","45.47","MONTREAL/PIERRE ELLIOTT TRUDEAU INTL","702S006","2021-03-08 08:00","2021","03","08","08:00","-12.2","","-18.7","","58","","0.0","","28","","5","","","","102.76","","","","-15","","NA"
"-73.74","45.47","MONTREAL/PIERRE ELLIOTT TRUDEAU INTL","702S006","2021-03-08 09:00","2021","03","08","09:00","-9.7","","-18.0","","51","","0.0","","23","","4","","","","102.73","","","","-12","","NA"
"-73.74","45.47","MONTREAL/PIERRE ELLIOTT TRUDEAU INTL","702S006","2021-03-08 10:00","2021","03","08","10:00","-7.9","","-16.9","","48","","0.0","","19","","3","","","","102.71","","","","-9","","NA"
"-73.74","45.47","MONTREAL/PIERRE ELLIOTT TRUDEAU INTL","702S006","2021-03-08 11:00","2021","03","08","11:00","-6.6","","-15.1","","51","","0.0","","21","","5","","","","102.67","","","","-9","","NA"
"-73.74","45.47","MONTREAL/PIERRE ELLIOTT TRUDEAU INTL","702S006","2021-03-08 12:00","2021","03","08","12:00","-5.3","","-14.2","","49","","0.0","","20","","9","","","","102.60","","","","-9","","NA"
"-73.74","45.47","MONTREAL/PIERRE ELLIOTT TRUDEAU INTL","702S006","2021-03-08 13:00","2021","03","08","13:00","-3.9","","-14.4","","44","","0.0","","21","","13","","","","102.52","","","","-9","","NA"
"-73.74","45.47","MONTREAL/PIERRE ELLIOTT TRUDEAU INTL","702S006","2021-03-08 14:00","2021","03","08","14:00","-3.5","","-17.5","","33","","0.0","","21","","15","","","","102.46","","","","-9","","NA"
"-73.74","45.47","MONTREAL/PIERRE ELLIOTT TRUDEAU INTL","702S006","2021-03-08 15:00","2021","03","08","15:00","-2.8","","-17.1","","32","","0.0","","22","","7","","","","102.38","","","","-6","","NA"
"-73.74","45.47","MONTREAL/PIERRE ELLIOTT TRUDEAU INTL","702S006","2021-03-08 16:00","2021","03","08","16:00","-2.7","","-15.6","","36","","0.0","","22","","7","","","","102.29","","","","-6","","NA"
"-73.74","45.47","MONTREAL/PIERRE ELLIOTT TRUDEAU INTL","702S006","2021-03-08 17:00","2021","03","08","17:00","-3.0","","-13.7","","44","","0.0","","15","","11","","","","102.24","","","","-7","","NA"
"-73.74","45.47","MONTREAL/PIERRE ELLIOTT TRUDEAU INTL","702S006","2021-03-08 18:00","2021","03","08","18:00","-3.3","","-12.5","","49","","0.0","","16","","12","","","","102.24","","","","-8","","NA"
"-73.74","45.47","MONTREAL/PIERRE ELLIOTT TRUDEAU INTL","702S006","2021-03-08 19:00","2021","03","08","19:00","-3.6","","-10.2","","60","","0.0","","18","","9","","","","102.17","","","","-7","","NA"
"-73.74","45.47","MONTREAL/PIERRE ELLIOTT TRUDEAU INTL","702S006","2021-03-08 20:00","2021","03","08","20:00","-3.7","","-9.4","","64","","0.0","","30","","5","","","","102.11","","","","-6","","NA"
"-73.74","45.47","MONTREAL/PIERRE ELLIOTT TRUDEAU INTL","702S006","2021-03-08 21:00","2021","03","08","21:00","-3.3","","-9.2","","64","","0.0","","2","","4","","","","102.02","","","","-5","","NA"
"-73.74","45.47","MONTREAL/PIERRE ELLIOTT TRUDEAU INTL","702S006","2021-03-08 22:00","2021","03","08","22:00","-2.6","","-10.3","","55","","0.0","","11","","7","","","","101.92","","","","-5","","NA"
"-73.74","45.47","MONTREAL/PIERRE ELLIOTT TRUDEAU INTL","702S006","2021-03-08 23:00","2021","03","08","23:00","-2.6","","-11.3","","51","","0.0","","11","","5","","","","101.86","","","","-5","","NA"
"-73.74","45.47","MONTREAL/PIERRE ELLIOTT TRUDEAU INTL","702S006","2021-03-09 00:00","2021","03","09","00:00","-2.4","","-11.2","","51","","0.0","","6","","2","","","","101.80","","","","-3","","NA"
"-73.74","45.47","MONTREAL/PIERRE ELLIOTT TRUDEAU INTL","702S006","2021-03-09 01:00","2021","03","09","01:00","-2.2","","-11.0","","51","","0.0","","9","","4","","","","101.73","","","","-4","","NA"
"-73.74","45.47","MONTREAL/PIERRE ELLIOTT TRUDEAU INTL","702S006","2021-03-09 02:00","2021","03","09","02:00","-3.0","","-7.2","","72","","0.0","","32","","5","","","","101.70","","","","-5","","NA"
"-73.74","45.47","MONTREAL/PIERRE ELLIOTT TRUDEAU INTL","702S006","2021-03-09 03:00","2021","03","09","03:00","-3.2","","-7.7","","71","","0.0","","30","","6","","","","101.67","","","","-6","","NA"
"-73.74","45.47","MONTREAL/PIERRE ELLIOTT TRUDEAU INTL","702S006","2021-03-09 04:00","2021","03","09","04:00","-3.3","","-8.4","","68","","0.0","","29","","4","","","","101.69","","","","-5","","NA"
"-73.74","45.47","MONTREAL/PIERRE ELLIOTT TRUDEAU INTL","702S006","2021-03-09 05:00","2021","03","09","05:00","-3.9","","-7.9","","74","","0.0","","28","","5","","","","101.75","","","","-6","","NA"
"-73.74","45.47","MONTREAL/PIERRE ELLIOTT TRUDEAU INTL","702S006","2021-03-09 06:00","2021","03","09","06:00","-3.6","","-8.1","","71","","0.0","","25","","8","","","","101.80","","","","-7","","NA"
"-73.74","45.47","MONTREAL/PIERRE ELLIOTT TRUDEAU INTL","702S006","2021-03-09 07:00","2021","03","09","07:00","-4.5","","-8.9","","71","","0.0","","25","","13","","","","101.83","","","","-10","","NA"
"-73.74","45.47","MONTREAL/PIERRE ELLIOTT TRUDEAU INTL","702S006","2021-03-09 08:00","2021","03","09","08:00","-3.4","","-8.4","","68","","0.0","","25","","14","","","","101.91","","","","-8","","NA"
"-73.74","45.47","MONTREAL/PIERRE ELLIOTT TRUDEAU INTL","702S006","2021-03-09 09:00","2021","03","09","09:00","-1.6","","-7.6","","64","","0.0","","27","","13","","","","102.01","","","","-6","","NA"
"-73.74","45.47","MONTREAL/PIERRE ELLIOTT TRUDEAU INTL","702S006","2021-03-09 10:00","2021","03","09","10:00","0.1","","-6.8","","59","","0.0","","25","","11","","","","102.08","","","","","","NA"
"-73.74","45.47","MONTREAL/PIERRE ELLIOTT TRUDEAU INTL","702S006","2021-03-09 11:00","2021","03","09","11:00","1.9","","-5.2","","59","","0.0","","26","","14","","","","102.15","","","","","","NA"
"-73.74","45.47","MONTREAL/PIERRE ELLIOTT TRUDEAU INTL","702S006","2021-03-09 12:00","2021","03","09","12:00","3.2","","-4.4","","57","","0.0","","27","","10","","","","102.22","","","","","","NA"
"-73.74","45.47","MONTREAL/PIERRE ELLIOTT TRUDEAU INTL","702S006","2021-03-09 13:00","2021","03","09","13:00","3.0","","-3.5","","62","","0.0","","29","","17","","","","102.26","","","","","","NA"
"-73.74","45.47","MONTREAL/PIERRE ELLIOTT TRUDEAU INTL","702S006","2021-03-09 14:00","2021","03","09","14:00","3.0","","-3.0","","65","","0.0","","31","","21","","","","102.30","","","","","","NA"
"-73.74","45.47","MONTREAL/PIERRE ELLIOTT TRUDEAU INTL","702S006","2021-03-09 15:00","2021","03","09","15:00","3.3","","-3.1","","63","","0.0","","30","","19","","","","102.36","","","","","","NA"
"-73.74","45.47","MONTREAL/PIERRE ELLIOTT TRUDEAU INTL","702S006","2021-03-09 16:00","2021","03","09","16:00","3.9","","-3.0","","61","","0.0","","29","","14","","","","102.40","","","","","","NA"
"-73.74","45.47","MONTREAL/PIERRE ELLIOTT TRUDEAU INTL","702S006","2021-03-09 17:00","2021","03","09","17:00","4.1","","-3.2","","59","","0.0","","29","","10","","","","102.47","","","","","","NA"
"-73.74","45.47","MONTREAL/PIERRE ELLIOTT TRUDEAU INTL","702S006","2021-03-09 18:00","2021","03","09","18:00","3.7","","-3.4","","60","","0.0","","27","","5","","","","102.51","","","","","","NA"
"-73.74","45.47","MONTREAL/PIERRE ELLIOTT TRUDEAU INTL","702S006","2021-03-09 19:00","2021","03","09","19:00","2.0","","-3.4","","67","","0.0","","22","","6","","","","102.59","","","","","","NA"
"-73.74","45.47","MONTREAL/PIERRE ELLIOTT TRUDEAU INTL","702S006","2021-03-09 20:00","2021","03","09","20:00","0.8","","-3.7","","72","","0.0","","24","","3","","","","102.66","","","","","","NA"
"-73.74","45.47","MONTREAL/PIERRE ELLIOTT TRUDEAU INTL","702S006","2021-03-09 21:00","2021","03","09","21:00","0.1","","-3.3","","78","","0.0","","18","","3","","","","102.70","","","","","","NA"
"-73.74","45.47","MONTREAL/PIERRE ELLIOTT TRUDEAU INTL","702S006","2021-03-09 22:00","2021","03","09","22:00","-0.1","","-3.1","","80","","0.0","","14","","4","","","","102.71","","","","-1","","NA"
"-73.74","45.47","MONTREAL/PIERRE ELLIOTT TRUDEAU INTL","702S006","2021-03-09 23:00","2021","03","09","23:00","-1.6","","-4.4","","81","","0.0","","15","","1","","","","102.70","","","","-2","","NA"
"-73.74","45.47","MONTREAL/PIERRE ELLIOTT TRUDEAU INTL","702S006","2021-03-10 00:00","2021","03","10","00:00","-0.9","","-3.6","","82","","0.0","","11","","6","","","","102.73","","","","-3","","NA"
"-73.74","45.47","MONTREAL/PIERRE ELLIOTT TRUDEAU INTL","702S006","2021-03-10 01:00","2021","03","10","01:00","-1.5","","-4.2","","82","","0.0","","12","","6","","","","102.73","","","","-4","","NA"
"-73.74","45.47","MONTREAL/PIERRE ELLIOTT TRUDEAU INTL","702S006","2021-03-10 02:00","2021","03","10","02:00","-2.5","","-4.0","","90","","0.0","","13","","3","","","","102.80","","","","-4","","NA"
"-73.74","45.47","MONTREAL/PIERRE ELLIOTT TRUDEAU INTL","702S006","2021-03-10 03:00","2021","03","10","03:00","-2.3","","-4.1","","88","","0.0","","17","","3","","","","102.80","","","","-3","","NA"
"-73.74","45.47","MONTREAL/PIERRE ELLIOTT TRUDEAU INTL","702S006","2021-03-10 04:00","2021","03","10","04:00","-2.0","","-4.4","","84","","0.0","","12","","7","","","","102.78","","","","-5","","NA"
"-73.74","45.47","MONTREAL/PIERRE ELLIOTT TRUDEAU INTL","702S006","2021-03-10 05:00","2021","03","10","05:00","-3.0","","-5.3","","84","","0.0","","15","","4","","","","102.77","","","","-5","","NA"
"-73.74","45.47","MONTREAL/PIERRE ELLIOTT TRUDEAU INTL","702S006","2021-03-10 06:00","2021","03","10","06:00","-4.6","","-6.6","","86","","0.0","","9","","1","","","","102.77","","","","-5","","NA"
"-73.74","45.47","MONTREAL/PIERRE ELLIOTT TRUDEAU INTL","702S006","2021-03-10 07:00","2021","03","10","07:00","-1.3","","-4.5","","79","","0.0","","10","","7","","","","102.76","","","","-4","","NA"
"-73.74","45.47","MONTREAL/PIERRE ELLIOTT TRUDEAU INTL","702S006","2021-03-10 08:00","2021","03","10","08:00","-0.3","","-3.7","","78","","0.0","","7","","6","","","","102.75","","","","-2","","NA"
"-73.74","45.47","MONTREAL/PIERRE ELLIOTT TRUDEAU INTL","702S006","2021-03-10 09:00","2021","03","10","09:00","1.1","","-3.0","","74","","0.0","","11","","11","","","","102.67","","","","","","NA"
"-73.74","45.47","MONTREAL/PIERRE ELLIOTT TRUDEAU INTL","702S006","2021-03-10 10:00","2021","03","10","10:00","3.2","","-3.3","","63","","0.0","","13","","18","","","","102.56","","","","","","NA"
"-73.74","45.47","MONTREAL/PIERRE ELLIOTT TRUDEAU INTL","702S006","2021-03-10 11:00","2021","03","10","11:00","4.1","","-3.0","","60","","0.0","","12","","17","","","","102.46","","","","","","NA"
"-73.74","45.47","MONTREAL/PIERRE ELLIOTT TRUDEAU INTL","702S006","2021-03-10 12:00","2021","03","10","12:00","5.1","","-3.0","","56","","0.0","","12","","16","","","","102.35","","","","","","NA"
"-73.74","45.47","MONTREAL/PIERRE ELLIOTT TRUDEAU INTL","702S006","2021-03-10 13:00","2021","03","10","13:00","6.2","","-3.3","","50","","0.0","","12","","19","","","","102.21","","","","","","NA"
"-73.74","45.47","MONTREAL/PIERRE ELLIOTT TRUDEAU INTL","702S006","2021-03-10 14:00","2021","03","10","14:00","7.2","","-3.5","","46","","0.0","","12","","13","","","","102.12","","","","","","NA"
"-73.74","45.47","MONTREAL/PIERRE ELLIOTT TRUDEAU INTL","702S006","2021-03-10 15:00","2021","03","10","15:00","7.5","","-2.9","","48","","0.0","","13","","13","","","","102.01","","","","","","NA"
"-73.74","45.47","MONTREAL/PIERRE ELLIOTT TRUDEAU INTL","702S006","2021-03-10 16:00","2021","03","10","16:00","8.3","","-2.8","","45","","0.0","","13","","11","","","","101.91","","","","","","NA"
"-73.74","45.47","MONTREAL/PIERRE ELLIOTT TRUDEAU INTL","702S006","2021-03-10 17:00","2021","03","10","17:00","7.7","","-2.2","","50","","0.0","","12","","9","","","","101.85","","","","","","NA"
"-73.74","45.47","MONTREAL/PIERRE ELLIOTT TRUDEAU INTL","702S006","2021-03-10 18:00","2021","03","10","18:00","6.9","","-2.2","","52","","0.0","","12","","7","","","","101.83","","","","","","NA"
"-73.74","45.47","MONTREAL/PIERRE ELLIOTT TRUDEAU INTL","702S006","2021-03-10 19:00","2021","03","10","19:00","5.6","","-2.3","","57","","0.0","","14","","4","","","","101.81","","","","","","NA"
"-73.74","45.47","MONTREAL/PIERRE ELLIOTT TRUDEAU INTL","702S006","2021-03-10 20:00","2021","03","10","20:00","5.6","","-1.4","","61","","0.0","","16","","10","","","","101.77","","","","","","NA"
"-73.74","45.47","MONTREAL/PIERRE ELLIOTT TRUDEAU INTL","702S006","2021-03-10 21:00","2021","03","10","21:00","4.0","","-1.4","","67","","0.0","","16","","12","","","","101.71","","","","","","NA"
"-73.74","45.47","MONTREAL/PIERRE ELLIOTT TRUDEAU INTL","702S006","2021-03-10 22:00","2021","03","10","22:00","5.0","","-1.3","","64","","0.0","","14","","20","","","","101.60","","","","","","NA"
"-73.74","45.47","MONTREAL/PIERRE ELLIOTT TRUDEAU INTL","702S006","2021-03-10 23:00","2021","03","10","23:00","5.2","","-1.3","","63","","0.0","","15","","18","","","","101.56","","","","","","NA"
"-73.74","45.47","MONTREAL/PIERRE ELLIOTT TRUDEAU INTL","702S006","2021-03-11 00:00","2021","03","11","00:00","4.9","","-1.2","","64","","0.0","","15","","17","","","","101.49","","","","","","NA"
"-73.74","45.47","MONTREAL/PIERRE ELLIOTT TRUDEAU INTL","702S006","2021-03-11 01:00","2021","03","11","01:00","4.5","","-1.0","","67","","0.0","","15","","14","","","","101.49","","","","","","NA"
"-73.74","45.47","MONTREAL/PIERRE ELLIOTT TRUDEAU INTL","702S006","2021-03-11 02:00","2021","03","11","02:00","4.4","","-0.9","","68","","0.0","","14","","13","","","","101.45","","","","","","NA"
"-73.74","45.47","MONTREAL/PIERRE ELLIOTT TRUDEAU INTL","702S006","2021-03-11 03:00","2021","03","11","03:00","4.3","","-0.7","","70","","0.0","","15","","16","","","","101.35","","","","","","NA"
"-73.74","45.47","MONTREAL/PIERRE ELLIOTT TRUDEAU INTL","702S006","2021-03-11 04:00","2021","03","11","04:00","4.1","","-0.6","","72","","0.0","","15","","14","","","","101.32","","","","","","NA"
"-73.74","45.47","MONTREAL/PIERRE ELLIOTT TRUDEAU INTL","702S006","2021-03-11 05:00","2021","03","11","05:00","4.1","","-0.6","","71","","0.0","","14","","15","","","","101.27","","","","","","NA"
"-73.74","45.47","MONTREAL/PIERRE ELLIOTT TRUDEAU INTL","702S006","2021-03-11 06:00","2021","03","11","06:00","4.2","","-0.7","","70","","0.0","","14","","13","","","","101.24","","","","","","NA"
"-73.74","45.47","MONTREAL/PIERRE ELLIOTT TRUDEAU INTL","702S006","2021-03-11 07:00","2021","03","11","07:00","5.3","","-0.1","","68","","0.0","","12","","11","","","","101.21","","","","","","NA"
"-73.74","45.47","MONTREAL/PIERRE ELLIOTT TRUDEAU INTL","702S006","2021-03-11 08:00","2021","03","11","08:00","5.1","","0.4","","72","","0.0","","14","","13","","","","101.18","","","","","","NA"
"-73.74","45.47","MONTREAL/PIERRE ELLIOTT TRUDEAU INTL","702S006","2021-03-11 09:00","2021","03","11","09:00","5.4","","0.1","","69","","0.0","","13","","13","","","","101.13","","","","","","NA"
"-73.74","45.47","MONTREAL/PIERRE ELLIOTT TRUDEAU INTL","702S006","2021-03-11 10:00","2021","03","11","10:00","5.5","","0.8","","72","","0.0","","14","","15","","","","101.03","","","","","","NA"
"-73.74","45.47","MONTREAL/PIERRE ELLIOTT TRUDEAU INTL","702S006","2021-03-11 11:00","2021","03","11","11:00","6.5","","0.8","","67","","0.0","","15","","17","","","","100.95","","","","","","NA"
"-73.74","45.47","MONTREAL/PIERRE ELLIOTT TRUDEAU INTL","702S006","2021-03-11 12:00","2021","03","11","12:00","7.1","","1.3","","67","","0.0","","14","","18","","","","100.85","","","","","","NA"
"-73.74","45.47","MONTREAL/PIERRE ELLIOTT TRUDEAU INTL","702S006","2021-03-11 13:00","2021","03","11","13:00","7.5","","1.5","","65","","0.0","","14","","18","","","","100.71","","","","","","NA"
"-73.74","45.47","MONTREAL/PIERRE ELLIOTT TRUDEAU INTL","702S006","2021-03-11 14:00","2021","03","11","14:00","9.3","","2.5","","62","","0.0","","15","","21","","","","100.64","","","","","","NA"
"-73.74","45.47","MONTREAL/PIERRE ELLIOTT TRUDEAU INTL","702S006","2021-03-11 15:00","2021","03","11","15:00","9.0","","2.2","","62","","0.0","","14","","17","","","","100.55","","","","","","NA"
"-73.74","45.47","MONTREAL/PIERRE ELLIOTT TRUDEAU INTL","702S006","2021-03-11 16:00","2021","03","11","16:00","11.2","","3.5","","59","","0.0","","16","","19","","","","100.45","","","","","","NA"
"-73.74","45.47","MONTREAL/PIERRE ELLIOTT TRUDEAU INTL","702S006","2021-03-11 17:00","2021","03","11","17:00","7.9","","2.2","","67","","0.0","","14","","15","","","","100.42","","","","","","NA"
"-73.74","45.47","MONTREAL/PIERRE ELLIOTT TRUDEAU INTL","702S006","2021-03-11 18:00","2021","03","11","18:00","7.3","","2.0","","69","","0.0","","15","","15","","","","100.31","","","","","","NA"
"-73.74","45.47","MONTREAL/PIERRE ELLIOTT TRUDEAU INTL","702S006","2021-03-11 19:00","2021","03","11","19:00","9.1","","3.0","","66","","0.0","","14","","13","","","","100.18","","","","","","NA"
"-73.74","45.47","MONTREAL/PIERRE ELLIOTT TRUDEAU INTL","702S006","2021-03-11 20:00","2021","03","11","20:00","9.9","","2.8","","61","","0.0","","16","","20","","","","100.09","","","","","","NA"
"-73.74","45.47","MONTREAL/PIERRE ELLIOTT TRUDEAU INTL","702S006","2021-03-11 21:00","2021","03","11","21:00","10.5","","3.9","","64","","0.0","","21","","16","","","","100.12","","","","","","NA"
"-73.74","45.47","MONTREAL/PIERRE ELLIOTT TRUDEAU INTL","702S006","2021-03-11 22:00","2021","03","11","22:00","11.1","","7.2","","77","","2.0","","24","","27","","","","100.13","","","","","","NA"
"-73.74","45.47","MONTREAL/PIERRE ELLIOTT TRUDEAU INTL","702S006","2021-03-11 23:00","2021","03","11","23:00","8.9","","5.3","","78","","0.0","","23","","28","","","","100.22","","","","","","NA"
"-73.74","45.47","MONTREAL/PIERRE ELLIOTT TRUDEAU INTL","702S006","2021-03-12 00:00","2021","03","12","00:00","9.3","","2.3","","61","","0.0","","25","","31","","","","100.28","","","","","","NA"
"-73.74","45.47","MONTREAL/PIERRE ELLIOTT TRUDEAU INTL","702S006","2021-03-12 01:00","2021","03","12","01:00","7.4","","-1.2","","54","","0.0","","25","","39","","","","100.40","","","","","","NA"
"-73.74","45.47","MONTREAL/PIERRE ELLIOTT TRUDEAU INTL","702S006","2021-03-12 02:00","2021","03","12","02:00","6.3","","-1.6","","57","","0.0","","25","","26","","","","100.56","","","","","","NA"
"-73.74","45.47","MONTREAL/PIERRE ELLIOTT TRUDEAU INTL","702S006","2021-03-12 03:00","2021","03","12","03:00","5.5","","-2.4","","57","","0.0","","26","","33","","","","100.72","","","","","","NA"
"-73.74","45.47","MONTREAL/PIERRE ELLIOTT TRUDEAU INTL","702S006","2021-03-12 04:00","2021","03","12","04:00","4.5","","-2.7","","60","","0.0","","26","","29","","","","100.87","","","","","","NA"
"-73.74","45.47","MONTREAL/PIERRE ELLIOTT TRUDEAU INTL","702S006","2021-03-12 05:00","2021","03","12","05:00","3.5","","-3.0","","63","","0.0","","25","","24","","","","100.97","","","","","","NA"
"-73.74","45.47","MONTREAL/PIERRE ELLIOTT TRUDEAU INTL","702S006","2021-03-12 06:00","2021","03","12","06:00","2.9","","-3.1","","65","","0.0","","25","","26","","","","101.07","","","","","","NA"
"-73.74","45.47","MONTREAL/PIERRE ELLIOTT TRUDEAU INTL","702S006","2021-03-12 07:00","2021","03","12","07:00","2.5","","-3.4","","65","","0.0","","25","","31","","","","101.15","","","","","","NA"
"-73.74","45.47","MONTREAL/PIERRE ELLIOTT TRUDEAU INTL","702S006","2021-03-12 08:00","2021","03","12","08:00","3.1","","-3.9","","60","","0.0","","25","","18","","","","101.24","","","","","","NA"
"-73.74","45.47","MONTREAL/PIERRE ELLIOTT TRUDEAU INTL","702S006","2021-03-12 09:00","2021","03","12","09:00","3.7","","-3.8","","58","","0.0","","25","","26","","","","101.26","","","","","","NA"
"-73.74","45.47","MONTREAL/PIERRE ELLIOTT TRUDEAU INTL","702S006","2021-03-12 10:00","2021","03","12","10:00","3.9","","-4.4","","54","","0.0","","24","","26","","","","101.21","","","","","","NA"
"-73.74","45.47","MONTREAL/PIERRE ELLIOTT TRUDEAU INTL","702S006","2021-03-12 11:00","2021","03","12","11:00","4.2","","-4.0","","55","","0.0","","25","","28","","","","101.15","","","","","","NA"
"-73.74","45.47","MONTREAL/PIERRE ELLIOTT TRUDEAU INTL","702S006","2021-03-12 12:00","2021","03","12","12:00","5.0","","-3.4","","54","","0.0","","25","","30","","","","101.10","","","","","","NA"
"-73.74","45.47","MONTREAL/PIERRE ELLIOTT TRUDEAU INTL","702S006","2021-03-12 13:00","2021","03","12","13:00","5.5","","-3.5","","52","","0.0","","25","","29","","","","100.96","","","","","","NA"
"-73.74","45.47","MONTREAL/PIERRE ELLIOTT TRUDEAU INTL","702S006","2021-03-12 14:00","2021","03","12","14:00","6.6","","-3.9","","47","","0.0","","25","","27","","","","100.88","","","","","","NA"
"-73.74","45.47","MONTREAL/PIERRE ELLIOTT TRUDEAU INTL","702S006","2021-03-12 15:00","2021","03","12","15:00","5.7","","-3.4","","52","","0.0","","27","","27","","","","100.87","","","","","","NA"
"-73.74","45.47","MONTREAL/PIERRE ELLIOTT TRUDEAU INTL","702S006","2021-03-12 16:00","2021","03","12","16:00","5.0","","-1.6","","62","","0.0","","23","","22","","","","100.80","","","","","","NA"
"-73.74","45.47","MONTREAL/PIERRE ELLIOTT TRUDEAU INTL","702S006","2021-03-12 17:00","2021","03","12","17:00","4.2","","-1.1","","69","","0.0","","24","","20","","","","100.78","","","","","","NA"
"-73.74","45.47","MONTREAL/PIERRE ELLIOTT TRUDEAU INTL","702S006","2021-03-12 18:00","2021","03","12","18:00","3.8","","-1.2","","70","","0.0","","24","","11","","","","100.74","","","","","","NA"
"-73.74","45.47","MONTREAL/PIERRE ELLIOTT TRUDEAU INTL","702S006","2021-03-12 19:00","2021","03","12","19:00","2.4","","-2.3","","71","","0.0","","27","","18","","","","100.75","","","","","","NA"
"-73.74","45.47","MONTREAL/PIERRE ELLIOTT TRUDEAU INTL","702S006","2021-03-12 20:00","2021","03","12","20:00","1.3","","-1.8","","80","","0.0","","29","","25","","","","100.84","","","","","","NA"
"-73.74","45.47","MONTREAL/PIERRE ELLIOTT TRUDEAU INTL","702S006","2021-03-12 21:00","2021","03","12","21:00","0.6","","-8.0","","53","","0.0","","29","","41","","","","100.99","","","","","","NA"
"-73.74","45.47","MONTREAL/PIERRE ELLIOTT TRUDEAU INTL","702S006","2021-03-12 22:00","2021","03","12","22:00","-0.6","","-9.8","","50","","0.0","","29","","36","","","","101.10","","","","-8","","NA"
"-73.74","45.47","MONTREAL/PIERRE ELLIOTT TRUDEAU INTL","702S006","2021-03-12 23:00","2021","03","12","23:00","-2.2","","-10.2","","54","","0.0","","28","","33","","","","101.25","","","","-10","","NA"
"-73.74","45.47","MONTREAL/PIERRE ELLIOTT TRUDEAU INTL","702S006","2021-03-13 00:00","2021","03","13","00:00","-4.1","","-7.8","","75","","0.0","","29","","33","","","","101.43","","","","-12","","NA"
"-73.74","45.47","MONTREAL/PIERRE ELLIOTT TRUDEAU INTL","702S006","2021-03-13 01:00","2021","03","13","01:00","-4.2","","-8.9","","70","","0.3","","28","","28","","","","101.55","","","","-12","","NA"
"-73.74","45.47","MONTREAL/PIERRE ELLIOTT TRUDEAU INTL","702S006","2021-03-13 02:00","2021","03","13","02:00","-4.1","","-9.6","","66","","0.0","","28","","31","","","","101.69","","","","-12","","NA"
"-73.74","45.47","MONTREAL/PIERRE ELLIOTT TRUDEAU INTL","702S006","2021-03-13 03:00","2021","03","13","03:00","-5.2","","-11.4","","62","","0.0","","29","","28","","","","101.86","","","","-13","","NA"
"-73.74","45.47","MONTREAL/PIERRE ELLIOTT TRUDEAU INTL","702S006","2021-03-13 04:00","2021","03","13","04:00","-5.7","","-11.7","","63","","0.0","","28","","24","","","","102.01","","","","-13","","NA"
"-73.74","45.47","MONTREAL/PIERRE ELLIOTT TRUDEAU INTL","702S006","2021-03-13 05:00","2021","03","13","05:00","-6.3","","-12.3","","63","","0.0","","27","","23","","","","102.13","","","","-14","","NA"
"-73.74","45.47","MONTREAL/PIERRE ELLIOTT TRUDEAU INTL","702S006","2021-03-13 06:00","2021","03","13","06:00","-7.7","","-13.4","","64","","0.0","","28","","24","","","","102.17","","","","-16","","NA"
"-73.74","45.47","MONTREAL/PIERRE ELLIOTT TRUDEAU INTL","702S006","2021-03-13 07:00","2021","03","13","07:00","-7.8","","-13.8","","62","","0.0","","28","","24","","","","102.26","","","","-16","","NA"
"-73.74","45.47","MONTREAL/PIERRE ELLIOTT TRUDEAU INTL","702S006","2021-03-13 08:00","2021","03","13","08:00","-7.4","","-13.2","","63","","0.0","","28","","24","","","","102.26","","","","-15","","NA"
"-73.74","45.47","MONTREAL/PIERRE ELLIOTT TRUDEAU INTL","702S006","2021-03-13 09:00","2021","03","13","09:00","-7.0","","-13.6","","59","","0.0","","28","","22","","","","102.30","","","","-14","","NA"
"-73.74","45.47","MONTREAL/PIERRE ELLIOTT TRUDEAU INTL","702S006","2021-03-13 10:00","2021","03","13","10:00","-6.1","","-12.1","","63","","0.0","","28","","20","","","","102.19","","","","-13","","NA"
"-73.74","45.47","MONTREAL/PIERRE ELLIOTT TRUDEAU INTL","702S006","2021-03-13 11:00","2021","03","13","11:00","-5.4","","-12.1","","59","","0.0","","27","","20","","","","102.11","","","","-12","","NA"
"-73.74","45.47","MONTREAL/PIERRE ELLIOTT TRUDEAU INTL","702S006","2021-03-13 12:00","2021","03","13","12:00","-4.7","","-11.1","","61","","0.0","","27","","18","","","","101.97","","","","-11","","NA"
"-73.74","45.47","MONTREAL/PIERRE ELLIOTT TRUDEAU INTL","702S006","2021-03-13 13:00","2021","03","13","13:00","-4.0","","-11.5","","56","","0.0","","27","","23","","","","101.82","","","","-11","","NA"
"-73.74","45.47","MONTREAL/PIERRE ELLIOTT TRUDEAU INTL","702S006","2021-03-13 14:00","2021","03","13","14:00","-3.0","","-12.1","","49","","0.0","","26","","26","","","","101.69","","","","-10","","NA"
"-73.74","45.47","MONTREAL/PIERRE ELLIOTT TRUDEAU INTL","702S006","2021-03-13 15:00","2021","03","13","15:00","-2.7","","-12.0","","49","","0.0","","27","","28","","","","101.59","","","","-10","","NA"
"-73.74","45.47","MONTREAL/PIERRE ELLIOTT TRUDEAU INTL","702S006","2021-03-13 16:00","2021","03","13","16:00","-2.3","","-12.3","","46","","0.0","","26","","28","","","","101.49","","","","-9","","NA"
"-73.74","45.47","MONTREAL/PIERRE ELLIOTT TRUDEAU INTL","702S006","2021-03-13 17:00","2021","03","13","17:00","-1.6","","-12.5","","43","","0.0","","26","","23","","","","101.40","","","","-8","","NA"
"-73.74","45.47","MONTREAL/PIERRE ELLIOTT TRUDEAU INTL","702S006","2021-03-13 18:00","2021","03","13","18:00","-1.9","","-11.8","","47","","0.0","","27","","20","","","","101.34","","","","-8","","NA"
"-73.74","45.47","MONTREAL/PIERRE ELLIOTT TRUDEAU INTL","702S006","2021-03-13 19:00","2021","03","13","19:00","-2.3","","-11.1","","51","","0.0","","28","","12","","","","101.35","","","","-7","","NA"
"-73.74","45.47","MONTREAL/PIERRE ELLIOTT TRUDEAU INTL","702S006","2021-03-13 20:00","2021","03","13","20:00","-2.6","","-8.1","","66","","0.0","","27","","20","","","","101.32","","","","-9","","NA"
"-73.74","45.47","MONTREAL/PIERRE ELLIOTT TRUDEAU INTL","702S006","2021-03-13 21:00","2021","03","13","21:00","-3.3","","-6.0","","81","","0.0","","24","","8","","","","101.25","","","","-7","","NA"
"-73.74","45.47","MONTREAL/PIERRE ELLIOTT TRUDEAU INTL","702S006","2021-03-13 22:00","2021","03","13","22:00","-2.9","","-5.4","","83","","0.0","","22","","5","","","","101.11","","","","-5","","NA"
"-73.74","45.47","MONTREAL/PIERRE ELLIOTT TRUDEAU INTL","702S006","2021-03-13 23:00","2021","03","13","23:00","-2.0","","-7.2","","67","","0.0","","26","","14","","","","101.03","","","","-7","","NA"
"-73.74","45.47","MONTREAL/PIERRE ELLIOTT TRUDEAU INTL","702S006","2021-03-14 00:00","2021","03","14","00:00","-2.1","","-7.7","","65","","0.0","","26","","9","","","","100.96","","","","-6","","NA"
"-73.74","45.47","MONTREAL/PIERRE ELLIOTT TRUDEAU INTL","702S006","2021-03-14 01:00","2021","03","14","01:00","-2.1","","-8.2","","63","","0.0","","26","","10","","","","100.91","","","","-6","","NA"
"-73.74","45.47","MONTREAL/PIERRE ELLIOTT TRUDEAU INTL","702S006","2021-03-14 02:00","2021","03","14","02:00","-2.2","","-7.9","","65","","0.0","","27","","11","","","","100.90","","","","-6","","NA"
"-73.74","45.47","MONTREAL/PIERRE ELLIOTT TRUDEAU INTL","702S006","2021-03-14 03:00","2021","03","14","03:00","-2.0","","-7.8","","65","","0.0","","26","","10","","","","100.82","","","","-6","","NA"
"-73.74","45.47","MONTREAL/PIERRE ELLIOTT TRUDEAU INTL","702S006","2021-03-14 04:00","2021","03","14","04:00","-1.6","","-7.3","","65","","0.0","","30","","17","","","","100.77","","","","-7","","NA"
"-73.74","45.47","MONTREAL/PIERRE ELLIOTT TRUDEAU INTL","702S006","2021-03-14 05:00","2021","03","14","05:00","-2.5","","-7.5","","68","","0.0","","30","","15","","","","100.84","","","","-7","","NA"
"-73.74","45.47","MONTREAL/PIERRE ELLIOTT TRUDEAU INTL","702S006","2021-03-14 06:00","2021","03","14","06:00","-2.8","","-8.2","","66","","0.0","","28","","15","","","","100.88","","","","-8","","NA"
"-73.74","45.47","MONTREAL/PIERRE ELLIOTT TRUDEAU INTL","702S006","2021-03-14 07:00","2021","03","14","07:00","-2.7","","-8.6","","64","","0.0","","27","","14","","","","100.92","","","","-8","","NA"
"-73.74","45.47","MONTREAL/PIERRE ELLIOTT TRUDEAU INTL","702S006","2021-03-14 08:00","2021","03","14","08:00","-2.7","","-8.1","","66","","0.0","","29","","27","","","","100.95","","","","-10","","NA"
"-73.74","45.47","MONTREAL/PIERRE ELLIOTT TRUDEAU INTL","702S006","2021-03-14 09:00","2021","03","14","09:00","-4.2","","-6.3","","85","","0.0","","32","","30","","","","101.06","","","","-12","","NA"
"-73.74","45.47","MONTREAL/PIERRE ELLIOTT TRUDEAU INTL","702S006","2021-03-14 10:00","2021","03","14","10:00","-3.3","","-14.2","","43","","0.0","","30","","38","","","","101.10","","","","-12","","NA"
"-73.74","45.47","MONTREAL/PIERRE ELLIOTT TRUDEAU INTL","702S006","2021-03-14 11:00","2021","03","14","11:00","-3.8","","-13.1","","48","","0.0","","31","","35","","","","101.17","","","","-12","","NA"
"-73.74","45.47","MONTREAL/PIERRE ELLIOTT TRUDEAU INTL","702S006","2021-03-14 12:00","2021","03","14","12:00","-4.0","","-12.8","","50","","0.0","","32","","37","","","","101.28","","","","-12","","NA"
"-73.74","45.47","MONTREAL/PIERRE ELLIOTT TRUDEAU INTL","702S006","2021-03-14 13:00","2021","03","14","13:00","-4.3","","-13.4","","49","","0.0","","32","","36","","","","101.34","","","","-13","","NA"
"-73.74","45.47","MONTREAL/PIERRE ELLIOTT TRUDEAU INTL","702S006","2021-03-14 14:00","2021","03","14","14:00","-4.0","","-14.2","","45","","0.0","","33","","30","","","","101.39","","","","-12","","NA"
"-73.74","45.47","MONTREAL/PIERRE ELLIOTT TRUDEAU INTL","702S006","2021-03-14 15:00","2021","03","14","15:00","-4.9","","-15.2","","44","","0.0","","31","","33","","","","101.45","","","","-13","","NA"
"-73.74","45.47","MONTREAL/PIERRE ELLIOTT TRUDEAU INTL","702S006","2021-03-14 16:00","2021","03","14","16:00","-4.9","","-15.6","","43","","0.0","","32","","28","","","","101.52","","","","-13","","NA"
"-73.74","45.47","MONTREAL/PIERRE ELLIOTT TRUDEAU INTL","702S006","2021-03-14 17:00","2021","03","14","17:00","-5.8","","-17.0","","41","","0.0","","32","","34","","","","101.61","","","","-15","","NA"
"-73.74","45.47","MONTREAL/PIERRE ELLIOTT TRUDEAU INTL","702S006","2021-03-14 18:00","2021","03","14","18:00","-7.1","","-17.3","","44","","0.0","","32","","32","","","","101.75","","","","-16","","NA"
"-73.74","45.47","MONTREAL/PIERRE ELLIOTT TRUDEAU INTL","702S006","2021-03-14 19:00","2021","03","14","19:00","-8.0","","-18.3","","43","","0.0","","32","","30","","","","101.90","","","","-17","","NA"
"-73.74","45.47","MONTREAL/PIERRE ELLIOTT TRUDEAU INTL","702S006","2021-03-14 20:00","2021","03","14","20:00","-8.7","","-18.4","","45","","0.0","","32","","35","","","","101.99","","","","-18","","NA"
"-73.74","45.47","MONTREAL/PIERRE ELLIOTT TRUDEAU INTL","702S006","2021-03-14 21:00","2021","03","14","21:00","-9.3","","-18.2","","48","","0.0","","31","","29","","","","102.08","","","","-18","","NA"
"-73.74","45.47","MONTREAL/PIERRE ELLIOTT TRUDEAU INTL","702S006","2021-03-14 22:00","2021","03","14","22:00","-10.2","","-18.8","","50","","0.0","","31","","24","","","","102.13","","","","-19","","NA"
"-73.74","45.47","MONTREAL/PIERRE ELLIOTT TRUDEAU INTL","702S006","2021-03-14 23:00","2021","03","14","23:00","-10.8","","-19.5","","49","","0.0","","31","","30","","","","102.18","","","","-21","","NA"
"-73.74","45.47","MONTREAL/PIERRE ELLIOTT TRUDEAU INTL","702S006","2021-03-15 00:00","2021","03","15","00:00","-11.4","","-20.3","","48","","0.0","","32","","25","","","","102.22","","","","-21","","NA"
"-73.74","45.47","MONTREAL/PIERRE ELLIOTT TRUDEAU INTL","702S006","2021-03-15 01:00","2021","03","15","01:00","-12.2","","-20.0","","52","","0.0","","32","","25","","","","102.28","","","","-22","","NA"
"-73.74","45.47","MONTREAL/PIERRE ELLIOTT TRUDEAU INTL","702S006","2021-03-15 02:00","2021","03","15","02:00","-13.0","","-21.7","","48","","0.0","","31","","29","","","","102.32","","","","-23","","NA"
"-73.74","45.47","MONTREAL/PIERRE ELLIOTT TRUDEAU INTL","702S006","2021-03-15 03:00","2021","03","15","03:00","-13.8","","-22.2","","49","","0.0","","32","","27","","","","102.37","","","","-24","","NA"
"-73.74","45.47","MONTREAL/PIERRE ELLIOTT TRUDEAU INTL","702S006","2021-03-15 04:00","2021","03","15","04:00","-14.5","","-22.3","","52","","0.0","","32","","20","","","","102.44","","","","-24","","NA"
"-73.74","45.47","MONTREAL/PIERRE ELLIOTT TRUDEAU INTL","702S006","2021-03-15 05:00","2021","03","15","05:00","-14.9","","-22.7","","51","","0.0","","32","","23","","","","102.55","","","","-25","","NA"
"-73.74","45.47","MONTREAL/PIERRE ELLIOTT TRUDEAU INTL","702S006","2021-03-15 06:00","2021","03","15","06:00","-15.6","","-23.5","","51","","0.0","","32","","19","","","","102.65","","","","-25","","NA"
"-73.74","45.47","MONTREAL/PIERRE ELLIOTT TRUDEAU INTL","702S006","2021-03-15 07:00","2021","03","15","07:00","-15.5","","-23.3","","51","","0.2","","33","","18","","","","102.77","","","","-24","","NA"
"-73.74","45.47","MONTREAL/PIERRE ELLIOTT TRUDEAU INTL","702S006","2021-03-15 08:00","2021","03","15","08:00","-15.2","","-23.3","","50","","0.0","","32","","19","","","","102.84","","","","-24","","NA"
"-73.74","45.47","MONTREAL/PIERRE ELLIOTT TRUDEAU INTL","702S006","2021-03-15 09:00","2021","03","15","09:00","-14.5","","-23.2","","48","","0.0","","31","","17","","","","102.86","","","","-23","","NA"
"-73.74","45.47","MONTREAL/PIERRE ELLIOTT TRUDEAU INTL","702S006","2021-03-15 10:00","2021","03","15","10:00","-13.1","","-21.8","","48","","0.0","","31","","22","","","","102.83","","","","-22","","NA"
"-73.74","45.47","MONTREAL/PIERRE ELLIOTT TRUDEAU INTL","702S006","2021-03-15 11:00","2021","03","15","11:00","-12.4","","-22.7","","42","","0.0","","26","","15","","","","102.78","","","","-20","","NA"
"-73.74","45.47","MONTREAL/PIERRE ELLIOTT TRUDEAU INTL","702S006","2021-03-15 12:00","2021","03","15","12:00","-10.5","","-20.7","","43","","0.0","","28","","22","","","","102.71","","","","-19","","NA"
"-73.74","45.47","MONTREAL/PIERRE ELLIOTT TRUDEAU INTL","702S006","2021-03-15 13:00","2021","03","15","13:00","-9.3","","-19.5","","43","","0.0","","27","","18","","","","102.65","","","","-17","","NA"
"-73.74","45.47","MONTREAL/PIERRE ELLIOTT TRUDEAU INTL","702S006","2021-03-15 14:00","2021","03","15","14:00","-8.1","","-19.3","","40","","0.0","","26","","23","","","","102.56","","","","-16","","NA"
"-73.74","45.47","MONTREAL/PIERRE ELLIOTT TRUDEAU INTL","702S006","2021-03-15 15:00","2021","03","15","15:00","-7.3","","-18.8","","39","","0.0","","28","","22","","","","102.51","","","","-15","","NA"
"-73.74","45.47","MONTREAL/PIERRE ELLIOTT TRUDEAU INTL","702S006","2021-03-15 16:00","2021","03","15","16:00","-6.8","","-19.7","","35","","0.0","","28","","24","","","","102.48","","","","-14","","NA"
"-73.74","45.47","MONTREAL/PIERRE ELLIOTT TRUDEAU INTL","702S006","2021-03-15 17:00","2021","03","15","17:00","-6.3","","-18.8","","37","","0.0","","28","","22","","","","102.43","","","","-14","","NA"
"-73.74","45.47","MONTREAL/PIERRE ELLIOTT TRUDEAU INTL","702S006","2021-03-15 18:00","2021","03","15","18:00","-7.0","","-18.0","","41","","0.0","","26","","17","","","","102.47","","","","-13","","NA"
"-73.74","45.47","MONTREAL/PIERRE ELLIOTT TRUDEAU INTL","702S006","2021-03-15 19:00","2021","03","15","19:00","-7.5","","-17.1","","46","","0.0","","27","","13","","","","102.46","","","","-13","","NA"
"-73.74","45.47","MONTREAL/PIERRE ELLIOTT TRUDEAU INTL","702S006","2021-03-15 20:00","2021","03","15","20:00","-7.7","","-17.3","","46","","0.0","","28","","13","","","","102.49","","","","-13","","NA"
"-73.74","45.47","MONTREAL/PIERRE ELLIOTT TRUDEAU INTL","702S006","2021-03-15 21:00","2021","03","15","21:00","-7.8","","-17.7","","45","","0.0","","27","","9","","","","102.45","","","","-12","","NA"
"-73.74","45.47","MONTREAL/PIERRE ELLIOTT TRUDEAU INTL","702S006","2021-03-15 22:00","2021","03","15","22:00","-8.3","","-17.8","","47","","0.0","","25","","9","","","","102.45","","","","-13","","NA"
"-73.74","45.47","MONTREAL/PIERRE ELLIOTT TRUDEAU INTL","702S006","2021-03-15 23:00","2021","03","15","23:00","-8.7","","-17.3","","50","","0.0","","25","","5","","","","102.39","","","","-11","","NA"
"-73.74","45.47","MONTREAL/PIERRE ELLIOTT TRUDEAU INTL","702S006","2021-03-16 00:00","2021","03","16","00:00","-8.7","","-17.1","","51","","0.0","","25","","3","","","","102.36","","","","-10","","NA"
"-73.74","45.47","MONTREAL/PIERRE ELLIOTT TRUDEAU INTL","702S006","2021-03-16 01:00","2021","03","16","01:00","-9.9","","-16.1","","61","","0.0","","30","","2","","","","102.34","","","","-11","","NA"
"-73.74","45.47","MONTREAL/PIERRE ELLIOTT TRUDEAU INTL","702S006","2021-03-16 02:00","2021","03","16","02:00","-10.0","","-16.3","","60","","0.0","","25","","6","","","","102.32","","","","-14","","NA"
"-73.74","45.47","MONTREAL/PIERRE ELLIOTT TRUDEAU INTL","702S006","2021-03-16 03:00","2021","03","16","03:00","-10.1","","-16.0","","62","","0.0","","26","","5","","","","102.28","","","","-13","","NA"
"-73.74","45.47","MONTREAL/PIERRE ELLIOTT TRUDEAU INTL","702S006","2021-03-16 04:00","2021","03","16","04:00","-9.3","","-15.5","","60","","0.0","","25","","5","","","","102.26","","","","-12","","NA"
"-73.74","45.47","MONTREAL/PIERRE ELLIOTT TRUDEAU INTL","702S006","2021-03-16 05:00","2021","03","16","05:00","-9.5","","-16.4","","57","","0.0","","24","","4","","","","102.30","","","","-12","","NA"
"-73.74","45.47","MONTREAL/PIERRE ELLIOTT TRUDEAU INTL","702S006","2021-03-16 06:00","2021","03","16","06:00","-9.6","","-16.1","","59","","0.0","","14","","2","","","","102.26","","","","-11","","NA"
"-73.74","45.47","MONTREAL/PIERRE ELLIOTT TRUDEAU INTL","702S006","2021-03-16 07:00","2021","03","16","07:00","-8.6","","-15.8","","56","","0.0","","23","","9","","","","102.24","","","","-13","","NA"
"-73.74","45.47","MONTREAL/PIERRE ELLIOTT TRUDEAU INTL","702S006","2021-03-16 08:00","2021","03","16","08:00","-6.6","","-13.2","","60","","0.0","","23","","10","","","","102.23","","","","-11","","NA"
"-73.74","45.47","MONTREAL/PIERRE ELLIOTT TRUDEAU INTL","702S006","2021-03-16 09:00","2021","03","16","09:00","-5.6","","-15.7","","45","","0.0","","23","","7","","","","102.16","","","","-9","","NA"
"-73.74","45.47","MONTREAL/PIERRE ELLIOTT TRUDEAU INTL","702S006","2021-03-16 10:00","2021","03","16","10:00","-4.9","","-14.1","","49","","0.0","","19","","13","","","","102.07","","","","-10","","NA"
"-73.74","45.47","MONTREAL/PIERRE ELLIOTT TRUDEAU INTL","702S006","2021-03-16 11:00","2021","03","16","11:00","-3.7","","-13.7","","46","","0.0","","22","","13","","","","102.03","","","","-9","","NA"
"-73.74","45.47","MONTREAL/PIERRE ELLIOTT TRUDEAU INTL","702S006","2021-03-16 12:00","2021","03","16","12:00","-2.9","","-16.9","","33","","0.0","","16","","9","","","","101.93","","","","-6","","NA"
"-73.74","45.47","MONTREAL/PIERRE ELLIOTT TRUDEAU INTL","702S006","2021-03-16 13:00","2021","03","16","13:00","-2.1","","-16.1","","33","","0.0","","19","","6","","","","101.82","","","","-4","","NA"
"-73.74","45.47","MONTREAL/PIERRE ELLIOTT TRUDEAU INTL","702S006","2021-03-16 14:00","2021","03","16","14:00","-0.8","","-16.1","","30","","0.0","","17","","8","","","","101.73","","","","-4","","NA"
"-73.74","45.47","MONTREAL/PIERRE ELLIOTT TRUDEAU INTL","702S006","2021-03-16 15:00","2021","03","16","15:00","-0.3","","-16.5","","28","","0.0","","19","","6","","","","101.68","","","","-2","","NA"
"-73.74","45.47","MONTREAL/PIERRE ELLIOTT TRUDEAU INTL","702S006","2021-03-16 16:00","2021","03","16","16:00","0.2","","-15.5","","30","","0.0","","18","","6","","","","101.61","","","","","","NA"
"-73.74","45.47","MONTREAL/PIERRE ELLIOTT TRUDEAU INTL","702S006","2021-03-16 17:00","2021","03","16","17:00","0.2","","-13.9","","34","","0.0","","19","","9","","","","101.59","","","","","","NA"
"-73.74","45.47","MONTREAL/PIERRE ELLIOTT TRUDEAU INTL","702S006","2021-03-16 18:00","2021","03","16","18:00","-0.9","","-11.5","","44","","0.0","","20","","7","","","","101.59","","","","-3","","NA"
"-73.74","45.47","MONTREAL/PIERRE ELLIOTT TRUDEAU INTL","702S006","2021-03-16 19:00","2021","03","16","19:00","-1.3","","-10.5","","50","","0.0","","18","","5","","","","101.58","","","","-3","","NA"
"-73.74","45.47","MONTREAL/PIERRE ELLIOTT TRUDEAU INTL","702S006","2021-03-16 20:00","2021","03","16","20:00","-2.5","","-9.8","","57","","0.0","","25","","2","","","","101.57","","","","-3","","NA"
"-73.74","45.47","MONTREAL/PIERRE ELLIOTT TRUDEAU INTL","702S006","2021-03-16 21:00","2021","03","16","21:00","-3.4","","-10.0","","60","","0.0","","31","","2","","","","101.60","","","","-4","","NA"
"-73.74","45.47","MONTREAL/PIERRE ELLIOTT TRUDEAU INTL","702S006","2021-03-16 22:00","2021","03","16","22:00","-3.8","","-9.5","","64","","0.0","","","","0","","","","101.62","","","","","","NA"
"-73.74","45.47","MONTREAL/PIERRE ELLIOTT TRUDEAU INTL","702S006","2021-03-16 23:00","2021","03","16","23:00","-4.9","","-10.5","","64","","0.0","","0","","1","","","","101.62","","","","-5","","NA"
"-73.74","45.47","MONTREAL/PIERRE ELLIOTT TRUDEAU INTL","702S006","2021-03-17 00:00","2021","03","17","00:00","-4.2","","-9.7","","65","","0.0","","21","","3","","","","101.62","","","","-5","","NA"
"-73.74","45.47","MONTREAL/PIERRE ELLIOTT TRUDEAU INTL","702S006","2021-03-17 01:00","2021","03","17","01:00","-4.1","","-9.9","","64","","0.0","","23","","5","","","","101.65","","","","-6","","NA"
"-73.74","45.47","MONTREAL/PIERRE ELLIOTT TRUDEAU INTL","702S006","2021-03-17 02:00","2021","03","17","02:00","-3.3","","-7.3","","74","","0.0","","13","","3","","","","101.67","","","","-5","","NA"
"-73.74","45.47","MONTREAL/PIERRE ELLIOTT TRUDEAU INTL","702S006","2021-03-17 03:00","2021","03","17","03:00","-4.6","","-7.5","","80","","0.0","","15","","5","","","","101.64","","","","-7","","NA"
"-73.74","45.47","MONTREAL/PIERRE ELLIOTT TRUDEAU INTL","702S006","2021-03-17 04:00","2021","03","17","04:00","-4.8","","-7.5","","81","","0.0","","19","","7","","","","101.65","","","","-8","","NA"
"-73.74","45.47","MONTREAL/PIERRE ELLIOTT TRUDEAU INTL","702S006","2021-03-17 05:00","2021","03","17","05:00","-4.5","","-7.4","","80","","0.0","","19","","8","","","","101.66","","","","-8","","NA"
"-73.74","45.47","MONTREAL/PIERRE ELLIOTT TRUDEAU INTL","702S006","2021-03-17 06:00","2021","03","17","06:00","-4.7","","-7.7","","79","","0.0","","19","","7","","","","101.69","","","","-8","","NA"
"-73.74","45.47","MONTREAL/PIERRE ELLIOTT TRUDEAU INTL","702S006","2021-03-17 07:00","2021","03","17","07:00","-2.7","","-6.1","","77","","0.0","","18","","9","","","","101.71","","","","-6","","NA"
"-73.74","45.47","MONTREAL/PIERRE ELLIOTT TRUDEAU INTL","702S006","2021-03-17 08:00","2021","03","17","08:00","-1.0","","-5.6","","71","","0.0","","18","","8","","","","101.72","","","","-4","","NA"
"-73.74","45.47","MONTREAL/PIERRE ELLIOTT TRUDEAU INTL","702S006","2021-03-17 09:00","2021","03","17","09:00","0.5","","-6.2","","61","","0.0","","21","","6","","","","101.71","","","","","","NA"
"-73.74","45.47","MONTREAL/PIERRE ELLIOTT TRUDEAU INTL","702S006","2021-03-17 10:00","2021","03","17","10:00","2.4","","-5.9","","54","","0.0","","21","","6","","","","101.65","","","","","","NA"
"-73.74","45.47","MONTREAL/PIERRE ELLIOTT TRUDEAU INTL","702S006","2021-03-17 11:00","2021","03","17","11:00","3.8","","-4.8","","53","","0.0","","20","","8","","","","101.61","","","","","","NA"
"-73.74","45.47","MONTREAL/PIERRE ELLIOTT TRUDEAU INTL","702S006","2021-03-17 12:00","2021","03","17","12:00","5.0","","-4.6","","50","","0.0","","17","","7","","","","101.56","","","","","","NA"
"-73.74","45.47","MONTREAL/PIERRE ELLIOTT TRUDEAU INTL","702S006","2021-03-17 13:00","2021","03","17","13:00","5.2","","-5.1","","47","","0.0","","17","","8","","","","101.43","","","","","","NA"
"-73.74","45.47","MONTREAL/PIERRE ELLIOTT TRUDEAU INTL","702S006","2021-03-17 14:00","2021","03","17","14:00","6.2","","-4.7","","45","","0.0","","20","","4","","","","101.34","","","","","","NA"
"-73.74","45.47","MONTREAL/PIERRE ELLIOTT TRUDEAU INTL","702S006","2021-03-17 15:00","2021","03","17","15:00","6.6","","-4.8","","44","","0.0","","17","","7","","","","101.25","","","","","","NA"
"-73.74","45.47","MONTREAL/PIERRE ELLIOTT TRUDEAU INTL","702S006","2021-03-17 16:00","2021","03","17","16:00","6.8","","-3.9","","46","","0.0","","27","","9","","","","101.27","","","","","","NA"
"-73.74","45.47","MONTREAL/PIERRE ELLIOTT TRUDEAU INTL","702S006","2021-03-17 17:00","2021","03","17","17:00","6.9","","-3.8","","46","","0.0","","25","","4","","","","101.19","","","","","","NA"
"-73.74","45.47","MONTREAL/PIERRE ELLIOTT TRUDEAU INTL","702S006","2021-03-17 18:00","2021","03","17","18:00","5.4","","-3.5","","53","","0.0","","26","","7","","","","101.22","","","","","","NA"
"-73.74","45.47","MONTREAL/PIERRE ELLIOTT TRUDEAU INTL","702S006","2021-03-17 19:00","2021","03","17","19:00","5.2","","-3.8","","52","","0.0","","12","","2","","","","101.19","","","","","","NA"
"-73.74","45.47","MONTREAL/PIERRE ELLIOTT TRUDEAU INTL","702S006","2021-03-17 20:00","2021","03","17","20:00","4.0","","-3.2","","59","","0.0","","22","","6","","","","101.22","","","","","","NA"
"-73.74","45.47","MONTREAL/PIERRE ELLIOTT TRUDEAU INTL","702S006","2021-03-17 21:00","2021","03","17","21:00","4.0","","-3.6","","58","","0.0","","25","","7","","","","101.23","","","","","","NA"
"-73.74","45.47","MONTREAL/PIERRE ELLIOTT TRUDEAU INTL","702S006","2021-03-17 22:00","2021","03","17","22:00","3.1","","-2.3","","68","","0.0","","19","","7","","","","101.18","","","","","","NA"
"-73.74","45.47","MONTREAL/PIERRE ELLIOTT TRUDEAU INTL","702S006","2021-03-17 23:00","2021","03","17","23:00","3.1","","-2.2","","68","","0.0","","19","","12","","","","101.07","","","","","","NA"
"-73.74","45.47","MONTREAL/PIERRE ELLIOTT TRUDEAU INTL","702S006","2021-03-18 00:00","2021","03","18","00:00","3.7","","-1.7","","67","","0.0","","21","","11","","","","101.01","","","","","","NA"
"-73.74","45.47","MONTREAL/PIERRE ELLIOTT TRUDEAU INTL","702S006","2021-03-18 01:00","2021","03","18","01:00","3.8","","-0.8","","72","","0.0","","24","","9","","","","101.02","","","","","","NA"
"-73.74","45.47","MONTREAL/PIERRE ELLIOTT TRUDEAU INTL","702S006","2021-03-18 02:00","2021","03","18","02:00","3.0","","0.3","","82","","0.0","","25","","13","","","","101.07","","","","","","NA"
"-73.74","45.47","MONTREAL/PIERRE ELLIOTT TRUDEAU INTL","702S006","2021-03-18 03:00","2021","03","18","03:00","2.7","","0.8","","87","","0.0","","25","","14","","","","101.05","","","","","","NA"
"-73.74","45.47","MONTREAL/PIERRE ELLIOTT TRUDEAU INTL","702S006","2021-03-18 04:00","2021","03","18","04:00","2.5","","0.7","","88","","0.0","","25","","15","","","","101.06","","","","","","NA"
"-73.74","45.47","MONTREAL/PIERRE ELLIOTT TRUDEAU INTL","702S006","2021-03-18 05:00","2021","03","18","05:00","2.5","","0.7","","88","","0.0","","25","","9","","","","101.15","","","","","","NA"
"-73.74","45.47","MONTREAL/PIERRE ELLIOTT TRUDEAU INTL","702S006","2021-03-18 06:00","2021","03","18","06:00","2.4","","1.0","","91","","0.0","","25","","11","","","","101.14","","","","","","NA"
"-73.74","45.47","MONTREAL/PIERRE ELLIOTT TRUDEAU INTL","702S006","2021-03-18 07:00","2021","03","18","07:00","1.8","","0.9","","94","","0.0","","22","","8","","","","101.18","","","","","","NA"
"-73.74","45.47","MONTREAL/PIERRE ELLIOTT TRUDEAU INTL","702S006","2021-03-18 08:00","2021","03","18","08:00","3.5","","1.3","","85","","0.0","","25","","13","","","","101.17","","","","","","NA"
"-73.74","45.47","MONTREAL/PIERRE ELLIOTT TRUDEAU INTL","702S006","2021-03-18 09:00","2021","03","18","09:00","4.3","","0.9","","79","","0.0","","26","","15","","","","101.21","","","","","","NA"
"-73.74","45.47","MONTREAL/PIERRE ELLIOTT TRUDEAU INTL","702S006","2021-03-18 10:00","2021","03","18","10:00","5.2","","0.4","","71","","0.0","","27","","14","","","","101.23","","","","","","NA"
"-73.74","45.47","MONTREAL/PIERRE ELLIOTT TRUDEAU INTL","702S006","2021-03-18 11:00","2021","03","18","11:00","5.5","","-0.5","","65","","0.0","","27","","13","","","","101.27","","","","","","NA"
"-73.74","45.47","MONTREAL/PIERRE ELLIOTT TRUDEAU INTL","702S006","2021-03-18 12:00","2021","03","18","12:00","5.1","","-1.3","","63","","0.0","","30","","19","","","","101.28","","","","","","NA"
"-73.74","45.47","MONTREAL/PIERRE ELLIOTT TRUDEAU INTL","702S006","2021-03-18 13:00","2021","03","18","13:00","5.9","","-1.9","","57","","0.0","","30","","14","","","","101.22","","","","","","NA"
"-73.74","45.47","MONTREAL/PIERRE ELLIOTT TRUDEAU INTL","702S006","2021-03-18 14:00","2021","03","18","14:00","6.3","","-2.6","","53","","0.0","","32","","20","","","","101.21","","","","","","NA"
"-73.74","45.47","MONTREAL/PIERRE ELLIOTT TRUDEAU INTL","702S006","2021-03-18 15:00","2021","03","18","15:00","5.8","","-5.5","","44","","0.0","","33","","23","","","","101.20","","","","","","NA"
"-73.74","45.47","MONTREAL/PIERRE ELLIOTT TRUDEAU INTL","702S006","2021-03-18 16:00","2021","03","18","16:00","5.5","","-7.7","","38","","0.0","","34","","23","","","","101.25","","","","","","NA"
"-73.74","45.47","MONTREAL/PIERRE ELLIOTT TRUDEAU INTL","702S006","2021-03-18 17:00","2021","03","18","17:00","3.6","","-13.0","","29","","0.0","","36","","28","","","","101.39","","","","","","NA"
"-73.74","45.47","MONTREAL/PIERRE ELLIOTT TRUDEAU INTL","702S006","2021-03-18 18:00","2021","03","18","18:00","2.0","","-13.8","","30","","0.0","","1","","30","","","","101.54","","","","","","NA"
"-73.74","45.47","MONTREAL/PIERRE ELLIOTT TRUDEAU INTL","702S006","2021-03-18 19:00","2021","03","18","19:00","0.6","","-15.6","","29","","0.0","","2","","27","","","","101.67","","","","","","NA"
"-73.74","45.47","MONTREAL/PIERRE ELLIOTT TRUDEAU INTL","702S006","2021-03-18 20:00","2021","03","18","20:00","-1.1","","-15.2","","33","","0.0","","1","","30","","","","101.81","","","","-8","","NA"
"-73.74","45.47","MONTREAL/PIERRE ELLIOTT TRUDEAU INTL","702S006","2021-03-18 21:00","2021","03","18","21:00","-2.6","","-15.1","","38","","0.0","","1","","25","","","","101.93","","","","-9","","NA"
"-73.74","45.47","MONTREAL/PIERRE ELLIOTT TRUDEAU INTL","702S006","2021-03-18 22:00","2021","03","18","22:00","-3.9","","-16.7","","36","","0.0","","1","","31","","","","101.99","","","","-12","","NA"
"-73.74","45.47","MONTREAL/PIERRE ELLIOTT TRUDEAU INTL","702S006","2021-03-18 23:00","2021","03","18","23:00","-5.0","","-17.0","","39","","0.0","","1","","32","","","","102.09","","","","-13","","NA"
"-73.74","45.47","MONTREAL/PIERRE ELLIOTT TRUDEAU INTL","702S006","2021-03-19 00:00","2021","03","19","00:00","-6.0","","-16.4","","44","","0.0","","1","","23","","","","102.14","","","","-13","","NA"
"-73.74","45.47","MONTREAL/PIERRE ELLIOTT TRUDEAU INTL","702S006","2021-03-19 01:00","2021","03","19","01:00","-6.9","","-16.7","","45","","0.0","","1","","21","","","","102.20","","","","-14","","NA"
"-73.74","45.47","MONTREAL/PIERRE ELLIOTT TRUDEAU INTL","702S006","2021-03-19 02:00","2021","03","19","02:00","-7.5","","-16.9","","47","","0.0","","1","","28","","","","102.22","","","","-16","","NA"
"-73.74","45.47","MONTREAL/PIERRE ELLIOTT TRUDEAU INTL","702S006","2021-03-19 03:00","2021","03","19","03:00","-8.1","","-16.9","","49","","0.0","","1","","17","","","","102.27","","","","-15","","NA"
"-73.74","45.47","MONTREAL/PIERRE ELLIOTT TRUDEAU INTL","702S006","2021-03-19 04:00","2021","03","19","04:00","-8.6","","-16.8","","51","","0.0","","35","","18","","","","102.35","","","","-16","","NA"
"-73.74","45.47","MONTREAL/PIERRE ELLIOTT TRUDEAU INTL","702S006","2021-03-19 05:00","2021","03","19","05:00","-8.9","","-16.7","","53","","0.0","","35","","17","","","","102.46","","","","-16","","NA"
"-73.74","45.47","MONTREAL/PIERRE ELLIOTT TRUDEAU INTL","702S006","2021-03-19 06:00","2021","03","19","06:00","-9.2","","-16.8","","54","","0.0","","35","","13","","","","102.61","","","","-15","","NA"
"-73.74","45.47","MONTREAL/PIERRE ELLIOTT TRUDEAU INTL","702S006","2021-03-19 07:00","2021","03","19","07:00","-8.7","","-16.6","","53","","0.0","","36","","16","","","","102.72","","","","-15","","NA"
"-73.74","45.47","MONTREAL/PIERRE ELLIOTT TRUDEAU INTL","702S006","2021-03-19 08:00","2021","03","19","08:00","-8.3","","-17.4","","48","","0.0","","1","","19","","","","102.78","","","","-16","","NA"
"-73.74","45.47","MONTREAL/PIERRE ELLIOTT TRUDEAU INTL","702S006","2021-03-19 09:00","2021","03","19","09:00","-7.3","","-16.8","","46","","0.0","","36","","17","","","","102.83","","","","-14","","NA"
"-73.74","45.47","MONTREAL/PIERRE ELLIOTT TRUDEAU INTL","702S006","2021-03-19 10:00","2021","03","19","10:00","-6.6","","-17.1","","43","","0.0","","31","","14","","","","102.82","","","","-12","","NA"
"-73.74","45.47","MONTREAL/PIERRE ELLIOTT TRUDEAU INTL","702S006","2021-03-19 11:00","2021","03","19","11:00","-5.2","","-16.9","","39","","0.0","","30","","11","","","","102.78","","","","-10","","NA"
"-73.74","45.47","MONTREAL/PIERRE ELLIOTT TRUDEAU INTL","702S006","2021-03-19 12:00","2021","03","19","12:00","-3.3","","-15.1","","40","","0.0","","31","","12","","","","102.75","","","","-8","","NA"
"-73.74","45.47","MONTREAL/PIERRE ELLIOTT TRUDEAU INTL","702S006","2021-03-19 13:00","2021","03","19","13:00","-2.8","","-15.5","","37","","0.0","","27","","13","","","","102.66","","","","-7","","NA"
"-73.74","45.47","MONTREAL/PIERRE ELLIOTT TRUDEAU INTL","702S006","2021-03-19 14:00","2021","03","19","14:00","-1.2","","-14.3","","36","","0.0","","24","","11","","","","102.58","","","","-5","","NA"
"-73.74","45.47","MONTREAL/PIERRE ELLIOTT TRUDEAU INTL","702S006","2021-03-19 15:00","2021","03","19","15:00","-1.2","","-13.5","","39","","0.0","","24","","15","","","","102.51","","","","-6","","NA"
"-73.74","45.47","MONTREAL/PIERRE ELLIOTT TRUDEAU INTL","702S006","2021-03-19 16:00","2021","03","19","16:00","-0.6","","-13.0","","39","","0.0","","23","","15","","","","102.45","","","","-5","","NA"
"-73.74","45.47","MONTREAL/PIERRE ELLIOTT TRUDEAU INTL","702S006","2021-03-19 17:00","2021","03","19","17:00","-0.6","","-14.1","","35","","0.0","","24","","18","","","","102.44","","","","-6","","NA"
"-73.74","45.47","MONTREAL/PIERRE ELLIOTT TRUDEAU INTL","702S006","2021-03-19 18:00","2021","03","19","18:00","-1.0","","-13.2","","39","","0.0","","25","","18","","","","102.48","","","","-6","","NA"
"-73.74","45.47","MONTREAL/PIERRE ELLIOTT TRUDEAU INTL","702S006","2021-03-19 19:00","2021","03","19","19:00","-1.2","","-12.9","","41","","0.0","","24","","15","","","","102.50","","","","-6","","NA"
"-73.74","45.47","MONTREAL/PIERRE ELLIOTT TRUDEAU INTL","702S006","2021-03-19 20:00","2021","03","19","20:00","-1.4","","-12.0","","44","","0.0","","25","","15","","","","102.54","","","","-6","","NA"
"-73.74","45.47","MONTREAL/PIERRE ELLIOTT TRUDEAU INTL","702S006","2021-03-19 21:00","2021","03","19","21:00","-1.2","","-11.8","","44","","0.0","","24","","10","","","","102.56","","","","-5","","NA"
"-73.74","45.47","MONTREAL/PIERRE ELLIOTT TRUDEAU INTL","702S006","2021-03-19 22:00","2021","03","19","22:00","-1.7","","-10.5","","51","","0.0","","23","","12","","","","102.56","","","","-6","","NA"
"-73.74","45.47","MONTREAL/PIERRE ELLIOTT TRUDEAU INTL","702S006","2021-03-19 23:00","2021","03","19","23:00","-1.7","","-10.1","","53","","0.0","","25","","10","","","","102.53","","","","-5","","NA"
"-73.74","45.47","MONTREAL/PIERRE ELLIOTT TRUDEAU INTL","702S006","2021-03-20 00:00","2021","03","20","00:00","-1.6","","-9.9","","53","","0.0","","24","","10","","","","102.54","","","","-5","","NA"
"-73.74","45.47","MONTREAL/PIERRE ELLIOTT TRUDEAU INTL","702S006","2021-03-20 01:00","2021","03","20","01:00","-1.7","","-9.6","","55","","0.0","","25","","15","","","","102.55","","","","-7","","NA"
"-73.74","45.47","MONTREAL/PIERRE ELLIOTT TRUDEAU INTL","702S006","2021-03-20 02:00","2021","03","20","02:00","-2.1","","-8.4","","62","","0.0","","25","","14","","","","102.51","","","","-7","","NA"
"-73.74","45.47","MONTREAL/PIERRE ELLIOTT TRUDEAU INTL","702S006","2021-03-20 03:00","2021","03","20","03:00","-2.0","","-7.9","","64","","0.0","","25","","13","","","","102.50","","","","-6","","NA"
"-73.74","45.47","MONTREAL/PIERRE ELLIOTT TRUDEAU INTL","702S006","2021-03-20 04:00","2021","03","20","04:00","-1.8","","-7.1","","67","","0.0","","24","","13","","","","102.50","","","","-6","","NA"
"-73.74","45.47","MONTREAL/PIERRE ELLIOTT TRUDEAU INTL","702S006","2021-03-20 05:00","2021","03","20","05:00","-1.7","","-6.6","","69","","0.0","","24","","14","","","","102.54","","","","-6","","NA"
"-73.74","45.47","MONTREAL/PIERRE ELLIOTT TRUDEAU INTL","702S006","2021-03-20 06:00","2021","03","20","06:00","-1.6","","-6.5","","69","","0.0","","24","","14","","","","102.57","","","","-6","","NA"
"-73.74","45.47","MONTREAL/PIERRE ELLIOTT TRUDEAU INTL","702S006","2021-03-20 07:00","2021","03","20","07:00","-0.6","","-6.2","","66","","0.0","","24","","14","","","","102.63","","","","-5","","NA"
"-73.74","45.47","MONTREAL/PIERRE ELLIOTT TRUDEAU INTL","702S006","2021-03-20 08:00","2021","03","20","08:00","0.8","","-6.2","","59","","0.0","","25","","20","","","","102.68","","","","","","NA"
"-73.74","45.47","MONTREAL/PIERRE ELLIOTT TRUDEAU INTL","702S006","2021-03-20 09:00","2021","03","20","09:00","1.6","","-6.7","","54","","0.0","","25","","20","","","","102.70","","","","","","NA"
"-73.74","45.47","MONTREAL/PIERRE ELLIOTT TRUDEAU INTL","702S006","2021-03-20 10:00","2021","03","20","10:00","2.9","","-5.4","","54","","0.0","","25","","19","","","","102.70","","","","","","NA"
"-73.74","45.47","MONTREAL/PIERRE ELLIOTT TRUDEAU INTL","702S006","2021-03-20 11:00","2021","03","20","11:00","4.7","","-4.9","","50","","0.0","","25","","19","","","","102.68","","","","","","NA"
"-73.74","45.47","MONTREAL/PIERRE ELLIOTT TRUDEAU INTL","702S006","2021-03-20 12:00","2021","03","20","12:00","6.4","","-4.3","","46","","0.0","","23","","18","","","","102.65","","","","","","NA"
"-73.74","45.47","MONTREAL/PIERRE ELLIOTT TRUDEAU INTL","702S006","2021-03-20 13:00","2021","03","20","13:00","7.2","","-5.3","","41","","0.0","","24","","19","","","","102.64","","","","","","NA"
"-73.74","45.47","MONTREAL/PIERRE ELLIOTT TRUDEAU INTL","702S006","2021-03-20 14:00","2021","03","20","14:00","7.7","","-5.7","","38","","0.0","","25","","23","","","","102.61","","","","","","NA"
"-73.74","45.47","MONTREAL/PIERRE ELLIOTT TRUDEAU INTL","702S006","2021-03-20 15:00","2021","03","20","15:00","9.1","","-4.8","","37","","0.0","","25","","17","","","","102.60","","","","","","NA"
"-73.74","45.47","MONTREAL/PIERRE ELLIOTT TRUDEAU INTL","702S006","2021-03-20 16:00","2021","03","20","16:00","9.5","","-4.5","","37","","0.0","","24","","18","","","","102.57","","","","","","NA"
"-73.74","45.47","MONTREAL/PIERRE ELLIOTT TRUDEAU INTL","702S006","2021-03-20 17:00","2021","03","20","17:00","9.6","","-3.7","","39","","0.0","","25","","11","","","","102.57","","","","","","NA"
"-73.74","45.47","MONTREAL/PIERRE ELLIOTT TRUDEAU INTL","702S006","2021-03-20 18:00","2021","03","20","18:00","8.8","","-3.7","","41","","0.0","","25","","12","","","","102.57","","","","","","NA"
"-73.74","45.47","MONTREAL/PIERRE ELLIOTT TRUDEAU INTL","702S006","2021-03-20 19:00","2021","03","20","19:00","7.9","","-4.1","","42","","0.0","","24","","12","","","","102.61","","","","","","NA"
"-73.74","45.47","MONTREAL/PIERRE ELLIOTT TRUDEAU INTL","702S006","2021-03-20 20:00","2021","03","20","20:00","6.4","","-3.6","","49","","0.0","","24","","7","","","","102.64","","","","","","NA"
"-73.74","45.47","MONTREAL/PIERRE ELLIOTT TRUDEAU INTL","702S006","2021-03-20 21:00","2021","03","20","21:00","6.0","","-3.6","","50","","0.0","","24","","9","","","","102.66","","","","","","NA"
"-73.74","45.47","MONTREAL/PIERRE ELLIOTT TRUDEAU INTL","702S006","2021-03-20 22:00","2021","03","20","22:00","5.8","","-3.7","","51","","0.0","","25","","8","","","","102.67","","","","","","NA"
"-73.74","45.47","MONTREAL/PIERRE ELLIOTT TRUDEAU INTL","702S006","2021-03-20 23:00","2021","03","20","23:00","4.6","","-3.8","","54","","0.0","","26","","7","","","","102.68","","","","","","NA"
"-73.74","45.47","MONTREAL/PIERRE ELLIOTT TRUDEAU INTL","702S006","2021-03-21 00:00","2021","03","21","00:00","4.3","","-3.8","","55","","0.0","","25","","11","","","","102.70","","","","","","NA"
"-73.74","45.47","MONTREAL/PIERRE ELLIOTT TRUDEAU INTL","702S006","2021-03-21 01:00","2021","03","21","01:00","3.8","","-3.9","","57","","0.0","","25","","11","","","","102.74","","","","","","NA"
"-73.74","45.47","MONTREAL/PIERRE ELLIOTT TRUDEAU INTL","702S006","2021-03-21 02:00","2021","03","21","02:00","2.9","","-4.2","","59","","0.0","","25","","12","","","","102.76","","","","","","NA"
"-73.74","45.47","MONTREAL/PIERRE ELLIOTT TRUDEAU INTL","702S006","2021-03-21 03:00","2021","03","21","03:00","1.8","","-4.1","","65","","0.0","","23","","9","","","","102.78","","","","","","NA"
"-73.74","45.47","MONTREAL/PIERRE ELLIOTT TRUDEAU INTL","702S006","2021-03-21 04:00","2021","03","21","04:00","2.3","","-5.1","","58","","0.0","","24","","10","","","","102.82","","","","","","NA"
"-73.74","45.47","MONTREAL/PIERRE ELLIOTT TRUDEAU INTL","702S006","2021-03-21 05:00","2021","03","21","05:00","1.4","","-5.3","","61","","0.0","","25","","9","","","","102.88","","","","","","NA"
"-73.74","45.47","MONTREAL/PIERRE ELLIOTT TRUDEAU INTL","702S006","2021-03-21 06:00","2021","03","21","06:00","1.2","","-5.6","","60","","0.0","","25","","12","","","","102.91","","","","","","NA"
"-73.74","45.47","MONTREAL/PIERRE ELLIOTT TRUDEAU INTL","702S006","2021-03-21 07:00","2021","03","21","07:00","2.2","","-5.4","","57","","0.0","","25","","9","","","","102.99","","","","","","NA"
"-73.74","45.47","MONTREAL/PIERRE ELLIOTT TRUDEAU INTL","702S006","2021-03-21 08:00","2021","03","21","08:00","4.6","","-5.3","","49","","0.0","","26","","12","","","","103.00","","","","","","NA"
"-73.74","45.47","MONTREAL/PIERRE ELLIOTT TRUDEAU INTL","702S006","2021-03-21 09:00","2021","03","21","09:00","6.6","","-5.6","","41","","0.0","","23","","9","","","","103.02","","","","","","NA"
"-73.74","45.47","MONTREAL/PIERRE ELLIOTT TRUDEAU INTL","702S006","2021-03-21 10:00","2021","03","21","10:00","7.5","","-5.3","","40","","0.0","","21","","10","","","","103.03","","","","","","NA"
"-73.74","45.47","MONTREAL/PIERRE ELLIOTT TRUDEAU INTL","702S006","2021-03-21 11:00","2021","03","21","11:00","9.4","","-4.7","","36","","0.0","","22","","13","","","","102.99","","","","","","NA"
"-73.74","45.47","MONTREAL/PIERRE ELLIOTT TRUDEAU INTL","702S006","2021-03-21 12:00","2021","03","21","12:00","10.9","","-4.3","","34","","0.0","","22","","13","","","","102.94","","","","","","NA"
"-73.74","45.47","MONTREAL/PIERRE ELLIOTT TRUDEAU INTL","702S006","2021-03-21 13:00","2021","03","21","13:00","12.1","","-4.5","","31","","0.0","","23","","15","","","","102.86","","","","","","NA"
"-73.74","45.47","MONTREAL/PIERRE ELLIOTT TRUDEAU INTL","702S006","2021-03-21 14:00","2021","03","21","14:00","13.3","","-4.4","","29","","0.0","","22","","15","","","","102.79","","","","","","NA"
"-73.74","45.47","MONTREAL/PIERRE ELLIOTT TRUDEAU INTL","702S006","2021-03-21 15:00","2021","03","21","15:00","13.6","","-4.9","","27","","0.0","","23","","12","","","","102.73","","","","","","NA"
"-73.74","45.47","MONTREAL/PIERRE ELLIOTT TRUDEAU INTL","702S006","2021-03-21 16:00","2021","03","21","16:00","14.2","","-5.7","","25","","0.0","","23","","10","","","","102.67","","","","","","NA"
"-73.74","45.47","MONTREAL/PIERRE ELLIOTT TRUDEAU INTL","702S006","2021-03-21 17:00","2021","03","21","17:00","13.4","","-6.5","","25","","0.0","","21","","9","","","","102.63","","","","","","NA"
"-73.74","45.47","MONTREAL/PIERRE ELLIOTT TRUDEAU INTL","702S006","2021-03-21 18:00","2021","03","21","18:00","10.0","","-5.3","","33","","0.0","","17","","9","","","","102.62","","","","","","NA"
"-73.74","45.47","MONTREAL/PIERRE ELLIOTT TRUDEAU INTL","702S006","2021-03-21 19:00","2021","03","21","19:00","8.5","","-5.8","","36","","0.0","","16","","6","","","","102.62","","","","","","NA"
"-73.74","45.47","MONTREAL/PIERRE ELLIOTT TRUDEAU INTL","702S006","2021-03-21 20:00","2021","03","21","20:00","5.6","","-6.1","","43","","0.0","","27","","2","","","","102.59","","","","","","NA"
"-73.74","45.47","MONTREAL/PIERRE ELLIOTT TRUDEAU INTL","702S006","2021-03-21 21:00","2021","03","21","21:00","5.9","","-4.1","","49","","0.0","","0","","1","","","","102.54","","","","","","NA"
"-73.74","45.47","MONTREAL/PIERRE ELLIOTT TRUDEAU INTL","702S006","2021-03-21 22:00","2021","03","21","22:00","5.2","","-4.4","","50","","0.0","","16","","2","","","","102.53","","","","","","NA"
"-73.74","45.47","MONTREAL/PIERRE ELLIOTT TRUDEAU INTL","702S006","2021-03-21 23:00","2021","03","21","23:00","4.1","","-3.1","","59","","0.0","","18","","4","","","","102.51","","","","","","NA"
"-73.74","45.47","MONTREAL/PIERRE ELLIOTT TRUDEAU INTL","702S006","2021-03-22 00:00","2021","03","22","00:00","1.9","","-3.4","","68","","0.0","","16","","7","","","","102.50","","","","","","NA"
"-73.74","45.47","MONTREAL/PIERRE ELLIOTT TRUDEAU INTL","702S006","2021-03-22 01:00","2021","03","22","01:00","1.0","","-2.9","","75","","0.0","","15","","2","","","","102.47","","","","","","NA"
"-73.74","45.47","MONTREAL/PIERRE ELLIOTT TRUDEAU INTL","702S006","2021-03-22 02:00","2021","03","22","02:00","0.7","","-3.4","","74","","0.0","","12","","4","","","","102.44","","","","","","NA"
"-73.74","45.47","MONTREAL/PIERRE ELLIOTT TRUDEAU INTL","702S006","2021-03-22 03:00","2021","03","22","03:00","-1.6","","-4.9","","78","","0.0","","29","","2","","","","102.39","","","","-2","","NA"
"-73.74","45.47","MONTREAL/PIERRE ELLIOTT TRUDEAU INTL","702S006","2021-03-22 04:00","2021","03","22","04:00","1.4","","-4.3","","66","","0.0","","11","","6","","","","102.41","","","","","","NA"
"-73.74","45.47","MONTREAL/PIERRE ELLIOTT TRUDEAU INTL","702S006","2021-03-22 05:00","2021","03","22","05:00","-1.8","","-5.3","","77","","0.0","","34","","3","","","","102.42","","","","-3","","NA"
"-73.74","45.47","MONTREAL/PIERRE ELLIOTT TRUDEAU INTL","702S006","2021-03-22 06:00","2021","03","22","06:00","-1.9","","-5.4","","77","","0.0","","34","","2","","","","102.45","","","","-3","","NA"
"-73.74","45.47","MONTREAL/PIERRE ELLIOTT TRUDEAU INTL","702S006","2021-03-22 07:00","2021","03","22","07:00","1.8","","-3.0","","71","","0.2","","","","0","","","","102.46","","","","","","NA"
"-73.74","45.47","MONTREAL/PIERRE ELLIOTT TRUDEAU INTL","702S006","2021-03-22 08:00","2021","03","22","08:00","5.2","","-4.2","","51","","0.0","","18","","6","","","","102.45","","","","","","NA"
"-73.74","45.47","MONTREAL/PIERRE ELLIOTT TRUDEAU INTL","702S006","2021-03-22 09:00","2021","03","22","09:00","7.9","","-4.8","","40","","0.0","","19","","4","","","","102.42","","","","","","NA"
"-73.74","45.47","MONTREAL/PIERRE ELLIOTT TRUDEAU INTL","702S006","2021-03-22 10:00","2021","03","22","10:00","11.7","","-6.3","","28","","0.0","","20","","5","","","","102.38","","","","","","NA"
"-73.74","45.47","MONTREAL/PIERRE ELLIOTT TRUDEAU INTL","702S006","2021-03-22 11:00","2021","03","22","11:00","13.6","","-6.1","","25","","0.0","","22","","9","","","","102.30","","","","","","NA"
"-73.74","45.47","MONTREAL/PIERRE ELLIOTT TRUDEAU INTL","702S006","2021-03-22 12:00","2021","03","22","12:00","15.5","","-4.9","","24","","0.0","","23","","11","","","","102.18","","","","","","NA"
"-73.74","45.47","MONTREAL/PIERRE ELLIOTT TRUDEAU INTL","702S006","2021-03-22 13:00","2021","03","22","13:00","16.3","","-5.9","","21","","0.0","","22","","10","","","","102.08","","","","","","NA"
"-73.74","45.47","MONTREAL/PIERRE ELLIOTT TRUDEAU INTL","702S006","2021-03-22 14:00","2021","03","22","14:00","17.2","","-4.2","","23","","0.0","","20","","9","","","","102.00","","","","","","NA"
"-73.74","45.47","MONTREAL/PIERRE ELLIOTT TRUDEAU INTL","702S006","2021-03-22 15:00","2021","03","22","15:00","17.4","","-2.8","","25","","0.0","","15","","11","","","","101.94","","","","","","NA"
"-73.74","45.47","MONTREAL/PIERRE ELLIOTT TRUDEAU INTL","702S006","2021-03-22 16:00","2021","03","22","16:00","17.7","","-3.3","","24","","0.0","","16","","11","","","","101.90","","","","","","NA"
"-73.74","45.47","MONTREAL/PIERRE ELLIOTT TRUDEAU INTL","702S006","2021-03-22 17:00","2021","03","22","17:00","16.9","","-3.9","","24","","0.0","","14","","12","","","","101.87","","","","","","NA"
"-73.74","45.47","MONTREAL/PIERRE ELLIOTT TRUDEAU INTL","702S006","2021-03-22 18:00","2021","03","22","18:00","14.2","","-3.8","","28","","0.0","","13","","7","","","","101.86","","","","","","NA"
"-73.74","45.47","MONTREAL/PIERRE ELLIOTT TRUDEAU INTL","702S006","2021-03-22 19:00","2021","03","22","19:00","10.2","","-3.5","","38","","0.0","","16","","2","","","","101.83","","","","","","NA"
"-73.74","45.47","MONTREAL/PIERRE ELLIOTT TRUDEAU INTL","702S006","2021-03-22 20:00","2021","03","22","20:00","9.1","","-4.2","","39","","0.0","","13","","1","","","","101.83","","","","","","NA"
"-73.74","45.47","MONTREAL/PIERRE ELLIOTT TRUDEAU INTL","702S006","2021-03-22 21:00","2021","03","22","21:00","7.8","","-3.7","","44","","0.0","","20","","3","","","","101.84","","","","","","NA"
"-73.74","45.47","MONTREAL/PIERRE ELLIOTT TRUDEAU INTL","702S006","2021-03-22 22:00","2021","03","22","22:00","5.1","","-3.7","","53","","0.0","","16","","6","","","","101.87","","","","","","NA"
"-73.74","45.47","MONTREAL/PIERRE ELLIOTT TRUDEAU INTL","702S006","2021-03-22 23:00","2021","03","22","23:00","4.9","","-1.5","","63","","0.0","","15","","6","","","","101.89","","","","","","NA"
"-73.74","45.47","MONTREAL/PIERRE ELLIOTT TRUDEAU INTL","702S006","2021-03-23 00:00","2021","03","23","00:00","6.4","","-1.9","","56","","0.0","","14","","5","","","","101.89","","","","","","NA"
"-73.74","45.47","MONTREAL/PIERRE ELLIOTT TRUDEAU INTL","702S006","2021-03-23 01:00","2021","03","23","01:00","5.6","","-2.8","","55","","0.0","","14","","3","","","","101.91","","","","","","NA"
"-73.74","45.47","MONTREAL/PIERRE ELLIOTT TRUDEAU INTL","702S006","2021-03-23 02:00","2021","03","23","02:00","4.5","","-3.1","","57","","0.0","","2","","6","","","","101.91","","","","","","NA"
"-73.74","45.47","MONTREAL/PIERRE ELLIOTT TRUDEAU INTL","702S006","2021-03-23 03:00","2021","03","23","03:00","2.9","","-3.1","","65","","0.0","","15","","2","","","","101.92","","","","","","NA"
"-73.74","45.47","MONTREAL/PIERRE ELLIOTT TRUDEAU INTL","702S006","2021-03-23 04:00","2021","03","23","04:00","3.3","","-3.6","","61","","0.0","","14","","4","","","","101.92","","","","","","NA"
"-73.74","45.47","MONTREAL/PIERRE ELLIOTT TRUDEAU INTL","702S006","2021-03-23 05:00","2021","03","23","05:00","3.7","","-3.6","","59","","0.0","","12","","7","","","","101.96","","","","","","NA"
"-73.74","45.47","MONTREAL/PIERRE ELLIOTT TRUDEAU INTL","702S006","2021-03-23 06:00","2021","03","23","06:00","4.1","","-4.4","","54","","0.0","","13","","5","","","","101.99","","","","","","NA"
"-73.74","45.47","MONTREAL/PIERRE ELLIOTT TRUDEAU INTL","702S006","2021-03-23 07:00","2021","03","23","07:00","5.0","","-3.2","","55","","0.0","","16","","5","","","","102.04","","","","","","NA"
"-73.74","45.47","MONTREAL/PIERRE ELLIOTT TRUDEAU INTL","702S006","2021-03-23 08:00","2021","03","23","08:00","7.6","","-3.4","","46","","0.0","","13","","6","","","","102.03","","","","","","NA"
"-73.74","45.47","MONTREAL/PIERRE ELLIOTT TRUDEAU INTL","702S006","2021-03-23 09:00","2021","03","23","09:00","11.0","","-3.7","","35","","0.0","","17","","5","","","","102.05","","","","","","NA"
"-73.74","45.47","MONTREAL/PIERRE ELLIOTT TRUDEAU INTL","702S006","2021-03-23 10:00","2021","03","23","10:00","13.3","","-3.8","","30","","0.0","","17","","6","","","","102.05","","","","","","NA"
"-73.74","45.47","MONTREAL/PIERRE ELLIOTT TRUDEAU INTL","702S006","2021-03-23 11:00","2021","03","23","11:00","15.1","","-4.9","","25","","0.0","","20","","7","","","","102.01","","","","","","NA"
"-73.74","45.47","MONTREAL/PIERRE ELLIOTT TRUDEAU INTL","702S006","2021-03-23 12:00","2021","03","23","12:00","15.8","","-5.3","","23","","0.0","","23","","8","","","","101.97","","","","","","NA"
"-73.74","45.47","MONTREAL/PIERRE ELLIOTT TRUDEAU INTL","702S006","2021-03-23 13:00","2021","03","23","13:00","16.9","","-4.3","","23","","0.0","","19","","9","","","","101.89","","","","","","NA"
"-73.74","45.47","MONTREAL/PIERRE ELLIOTT TRUDEAU INTL","702S006","2021-03-23 14:00","2021","03","23","14:00","18.4","","-3.2","","23","","0.0","","19","","6","","","","101.82","","","","","","NA"
"-73.74","45.47","MONTREAL/PIERRE ELLIOTT TRUDEAU INTL","702S006","2021-03-23 15:00","2021","03","23","15:00","18.6","","-2.2","","24","","0.0","","13","","7","","","","101.74","","","","","","NA"
"-73.74","45.47","MONTREAL/PIERRE ELLIOTT TRUDEAU INTL","702S006","2021-03-23 16:00","2021","03","23","16:00","19.0","","-3.8","","21","","0.0","","13","","11","","","","101.69","","","","","","NA"
"-73.74","45.47","MONTREAL/PIERRE ELLIOTT TRUDEAU INTL","702S006","2021-03-23 17:00","2021","03","23","17:00","18.4","","-3.9","","22","","0.0","","14","","11","","","","101.69","","","","","","NA"
"-73.74","45.47","MONTREAL/PIERRE ELLIOTT TRUDEAU INTL","702S006","2021-03-23 18:00","2021","03","23","18:00","16.5","","-3.9","","24","","0.0","","13","","10","","","","101.66","","","","","","NA"
"-73.74","45.47","MONTREAL/PIERRE ELLIOTT TRUDEAU INTL","702S006","2021-03-23 19:00","2021","03","23","19:00","16.1","","-3.8","","25","","0.0","","7","","5","","","","101.66","","","","","","NA"
"-73.74","45.47","MONTREAL/PIERRE ELLIOTT TRUDEAU INTL","702S006","2021-03-23 20:00","2021","03","23","20:00","15.2","","-4.3","","26","","0.0","","6","","5","","","","101.64","","","","","","NA"
"-73.74","45.47","MONTREAL/PIERRE ELLIOTT TRUDEAU INTL","702S006","2021-03-23 21:00","2021","03","23","21:00","12.9","","-4.2","","30","","0.0","","11","","5","","","","101.64","","","","","","NA"
"-73.74","45.47","MONTREAL/PIERRE ELLIOTT TRUDEAU INTL","702S006","2021-03-23 22:00","2021","03","23","22:00","10.7","","-3.8","","36","","0.0","","16","","5","","","","101.65","","","","","","NA"
"-73.74","45.47","MONTREAL/PIERRE ELLIOTT TRUDEAU INTL","702S006","2021-03-23 23:00","2021","03","23","23:00","10.0","","-4.0","","37","","0.0","","12","","5","","","","101.61","","","","","","NA"
"-73.74","45.47","MONTREAL/PIERRE ELLIOTT TRUDEAU INTL","702S006","2021-03-24 00:00","2021","03","24","00:00","7.8","","-4.0","","43","","0.0","","14","","8","","","","101.60","","","","","","NA"
"-73.74","45.47","MONTREAL/PIERRE ELLIOTT TRUDEAU INTL","702S006","2021-03-24 01:00","2021","03","24","01:00","5.2","","-2.4","","58","","0.0","","26","","2","","","","101.63","","","","","","NA"
"-73.74","45.47","MONTREAL/PIERRE ELLIOTT TRUDEAU INTL","702S006","2021-03-24 02:00","2021","03","24","02:00","6.0","","-1.9","","57","","0.0","","13","","3","","","","101.65","","","","","","NA"
"-73.74","45.47","MONTREAL/PIERRE ELLIOTT TRUDEAU INTL","702S006","2021-03-24 03:00","2021","03","24","03:00","4.5","","-2.4","","61","","0.0","","16","","2","","","","101.62","","","","","","NA"
"-73.74","45.47","MONTREAL/PIERRE ELLIOTT TRUDEAU INTL","702S006","2021-03-24 04:00","2021","03","24","04:00","4.6","","-2.1","","62","","0.0","","3","","4","","","","101.60","","","","","","NA"
"-73.74","45.47","MONTREAL/PIERRE ELLIOTT TRUDEAU INTL","702S006","2021-03-24 05:00","2021","03","24","05:00","4.4","","-1.8","","64","","0.0","","3","","4","","","","101.63","","","","","","NA"
"-73.74","45.47","MONTREAL/PIERRE ELLIOTT TRUDEAU INTL","702S006","2021-03-24 06:00","2021","03","24","06:00","7.3","","-4.6","","42","","0.0","","10","","7","","","","101.62","","","","","","NA"
"-73.74","45.47","MONTREAL/PIERRE ELLIOTT TRUDEAU INTL","702S006","2021-03-24 07:00","2021","03","24","07:00","7.3","","-2.7","","49","","0.0","","11","","8","","","","101.62","","","","","","NA"
"-73.74","45.47","MONTREAL/PIERRE ELLIOTT TRUDEAU INTL","702S006","2021-03-24 08:00","2021","03","24","08:00","9.2","","-1.6","","47","","0.0","","11","","6","","","","101.61","","","","","","NA"
"-73.74","45.47","MONTREAL/PIERRE ELLIOTT TRUDEAU INTL","702S006","2021-03-24 09:00","2021","03","24","09:00","11.2","","0.2","","47","","0.0","","13","","10","","","","101.58","","","","","","NA"
"-73.74","45.47","MONTREAL/PIERRE ELLIOTT TRUDEAU INTL","702S006","2021-03-24 10:00","2021","03","24","10:00","12.7","","1.9","","48","","0.0","","12","","11","","","","101.55","","","","","","NA"
"-73.74","45.47","MONTREAL/PIERRE ELLIOTT TRUDEAU INTL","702S006","2021-03-24 11:00","2021","03","24","11:00","14.2","","3.2","","47","","0.0","","13","","11","","","","101.51","","","","","","NA"
"-73.74","45.47","MONTREAL/PIERRE ELLIOTT TRUDEAU INTL","702S006","2021-03-24 12:00","2021","03","24","12:00","15.2","","2.9","","44","","0.0","","12","","12","","","","101.43","","","","","","NA"
"-73.74","45.47","MONTREAL/PIERRE ELLIOTT TRUDEAU INTL","702S006","2021-03-24 13:00","2021","03","24","13:00","15.4","","4.4","","48","","0.0","","15","","14","","","","101.39","","","","","","NA"
"-73.74","45.47","MONTREAL/PIERRE ELLIOTT TRUDEAU INTL","702S006","2021-03-24 14:00","2021","03","24","14:00","12.2","","6.8","","69","","0.0","","15","","18","","","","101.39","","","","","","NA"
"-73.74","45.47","MONTREAL/PIERRE ELLIOTT TRUDEAU INTL","702S006","2021-03-24 15:00","2021","03","24","15:00","10.9","","8.4","","84","","0.0","","14","","13","","","","101.37","","","","","","NA"
"-73.74","45.47","MONTREAL/PIERRE ELLIOTT TRUDEAU INTL","702S006","2021-03-24 16:00","2021","03","24","16:00","10.7","","8.6","","86","","0.8","","12","","13","","","","101.29","","","","","","NA"
"-73.74","45.47","MONTREAL/PIERRE ELLIOTT TRUDEAU INTL","702S006","2021-03-24 17:00","2021","03","24","17:00","11.1","","8.4","","84","","0.2","","12","","16","","","","101.19","","","","","","NA"
"-73.74","45.47","MONTREAL/PIERRE ELLIOTT TRUDEAU INTL","702S006","2021-03-24 18:00","2021","03","24","18:00","10.7","","7.6","","81","","0.0","","14","","17","","","","101.16","","","","","","NA"
"-73.74","45.47","MONTREAL/PIERRE ELLIOTT TRUDEAU INTL","702S006","2021-03-24 19:00","2021","03","24","19:00","10.6","","7.6","","82","","0.0","","12","","14","","","","101.11","","","","","","NA"
"-73.74","45.47","MONTREAL/PIERRE ELLIOTT TRUDEAU INTL","702S006","2021-03-24 20:00","2021","03","24","20:00","10.9","","7.3","","78","","0.0","","13","","18","","","","101.11","","","","","","NA"
"-73.74","45.47","MONTREAL/PIERRE ELLIOTT TRUDEAU INTL","702S006","2021-03-24 21:00","2021","03","24","21:00","10.4","","7.2","","80","","0.2","","12","","17","","","","101.08","","","","","","NA"
"-73.74","45.47","MONTREAL/PIERRE ELLIOTT TRUDEAU INTL","702S006","2021-03-24 22:00","2021","03","24","22:00","10.5","","7.0","","79","","0.0","","14","","13","","","","101.01","","","","","","NA"
"-73.74","45.47","MONTREAL/PIERRE ELLIOTT TRUDEAU INTL","702S006","2021-03-24 23:00","2021","03","24","23:00","10.5","","7.1","","79","","0.0","","14","","12","","","","100.97","","","","","","NA"
"-73.74","45.47","MONTREAL/PIERRE ELLIOTT TRUDEAU INTL","702S006","2021-03-25 00:00","2021","03","25","00:00","10.2","","6.8","","79","","0.0","","14","","15","","","","100.92","","","","","","NA"
"-73.74","45.47","MONTREAL/PIERRE ELLIOTT TRUDEAU INTL","702S006","2021-03-25 01:00","2021","03","25","01:00","10.1","","6.9","","81","","0.0","","14","","11","","","","100.91","","","","","","NA"
"-73.74","45.47","MONTREAL/PIERRE ELLIOTT TRUDEAU INTL","702S006","2021-03-25 02:00","2021","03","25","02:00","9.7","","6.8","","82","","0.0","","13","","8","","","","100.89","","","","","","NA"
"-73.74","45.47","MONTREAL/PIERRE ELLIOTT TRUDEAU INTL","702S006","2021-03-25 03:00","2021","03","25","03:00","9.7","","8.1","","90","","2.3","","12","","21","","","","100.74","","","","","","NA"
"-73.74","45.47","MONTREAL/PIERRE ELLIOTT TRUDEAU INTL","702S006","2021-03-25 04:00","2021","03","25","04:00","8.4","","7.4","","93","","0.0","","30","","4","","","","100.83","","","","","","NA"
"-73.74","45.47","MONTREAL/PIERRE ELLIOTT TRUDEAU INTL","702S006","2021-03-25 05:00","2021","03","25","05:00","7.8","","6.7","","93","","0.0","","14","","8","","","","100.82","","","","","","NA"
"-73.74","45.47","MONTREAL/PIERRE ELLIOTT TRUDEAU INTL","702S006","2021-03-25 06:00","2021","03","25","06:00","8.1","","7.4","","95","","0.0","","6","","3","","","","100.85","","","","","","NA"
"-73.74","45.47","MONTREAL/PIERRE ELLIOTT TRUDEAU INTL","702S006","2021-03-25 07:00","2021","03","25","07:00","9.9","","8.3","","90","","0.0","","14","","6","","","","100.86","","","","","","NA"
"-73.74","45.47","MONTREAL/PIERRE ELLIOTT TRUDEAU INTL","702S006","2021-03-25 08:00","2021","03","25","08:00","11.6","","9.1","","85","","0.0","","15","","13","","","","100.86","","","","","","NA"
"-73.74","45.47","MONTREAL/PIERRE ELLIOTT TRUDEAU INTL","702S006","2021-03-25 09:00","2021","03","25","09:00","14.0","","10.1","","78","","0.0","","16","","12","","","","100.83","","","","","","NA"
"-73.74","45.47","MONTREAL/PIERRE ELLIOTT TRUDEAU INTL","702S006","2021-03-25 10:00","2021","03","25","10:00","16.0","","10.7","","70","","0.0","","22","","12","","","","100.86","","","","","","NA"
"-73.74","45.47","MONTREAL/PIERRE ELLIOTT TRUDEAU INTL","702S006","2021-03-25 11:00","2021","03","25","11:00","17.5","","11.0","","66","","0.0","","23","","15","","","","100.87","","","","","","NA"
"-73.74","45.47","MONTREAL/PIERRE ELLIOTT TRUDEAU INTL","702S006","2021-03-25 12:00","2021","03","25","12:00","18.5","","11.3","","63","","0.0","","26","","16","","","","100.87","","","","","","NA"
"-73.74","45.47","MONTREAL/PIERRE ELLIOTT TRUDEAU INTL","702S006","2021-03-25 13:00","2021","03","25","13:00","19.3","","10.8","","58","","0.0","","26","","19","","","","100.86","","","","","","NA"
"-73.74","45.47","MONTREAL/PIERRE ELLIOTT TRUDEAU INTL","702S006","2021-03-25 14:00","2021","03","25","14:00","20.4","","7.4","","43","","0.0","","26","","28","","","","100.80","","","","","","NA"
"-73.74","45.47","MONTREAL/PIERRE ELLIOTT TRUDEAU INTL","702S006","2021-03-25 15:00","2021","03","25","15:00","20.1","","7.4","","44","","0.0","","25","","25","","","","100.81","","","","","","NA"
"-73.74","45.47","MONTREAL/PIERRE ELLIOTT TRUDEAU INTL","702S006","2021-03-25 16:00","2021","03","25","16:00","18.9","","5.8","","42","","0.0","","25","","28","","","","100.79","","","","","","NA"
"-73.74","45.47","MONTREAL/PIERRE ELLIOTT TRUDEAU INTL","702S006","2021-03-25 17:00","2021","03","25","17:00","17.9","","5.5","","44","","0.0","","25","","22","","","","100.81","","","","","","NA"
"-73.74","45.47","MONTREAL/PIERRE ELLIOTT TRUDEAU INTL","702S006","2021-03-25 18:00","2021","03","25","18:00","16.8","","5.6","","48","","0.0","","26","","14","","","","100.82","","","","","","NA"
"-73.74","45.47","MONTREAL/PIERRE ELLIOTT TRUDEAU INTL","702S006","2021-03-25 19:00","2021","03","25","19:00","16.0","","5.5","","50","","0.0","","24","","13","","","","100.82","","","","","","NA"
"-73.74","45.47","MONTREAL/PIERRE ELLIOTT TRUDEAU INTL","702S006","2021-03-25 20:00","2021","03","25","20:00","14.6","","5.4","","54","","0.0","","24","","8","","","","100.80","","","","","","NA"
"-73.74","45.47","MONTREAL/PIERRE ELLIOTT TRUDEAU INTL","702S006","2021-03-25 21:00","2021","03","25","21:00","11.6","","5.0","","64","","0.0","","10","","2","","","","100.77","","","","","","NA"
"-73.74","45.47","MONTREAL/PIERRE ELLIOTT TRUDEAU INTL","702S006","2021-03-25 22:00","2021","03","25","22:00","11.8","","5.8","","66","","0.0","","15","","5","","","","100.72","","","","","","NA"
"-73.74","45.47","MONTREAL/PIERRE ELLIOTT TRUDEAU INTL","702S006","2021-03-25 23:00","2021","03","25","23:00","10.7","","4.7","","66","","0.0","","16","","5","","","","100.68","","","","","","NA"
"-73.74","45.47","MONTREAL/PIERRE ELLIOTT TRUDEAU INTL","702S006","2021-03-26 00:00","2021","03","26","00:00","10.3","","5.7","","73","","0.0","","1","","4","","","","100.62","","","","","","NA"
"-73.74","45.47","MONTREAL/PIERRE ELLIOTT TRUDEAU INTL","702S006","2021-03-26 01:00","2021","03","26","01:00","11.7","","6.1","","68","","0.0","","2","","11","","","","100.53","","","","","","NA"
"-73.74","45.47","MONTREAL/PIERRE ELLIOTT TRUDEAU INTL","702S006","2021-03-26 02:00","2021","03","26","02:00","11.6","","6.3","","70","","0.0","","3","","19","","","","100.48","","","","","","NA"
"-73.74","45.47","MONTREAL/PIERRE ELLIOTT TRUDEAU INTL","702S006","2021-03-26 03:00","2021","03","26","03:00","11.1","","6.3","","72","","0.2","","3","","19","","","","100.44","","","","","","NA"
"-73.74","45.47","MONTREAL/PIERRE ELLIOTT TRUDEAU INTL","702S006","2021-03-26 04:00","2021","03","26","04:00","9.2","","6.7","","84","","1.6","","4","","13","","","","100.40","","","","","","NA"
"-73.74","45.47","MONTREAL/PIERRE ELLIOTT TRUDEAU INTL","702S006","2021-03-26 05:00","2021","03","26","05:00","9.1","","6.3","","82","","0.0","","4","","22","","","","100.26","","","","","","NA"
"-73.74","45.47","MONTREAL/PIERRE ELLIOTT TRUDEAU INTL","702S006","2021-03-26 06:00","2021","03","26","06:00","8.5","","6.0","","85","","0.4","","4","","22","","","","100.15","","","","","","NA"
"-73.74","45.47","MONTREAL/PIERRE ELLIOTT TRUDEAU INTL","702S006","2021-03-26 07:00","2021","03","26","07:00","8.4","","5.8","","83","","0.0","","4","","22","","","","100.06","","","","","","NA"
"-73.74","45.47","MONTREAL/PIERRE ELLIOTT TRUDEAU INTL","702S006","2021-03-26 08:00","2021","03","26","08:00","7.9","","6.2","","89","","0.7","","4","","26","","","","99.81","","","","","","NA"
"-73.74","45.47","MONTREAL/PIERRE ELLIOTT TRUDEAU INTL","702S006","2021-03-26 09:00","2021","03","26","09:00","7.1","","5.8","","92","","1.2","","5","","28","","","","99.60","","","","","","NA"
"-73.74","45.47","MONTREAL/PIERRE ELLIOTT TRUDEAU INTL","702S006","2021-03-26 10:00","2021","03","26","10:00","6.3","","5.6","","95","","5.1","","1","","20","","","","99.58","","","","","","NA"
"-73.74","45.47","MONTREAL/PIERRE ELLIOTT TRUDEAU INTL","702S006","2021-03-26 11:00","2021","03","26","11:00","6.6","","5.6","","93","","3.4","","3","","21","","","","99.38","","","","","","NA"
"-73.74","45.47","MONTREAL/PIERRE ELLIOTT TRUDEAU INTL","702S006","2021-03-26 12:00","2021","03","26","12:00","7.1","","6.2","","94","","1.2","","4","","30","","","","99.23","","","","","","NA"
"-73.74","45.47","MONTREAL/PIERRE ELLIOTT TRUDEAU INTL","702S006","2021-03-26 13:00","2021","03","26","13:00","7.5","","6.4","","93","","2.6","","3","","23","","","","99.27","","","","","","NA"
"-73.74","45.47","MONTREAL/PIERRE ELLIOTT TRUDEAU INTL","702S006","2021-03-26 14:00","2021","03","26","14:00","7.3","","6.1","","92","","0.3","","3","","17","","","","99.26","","","","","","NA"
"-73.74","45.47","MONTREAL/PIERRE ELLIOTT TRUDEAU INTL","702S006","2021-03-26 15:00","2021","03","26","15:00","6.1","","5.1","","93","","0.2","","2","","23","","","","99.36","","","","","","NA"
"-73.74","45.47","MONTREAL/PIERRE ELLIOTT TRUDEAU INTL","702S006","2021-03-26 16:00","2021","03","26","16:00","5.9","","4.9","","93","","0.2","","1","","20","","","","99.46","","","","","","NA"
"-73.74","45.47","MONTREAL/PIERRE ELLIOTT TRUDEAU INTL","702S006","2021-03-26 17:00","2021","03","26","17:00","5.5","","4.5","","93","","0.8","","32","","25","","","","99.69","","","","","","NA"
"-73.74","45.47","MONTREAL/PIERRE ELLIOTT TRUDEAU INTL","702S006","2021-03-26 18:00","2021","03","26","18:00","4.9","","4.2","","95","","0.2","","30","","21","","","","99.98","","","","","","NA"
"-73.74","45.47","MONTREAL/PIERRE ELLIOTT TRUDEAU INTL","702S006","2021-03-26 19:00","2021","03","26","19:00","5.3","","4.5","","95","","0.6","","29","","16","","","","100.21","","","","","","NA"
"-73.74","45.47","MONTREAL/PIERRE ELLIOTT TRUDEAU INTL","702S006","2021-03-26 20:00","2021","03","26","20:00","5.0","","3.6","","91","","0.0","","31","","20","","","","100.46","","","","","","NA"
"-73.74","45.47","MONTREAL/PIERRE ELLIOTT TRUDEAU INTL","702S006","2021-03-26 21:00","2021","03","26","21:00","3.9","","1.8","","87","","0.5","","32","","22","","","","100.66","","","","","","NA"
"-73.74","45.47","MONTREAL/PIERRE ELLIOTT TRUDEAU INTL","702S006","2021-03-26 22:00","2021","03","26","22:00","3.0","","1.8","","92","","1.2","","28","","16","","","","100.80","","","","","","NA"
"-73.74","45.47","MONTREAL/PIERRE ELLIOTT TRUDEAU INTL","702S006","2021-03-26 23:00","2021","03","26","23:00","2.4","","1.3","","93","","0.8","","28","","15","","","","100.93","","","","","","NA"
"-73.74","45.47","MONTREAL/PIERRE ELLIOTT TRUDEAU INTL","702S006","2021-03-27 00:00","2021","03","27","00:00","2.5","","1.3","","92","","0.3","","25","","14","","","","101.02","","","","","","NA"
"-73.74","45.47","MONTREAL/PIERRE ELLIOTT TRUDEAU INTL","702S006","2021-03-27 01:00","2021","03","27","01:00","2.6","","1.0","","89","","0.0","","26","","17","","","","101.13","","","","","","NA"
"-73.74","45.47","MONTREAL/PIERRE ELLIOTT TRUDEAU INTL","702S006","2021-03-27 02:00","2021","03","27","02:00","2.3","","0.5","","88","","0.0","","27","","16","","","","101.18","","","","","","NA"
"-73.74","45.47","MONTREAL/PIERRE ELLIOTT TRUDEAU INTL","702S006","2021-03-27 03:00","2021","03","27","03:00","2.1","","0.3","","88","","0.0","","28","","16","","","","101.25","","","","","","NA"
"-73.74","45.47","MONTREAL/PIERRE ELLIOTT TRUDEAU INTL","702S006","2021-03-27 04:00","2021","03","27","04:00","2.1","","0.5","","89","","0.0","","25","","10","","","","101.32","","","","","","NA"
"-73.74","45.47","MONTREAL/PIERRE ELLIOTT TRUDEAU INTL","702S006","2021-03-27 05:00","2021","03","27","05:00","1.6","","0.2","","91","","0.0","","25","","11","","","","101.35","","","","","","NA"
"-73.74","45.47","MONTREAL/PIERRE ELLIOTT TRUDEAU INTL","702S006","2021-03-27 06:00","2021","03","27","06:00","1.4","","-0.2","","89","","0.0","","26","","15","","","","101.43","","","","","","NA"
"-73.74","45.47","MONTREAL/PIERRE ELLIOTT TRUDEAU INTL","702S006","2021-03-27 07:00","2021","03","27","07:00","1.3","","-0.5","","88","","0.0","","25","","19","","","","101.53","","","","","","NA"
"-73.74","45.47","MONTREAL/PIERRE ELLIOTT TRUDEAU INTL","702S006","2021-03-27 08:00","2021","03","27","08:00","1.3","","-0.7","","86","","0.0","","25","","18","","","","101.62","","","","","","NA"
"-73.74","45.47","MONTREAL/PIERRE ELLIOTT TRUDEAU INTL","702S006","2021-03-27 09:00","2021","03","27","09:00","1.6","","-0.9","","84","","0.0","","25","","17","","","","101.69","","","","","","NA"
"-73.74","45.47","MONTREAL/PIERRE ELLIOTT TRUDEAU INTL","702S006","2021-03-27 10:00","2021","03","27","10:00","1.8","","-0.9","","82","","0.0","","25","","13","","","","101.71","","","","","","NA"
"-73.74","45.47","MONTREAL/PIERRE ELLIOTT TRUDEAU INTL","702S006","2021-03-27 11:00","2021","03","27","11:00","2.1","","-0.5","","83","","0.0","","22","","15","","","","101.72","","","","","","NA"
"-73.74","45.47","MONTREAL/PIERRE ELLIOTT TRUDEAU INTL","702S006","2021-03-27 12:00","2021","03","27","12:00","2.7","","-0.7","","78","","0.0","","24","","12","","","","101.69","","","","","","NA"
"-73.74","45.47","MONTREAL/PIERRE ELLIOTT TRUDEAU INTL","702S006","2021-03-27 13:00","2021","03","27","13:00","3.7","","-1.0","","71","","0.0","","25","","12","","","","101.68","","","","","","NA"
"-73.74","45.47","MONTREAL/PIERRE ELLIOTT TRUDEAU INTL","702S006","2021-03-27 14:00","2021","03","27","14:00","4.6","","-0.9","","67","","0.0","","23","","12","","","","101.68","","","","","","NA"
"-73.74","45.47","MONTREAL/PIERRE ELLIOTT TRUDEAU INTL","702S006","2021-03-27 15:00","2021","03","27","15:00","4.7","","-1.0","","66","","0.0","","22","","14","","","","101.70","","","","","","NA"
"-73.74","45.47","MONTREAL/PIERRE ELLIOTT TRUDEAU INTL","702S006","2021-03-27 16:00","2021","03","27","16:00","4.5","","-1.8","","64","","0.0","","23","","14","","","","101.75","","","","","","NA"
"-73.74","45.47","MONTREAL/PIERRE ELLIOTT TRUDEAU INTL","702S006","2021-03-27 17:00","2021","03","27","17:00","4.4","","-2.1","","63","","0.0","","24","","9","","","","101.77","","","","","","NA"
"-73.74","45.47","MONTREAL/PIERRE ELLIOTT TRUDEAU INTL","702S006","2021-03-27 18:00","2021","03","27","18:00","3.7","","-1.4","","69","","0.0","","22","","9","","","","101.79","","","","","","NA"
"-73.74","45.47","MONTREAL/PIERRE ELLIOTT TRUDEAU INTL","702S006","2021-03-27 19:00","2021","03","27","19:00","3.6","","-2.0","","67","","0.0","","21","","10","","","","101.82","","","","","","NA"
"-73.74","45.47","MONTREAL/PIERRE ELLIOTT TRUDEAU INTL","702S006","2021-03-27 20:00","2021","03","27","20:00","3.1","","-1.5","","72","","0.0","","19","","7","","","","101.81","","","","","","NA"
"-73.74","45.47","MONTREAL/PIERRE ELLIOTT TRUDEAU INTL","702S006","2021-03-27 21:00","2021","03","27","21:00","2.9","","-1.0","","75","","0.0","","13","","5","","","","101.75","","","","","","NA"
"-73.74","45.47","MONTREAL/PIERRE ELLIOTT TRUDEAU INTL","702S006","2021-03-27 22:00","2021","03","27","22:00","3.2","","-1.1","","73","","0.0","","12","","9","","","","101.62","","","","","","NA"
"-73.74","45.47","MONTREAL/PIERRE ELLIOTT TRUDEAU INTL","702S006","2021-03-27 23:00","2021","03","27","23:00","3.2","","-1.4","","72","","0.0","","6","","4","","","","101.60","","","","","","NA"
"-73.74","45.47","MONTREAL/PIERRE ELLIOTT TRUDEAU INTL","702S006","2021-03-28 00:00","2021","03","28","00:00","3.1","","-1.2","","73","","0.0","","8","","11","","","","101.43","","","","","","NA"
"-73.74","45.47","MONTREAL/PIERRE ELLIOTT TRUDEAU INTL","702S006","2021-03-28 01:00","2021","03","28","01:00","3.3","","-1.1","","73","","0.0","","5","","8","","","","101.40","","","","","","NA"
"-73.74","45.47","MONTREAL/PIERRE ELLIOTT TRUDEAU INTL","702S006","2021-03-28 02:00","2021","03","28","02:00","3.3","","-0.7","","75","","0.0","","4","","14","","","","101.27","","","","","","NA"
"-73.74","45.47","MONTREAL/PIERRE ELLIOTT TRUDEAU INTL","702S006","2021-03-28 03:00","2021","03","28","03:00","3.2","","-0.2","","78","","0.0","","4","","16","","","","101.09","","","","","","NA"
"-73.74","45.47","MONTREAL/PIERRE ELLIOTT TRUDEAU INTL","702S006","2021-03-28 04:00","2021","03","28","04:00","2.7","","0.5","","86","","0.0","","4","","17","","","","100.96","","","","","","NA"
"-73.74","45.47","MONTREAL/PIERRE ELLIOTT TRUDEAU INTL","702S006","2021-03-28 05:00","2021","03","28","05:00","2.4","","0.8","","89","","0.0","","4","","19","","","","100.93","","","","","","NA"
"-73.74","45.47","MONTREAL/PIERRE ELLIOTT TRUDEAU INTL","702S006","2021-03-28 06:00","2021","03","28","06:00","2.4","","0.8","","89","","0.0","","4","","15","","","","100.75","","","","","","NA"
"-73.74","45.47","MONTREAL/PIERRE ELLIOTT TRUDEAU INTL","702S006","2021-03-28 07:00","2021","03","28","07:00","3.0","","0.9","","86","","0.0","","4","","13","","","","100.72","","","","","","NA"
"-73.74","45.47","MONTREAL/PIERRE ELLIOTT TRUDEAU INTL","702S006","2021-03-28 08:00","2021","03","28","08:00","4.7","","1.4","","79","","0.0","","9","","14","","","","100.54","","","","","","NA"
"-73.74","45.47","MONTREAL/PIERRE ELLIOTT TRUDEAU INTL","702S006","2021-03-28 09:00","2021","03","28","09:00","5.7","","2.4","","80","","0.0","","11","","20","","","","100.38","","","","","","NA"
"-73.74","45.47","MONTREAL/PIERRE ELLIOTT TRUDEAU INTL","702S006","2021-03-28 10:00","2021","03","28","10:00","8.3","","3.8","","74","","0.0","","12","","21","","","","100.16","","","","","","NA"
"-73.74","45.47","MONTREAL/PIERRE ELLIOTT TRUDEAU INTL","702S006","2021-03-28 11:00","2021","03","28","11:00","8.0","","4.5","","78","","0.0","","14","","27","","","","99.91","","","","","","NA"
"-73.74","45.47","MONTREAL/PIERRE ELLIOTT TRUDEAU INTL","702S006","2021-03-28 12:00","2021","03","28","12:00","7.5","","5.1","","85","","0.6","","15","","39","","","","99.68","","","","","","NA"
"-73.74","45.47","MONTREAL/PIERRE ELLIOTT TRUDEAU INTL","702S006","2021-03-28 13:00","2021","03","28","13:00","7.4","","5.1","","86","","1.4","","14","","31","","","","99.41","","","","","","NA"
"-73.74","45.47","MONTREAL/PIERRE ELLIOTT TRUDEAU INTL","702S006","2021-03-28 14:00","2021","03","28","14:00","7.9","","5.8","","87","","0.0","","15","","33","","","","99.16","","","","","","NA"
"-73.74","45.47","MONTREAL/PIERRE ELLIOTT TRUDEAU INTL","702S006","2021-03-28 15:00","2021","03","28","15:00","8.6","","6.2","","85","","0.0","","14","","30","","","","98.91","","","","","","NA"
"-73.74","45.47","MONTREAL/PIERRE ELLIOTT TRUDEAU INTL","702S006","2021-03-28 16:00","2021","03","28","16:00","8.8","","6.6","","86","","0.3","","16","","34","","","","98.74","","","","","","NA"
"-73.74","45.47","MONTREAL/PIERRE ELLIOTT TRUDEAU INTL","702S006","2021-03-28 17:00","2021","03","28","17:00","8.6","","7.4","","92","","3.3","","16","","28","","","","98.73","","","","","","NA"
"-73.74","45.47","MONTREAL/PIERRE ELLIOTT TRUDEAU INTL","702S006","2021-03-28 18:00","2021","03","28","18:00","9.6","","8.2","","91","","2.2","","18","","28","","","","98.74","","","","","","NA"
"-73.74","45.47","MONTREAL/PIERRE ELLIOTT TRUDEAU INTL","702S006","2021-03-28 19:00","2021","03","28","19:00","9.6","","8.0","","90","","0.2","","21","","22","","","","98.81","","","","","","NA"
"-73.74","45.47","MONTREAL/PIERRE ELLIOTT TRUDEAU INTL","702S006","2021-03-28 20:00","2021","03","28","20:00","9.4","","7.6","","88","","0.0","","22","","28","","","","98.83","","","","","","NA"
"-73.74","45.47","MONTREAL/PIERRE ELLIOTT TRUDEAU INTL","702S006","2021-03-28 21:00","2021","03","28","21:00","7.8","","5.3","","84","","0.0","","23","","33","","","","98.86","","","","","","NA"
"-73.74","45.47","MONTREAL/PIERRE ELLIOTT TRUDEAU INTL","702S006","2021-03-28 22:00","2021","03","28","22:00","7.5","","4.1","","79","","0.0","","22","","29","","","","98.87","","","","","","NA"
"-73.74","45.47","MONTREAL/PIERRE ELLIOTT TRUDEAU INTL","702S006","2021-03-28 23:00","2021","03","28","23:00","6.5","","2.8","","78","","0.3","","24","","26","","","","98.84","","","","","","NA"
"-73.74","45.47","MONTREAL/PIERRE ELLIOTT TRUDEAU INTL","702S006","2021-03-29 00:00","2021","03","29","00:00","5.1","","1.4","","77","","0.0","","25","","39","","","","98.85","","","","","","NA"
"-73.74","45.47","MONTREAL/PIERRE ELLIOTT TRUDEAU INTL","702S006","2021-03-29 01:00","2021","03","29","01:00","4.5","","0.4","","75","","0.2","","24","","29","","","","98.85","","","","","","NA"
"-73.74","45.47","MONTREAL/PIERRE ELLIOTT TRUDEAU INTL","702S006","2021-03-29 02:00","2021","03","29","02:00","3.0","","1.3","","89","","0.0","","24","","24","","","","98.82","","","","","","NA"
"-73.74","45.47","MONTREAL/PIERRE ELLIOTT TRUDEAU INTL","702S006","2021-03-29 03:00","2021","03","29","03:00","2.9","","0.7","","85","","0.3","","27","","33","","","","98.92","","","","","","NA"
"-73.74","45.47","MONTREAL/PIERRE ELLIOTT TRUDEAU INTL","702S006","2021-03-29 04:00","2021","03","29","04:00","1.6","","-2.1","","77","","0.0","","28","","40","","","","99.23","","","","","","NA"
"-73.74","45.47","MONTREAL/PIERRE ELLIOTT TRUDEAU INTL","702S006","2021-03-29 05:00","2021","03","29","05:00","0.7","","-3.7","","72","","0.0","","29","","39","","","","99.51","","","","","","NA"
"-73.74","45.47","MONTREAL/PIERRE ELLIOTT TRUDEAU INTL","702S006","2021-03-29 06:00","2021","03","29","06:00","-0.5","","-6.1","","66","","0.0","","29","","44","","","","99.83","","","","-8","","NA"
"-73.74","45.47","MONTREAL/PIERRE ELLIOTT TRUDEAU INTL","702S006","2021-03-29 07:00","2021","03","29","07:00","-1.3","","-7.2","","64","","0.2","","28","","41","","","","100.14","","","","-9","","NA"
"-73.74","45.47","MONTREAL/PIERRE ELLIOTT TRUDEAU INTL","702S006","2021-03-29 08:00","2021","03","29","08:00","-1.4","","-7.7","","63","","0.0","","28","","39","","","","100.44","","","","-9","","NA"
"-73.74","45.47","MONTREAL/PIERRE ELLIOTT TRUDEAU INTL","702S006","2021-03-29 09:00","2021","03","29","09:00","-1.6","","-8.5","","59","","0.0","","28","","41","","","","100.66","","","","-10","","NA"
"-73.74","45.47","MONTREAL/PIERRE ELLIOTT TRUDEAU INTL","702S006","2021-03-29 10:00","2021","03","29","10:00","-0.4","","-8.0","","57","","0.0","","28","","39","","","","100.85","","","","-8","","NA"
"-73.74","45.47","MONTREAL/PIERRE ELLIOTT TRUDEAU INTL","702S006","2021-03-29 11:00","2021","03","29","11:00","0.3","","-8.4","","52","","0.0","","29","","39","","","","100.94","","","","","","NA"
"-73.74","45.47","MONTREAL/PIERRE ELLIOTT TRUDEAU INTL","702S006","2021-03-29 12:00","2021","03","29","12:00","0.8","","-9.3","","47","","0.0","","28","","40","","","","101.12","","","","","","NA"
"-73.74","45.47","MONTREAL/PIERRE ELLIOTT TRUDEAU INTL","702S006","2021-03-29 13:00","2021","03","29","13:00","0.9","","-9.2","","47","","0.0","","28","","36","","","","101.26","","","","","","NA"
"-73.74","45.47","MONTREAL/PIERRE ELLIOTT TRUDEAU INTL","702S006","2021-03-29 14:00","2021","03","29","14:00","2.3","","-9.3","","42","","0.0","","27","","33","","","","101.33","","","","","","NA"
"-73.74","45.47","MONTREAL/PIERRE ELLIOTT TRUDEAU INTL","702S006","2021-03-29 15:00","2021","03","29","15:00","2.7","","-8.6","","43","","0.0","","27","","31","","","","101.38","","","","","","NA"
"-73.74","45.47","MONTREAL/PIERRE ELLIOTT TRUDEAU INTL","702S006","2021-03-29 16:00","2021","03","29","16:00","3.2","","-9.6","","38","","0.0","","27","","29","","","","101.48","","","","","","NA"
"-73.74","45.47","MONTREAL/PIERRE ELLIOTT TRUDEAU INTL","702S006","2021-03-29 17:00","2021","03","29","17:00","3.1","","-10.3","","37","","0.0","","28","","29","","","","101.57","","","","","","NA"
"-73.74","45.47","MONTREAL/PIERRE ELLIOTT TRUDEAU INTL","702S006","2021-03-29 18:00","2021","03","29","18:00","2.9","","-7.7","","46","","0.0","","27","","21","","","","101.66","","","","","","NA"
"-73.74","45.47","MONTREAL/PIERRE ELLIOTT TRUDEAU INTL","702S006","2021-03-29 19:00","2021","03","29","19:00","2.1","","-8.2","","46","","0.0","","26","","17","","","","101.73","","","","","","NA"
"-73.74","45.47","MONTREAL/PIERRE ELLIOTT TRUDEAU INTL","702S006","2021-03-29 20:00","2021","03","29","20:00","1.9","","-8.7","","45","","0.0","","26","","16","","","","101.86","","","","","","NA"
"-73.74","45.47","MONTREAL/PIERRE ELLIOTT TRUDEAU INTL","702S006","2021-03-29 21:00","2021","03","29","21:00","0.7","","-8.4","","51","","0.0","","30","","10","","","","101.90","","","","","","NA"
"-73.74","45.47","MONTREAL/PIERRE ELLIOTT TRUDEAU INTL","702S006","2021-03-29 22:00","2021","03","29","22:00","0.1","","-8.1","","54","","0.0","","28","","5","","","","101.90","","","","","","NA"
"-73.74","45.47","MONTREAL/PIERRE ELLIOTT TRUDEAU INTL","702S006","2021-03-29 23:00","2021","03","29","23:00","-1.0","","-6.7","","66","","0.0","","19","","7","","","","101.95","","","","-4","","NA"
"-73.74","45.47","MONTREAL/PIERRE ELLIOTT TRUDEAU INTL","702S006","2021-03-30 00:00","2021","03","30","00:00","-0.3","","-5.9","","66","","0.0","","12","","6","","","","101.95","","","","-2","","NA"
"-73.74","45.47","MONTREAL/PIERRE ELLIOTT TRUDEAU INTL","702S006","2021-03-30 01:00","2021","03","30","01:00","-1.9","","-5.5","","76","","0.0","","17","","5","","","","101.99","","","","-4","","NA"
"-73.74","45.47","MONTREAL/PIERRE ELLIOTT TRUDEAU INTL","702S006","2021-03-30 02:00","2021","03","30","02:00","-1.4","","-6.1","","70","","0.0","","15","","5","","","","102.01","","","","-3","","NA"
"-73.74","45.47","MONTREAL/PIERRE ELLIOTT TRUDEAU INTL","702S006","2021-03-30 03:00","2021","03","30","03:00","-2.0","","-6.2","","73","","0.0","","18","","8","","","","102.06","","","","-5","","NA"
"-73.74","45.47","MONTREAL/PIERRE ELLIOTT TRUDEAU INTL","702S006","2021-03-30 04:00","2021","03","30","04:00","-0.4","","-5.5","","68","","0.0","","16","","4","","","","102.09","","","","-2","","NA"
"-73.74","45.47","MONTREAL/PIERRE ELLIOTT TRUDEAU INTL","702S006","2021-03-30 05:00","2021","03","30","05:00","-1.3","","-4.9","","77","","0.0","","15","","11","","","","102.10","","","","-5","","NA"
"-73.74","45.47","MONTREAL/PIERRE ELLIOTT TRUDEAU INTL","702S006","2021-03-30 06:00","2021","03","30","06:00","-0.2","","-4.4","","73","","0.0","","15","","10","","","","102.10","","","","-4","","NA"
"-73.74","45.47","MONTREAL/PIERRE ELLIOTT TRUDEAU INTL","702S006","2021-03-30 07:00","2021","03","30","07:00","1.3","","-4.8","","64","","0.0","","14","","14","","","","102.06","","","","","","NA"
"-73.74","45.47","MONTREAL/PIERRE ELLIOTT TRUDEAU INTL","702S006","2021-03-30 08:00","2021","03","30","08:00","2.7","","-4.4","","59","","0.0","","13","","16","","","","102.03","","","","","","NA"
"-73.74","45.47","MONTREAL/PIERRE ELLIOTT TRUDEAU INTL","702S006","2021-03-30 09:00","2021","03","30","09:00","5.2","","-3.4","","54","","0.0","","12","","15","","","","101.96","","","","","","NA"
"-73.74","45.47","MONTREAL/PIERRE ELLIOTT TRUDEAU INTL","702S006","2021-03-30 10:00","2021","03","30","10:00","7.4","","-4.1","","44","","0.0","","14","","22","","","","101.85","","","","","","NA"
"-73.74","45.47","MONTREAL/PIERRE ELLIOTT TRUDEAU INTL","702S006","2021-03-30 11:00","2021","03","30","11:00","10.1","","-3.3","","39","","0.0","","15","","15","","","","101.76","","","","","","NA"
"-73.74","45.47","MONTREAL/PIERRE ELLIOTT TRUDEAU INTL","702S006","2021-03-30 12:00","2021","03","30","12:00","10.9","","-3.0","","38","","0.0","","14","","23","","","","101.60","","","","","","NA"
"-73.74","45.47","MONTREAL/PIERRE ELLIOTT TRUDEAU INTL","702S006","2021-03-30 13:00","2021","03","30","13:00","13.0","","-1.0","","38","","0.0","","14","","25","","","","101.45","","","","","","NA"
"-73.74","45.47","MONTREAL/PIERRE ELLIOTT TRUDEAU INTL","702S006","2021-03-30 14:00","2021","03","30","14:00","13.3","","-1.0","","37","","0.0","","15","","25","","","","101.35","","","","","","NA"
"-73.74","45.47","MONTREAL/PIERRE ELLIOTT TRUDEAU INTL","702S006","2021-03-30 15:00","2021","03","30","15:00","15.1","","-0.6","","34","","0.0","","15","","26","","","","101.23","","","","","","NA"
"-73.74","45.47","MONTREAL/PIERRE ELLIOTT TRUDEAU INTL","702S006","2021-03-30 16:00","2021","03","30","16:00","15.5","","-0.2","","34","","0.0","","14","","25","","","","101.11","","","","","","NA"
"-73.74","45.47","MONTREAL/PIERRE ELLIOTT TRUDEAU INTL","702S006","2021-03-30 17:00","2021","03","30","17:00","15.1","","-0.4","","35","","0.0","","15","","28","","","","101.06","","","","","","NA"
"-73.74","45.47","MONTREAL/PIERRE ELLIOTT TRUDEAU INTL","702S006","2021-03-30 18:00","2021","03","30","18:00","14.2","","-1.3","","34","","0.0","","16","","24","","","","101.06","","","","","","NA"
"-73.74","45.47","MONTREAL/PIERRE ELLIOTT TRUDEAU INTL","702S006","2021-03-30 19:00","2021","03","30","19:00","13.5","","-1.2","","36","","0.0","","16","","33","","","","101.03","","","","","","NA"
"-73.74","45.47","MONTREAL/PIERRE ELLIOTT TRUDEAU INTL","702S006","2021-03-30 20:00","2021","03","30","20:00","12.9","","-1.0","","38","","0.0","","16","","33","","","","101.05","","","","","","NA"
"-73.74","45.47","MONTREAL/PIERRE ELLIOTT TRUDEAU INTL","702S006","2021-03-30 21:00","2021","03","30","21:00","12.3","","-0.9","","40","","0.0","","15","","28","","","","101.05","","","","","","NA"
"-73.74","45.47","MONTREAL/PIERRE ELLIOTT TRUDEAU INTL","702S006","2021-03-30 22:00","2021","03","30","22:00","11.5","","-0.5","","44","","0.0","","15","","26","","","","101.01","","","","","","NA"
"-73.74","45.47","MONTREAL/PIERRE ELLIOTT TRUDEAU INTL","702S006","2021-03-30 23:00","2021","03","30","23:00","11.1","","-0.2","","46","","0.0","","15","","26","","","","101.02","","","","","","NA"
"-73.74","45.47","MONTREAL/PIERRE ELLIOTT TRUDEAU INTL","702S006","2021-03-31 00:00","2021","03","31","00:00","10.1","","0.2","","50","","0.0","","14","","25","","","","101.03","","","","","","NA"
"-73.74","45.47","MONTREAL/PIERRE ELLIOTT TRUDEAU INTL","702S006","2021-03-31 01:00","2021","03","31","01:00","9.4","","0.6","","54","","0.0","","14","","20","","","","101.03","","","","","","NA"
"-73.74","45.47","MONTREAL/PIERRE ELLIOTT TRUDEAU INTL","702S006","2021-03-31 02:00","2021","03","31","02:00","8.8","","0.8","","57","","0.0","","14","","18","","","","101.02","","","","","","NA"
"-73.74","45.47","MONTREAL/PIERRE ELLIOTT TRUDEAU INTL","702S006","2021-03-31 03:00","2021","03","31","03:00","8.5","","0.8","","58","","0.0","","14","","20","","","","100.92","","","","","","NA"
"-73.74","45.47","MONTREAL/PIERRE ELLIOTT TRUDEAU INTL","702S006","2021-03-31 04:00","2021","03","31","04:00","8.3","","0.9","","59","","0.0","","14","","19","","","","100.85","","","","","","NA"
"-73.74","45.47","MONTREAL/PIERRE ELLIOTT TRUDEAU INTL","702S006","2021-03-31 05:00","2021","03","31","05:00","8.8","","1.0","","58","","0.0","","13","","16","","","","100.83","","","","","","NA"
"-73.74","45.47","MONTREAL/PIERRE ELLIOTT TRUDEAU INTL","702S006","2021-03-31 06:00","2021","03","31","06:00","8.5","","1.5","","61","","0.0","","14","","11","","","","100.89","","","","","","NA"
"-73.74","45.47","MONTREAL/PIERRE ELLIOTT TRUDEAU INTL","702S006","2021-03-31 07:00","2021","03","31","07:00","9.2","","1.8","","60","","0.0","","13","","11","","","","100.86","","","","","","NA"
"-73.74","45.47","MONTREAL/PIERRE ELLIOTT TRUDEAU INTL","702S006","2021-03-31 08:00","2021","03","31","08:00","10.1","","2.4","","59","","0.0","","14","","18","","","","100.84","","","","","","NA"
"-73.74","45.47","MONTREAL/PIERRE ELLIOTT TRUDEAU INTL","702S006","2021-03-31 09:00","2021","03","31","09:00","10.4","","3.3","","61","","0.0","","14","","21","","","","100.73","","","","","","NA"
"-73.74","45.47","MONTREAL/PIERRE ELLIOTT TRUDEAU INTL","702S006","2021-03-31 10:00","2021","03","31","10:00","11.1","","3.6","","60","","0.0","","15","","23","","","","100.65","","","","","","NA"
"-73.74","45.47","MONTREAL/PIERRE ELLIOTT TRUDEAU INTL","702S006","2021-03-31 11:00","2021","03","31","11:00","11.7","","3.9","","59","","0.0","","15","","19","","","","100.56","","","","","","NA"
"-73.74","45.47","MONTREAL/PIERRE ELLIOTT TRUDEAU INTL","702S006","2021-03-31 12:00","2021","03","31","12:00","12.4","","4.5","","59","","0.0","","15","","15","","","","100.51","","","","","","NA"
"-73.74","45.47","MONTREAL/PIERRE ELLIOTT TRUDEAU INTL","702S006","2021-03-31 13:00","2021","03","31","13:00","13.0","","5.2","","59","","0.0","","16","","16","","","","100.54","","","","","","NA"
"-73.74","45.47","MONTREAL/PIERRE ELLIOTT TRUDEAU INTL","702S006","2021-03-31 14:00","2021","03","31","14:00","12.2","","7.4","","72","","0.0","","11","","2","","","","100.51","","","","","","NA"
"-73.74","45.47","MONTREAL/PIERRE ELLIOTT TRUDEAU INTL","702S006","2021-03-31 15:00","2021","03","31","15:00","11.4","","9.5","","88","","0.7","","25","","10","","","","100.53","","","","","","NA"
"-73.74","45.47","MONTREAL/PIERRE ELLIOTT TRUDEAU INTL","702S006","2021-03-31 16:00","2021","03","31","16:00","10.9","","10.1","","94","","1.9","","23","","17","","","","100.53","","","","","","NA"
"-73.74","45.47","MONTREAL/PIERRE ELLIOTT TRUDEAU INTL","702S006","2021-03-31 17:00","2021","03","31","17:00","9.3","","7.8","","91","","0.2","","27","","18","","","","100.64","","","","","","NA"
"-73.74","45.47","MONTREAL/PIERRE ELLIOTT TRUDEAU INTL","702S006","2021-03-31 18:00","2021","03","31","18:00","8.2","","6.9","","91","","0.0","","27","","12","","","","100.76","","","","","","NA"
"-73.74","45.47","MONTREAL/PIERRE ELLIOTT TRUDEAU INTL","702S006","2021-03-31 19:00","2021","03","31","19:00","7.2","","5.4","","88","","0.0","","25","","18","","","","100.88","","","","","","NA"
"-73.74","45.47","MONTREAL/PIERRE ELLIOTT TRUDEAU INTL","702S006","2021-03-31 20:00","2021","03","31","20:00","6.3","","4.0","","85","","0.0","","27","","21","","","","100.99","","","","","","NA"
"-73.74","45.47","MONTREAL/PIERRE ELLIOTT TRUDEAU INTL","702S006","2021-03-31 21:00","2021","03","31","21:00","5.7","","2.5","","80","","0.0","","29","","21","","","","101.02","","","","","","NA"
"-73.74","45.47","MONTREAL/PIERRE ELLIOTT TRUDEAU INTL","702S006","2021-03-31 22:00","2021","03","31","22:00","5.1","","1.2","","76","","0.0","","29","","16","","","","101.09","","","","","","NA"
"-73.74","45.47","MONTREAL/PIERRE ELLIOTT TRUDEAU INTL","702S006","2021-03-31 23:00","2021","03","31","23:00","4.5","","1.0","","78","","0.0","","30","","12","","","","101.10","","","","","","NA"
