"Longitude (x)","Latitude (y)","Station Name","Climate ID","Date/Time (LST)","Year","Month","Day","Time (LST)","Temp (°C)","Temp Flag","Dew Point Temp (°C)","Dew Point Temp Flag","Rel Hum (%)","Rel Hum Flag","Precip. Amount (mm)","Precip. Amount Flag","Wind Dir (10s deg)","Wind Dir Flag","Wind Spd (km/h)","Wind Spd Flag","Visibility (km)","Visibility Flag","Stn Press (kPa)","Stn Press Flag","Hmdx","Hmdx Flag","Wind Chill","Wind Chill Flag","Weather"
"-74.04","45.68","MONTREAL MIRABEL INTL A","7034900","2018-12-01 00:00","2018","12","01","00:00","-1.2","","-3.3","","85","","","","25","","4","","40.2","","100.97","","","","-3","","NA"
"-74.04","45.68","MONTREAL MIRABEL INTL A","7034900","2018-12-01 01:00","2018","12","01","01:00","-1.2","","-3.1","","87","","","","24","","6","","40.2","","101.01","","","","-3","","Cloudy"
"-74.04","45.68","MONTREAL MIRABEL INTL A","7034900","2018-12-01 02:00","2018","12","01","02:00","-0.9","","-3.4","","83","","","","26","","8","","40.2","","101.05","","","","-4","","NA"
"-74.04","45.68","MONTREAL MIRABEL INTL A","7034900","2018-12-01 03:00","2018","12","01","03:00","-1.0","","-3.7","","82","","","","30","","3","","40.2","","101.10","","","","-2","","NA"
"-74.04","45.68","MONTREAL MIRABEL INTL A","7034900","2018-12-01 04:00","2018","12","01","04:00","-1.1","","-3.8","","82","","","","","","0","","40.2","","101.08","","","","","","Cloudy"
"-74.04","45.68","MONTREAL MIRABEL INTL A","7034900","2018-12-01 05:00","2018","12","01","05:00","-1.3","","-3.7","","84","","","","32","","3","","40.2","","101.09","","","","-2","","NA"
"-74.04","45.68","MONTREAL MIRABEL INTL A","7034900","2018-12-01 06:00","2018","12","01","06:00","-1.2","","-3.8","","83","","","","","","0","","40.2","","101.18","","","","","","NA"
"-74.04","45.68","MONTREAL MIRABEL INTL A","7034900","2018-12-01 07:00","2018","12","01","07:00","-1.1","","-3.9","","81","","","","25","","9","","72.4","","101.35","","","","-4","","Cloudy"
"-74.04","45.68","MONTREAL MIRABEL INTL A","7034900","2018-12-01 08:00","2018","12","01","08:00","-1.1","","-4.2","","80","","","","30","","12","","72.4","","101.36","","","","-5","","NA"
"-74.04","45.68","MONTREAL MIRABEL INTL A","7034900","2018-12-01 09:00","2018","12","01","09:00","-1.2","","-4.3","","80","","","","32","","10","","72.4","","101.32","","","","-5","","NA"
"-74.04","45.68","MONTREAL MIRABEL INTL A","7034900","2018-12-01 10:00","2018","12","01","10:00","-1.0","","-4.0","","80","","","","29","","4","","72.4","","101.35","","","","-2","","Cloudy"
"-74.04","45.68","MONTREAL MIRABEL INTL A","7034900","2018-12-01 11:00","2018","12","01","11:00","-0.7","","-3.9","","79","","","","33","","5","","72.4","","101.27","","","","-2","","NA"
"-74.04","45.68","MONTREAL MIRABEL INTL A","7034900","2018-12-01 12:00","2018","12","01","12:00","0.0","","-4.0","","75","","","","10","","4","","72.4","","101.23","","","","-1","","NA"
"-74.04","45.68","MONTREAL MIRABEL INTL A","7034900","2018-12-01 13:00","2018","12","01","13:00","-0.3","","-3.9","","77","","","","17","","11","","72.4","","101.27","","","","-4","","Mostly Cloudy"
"-74.04","45.68","MONTREAL MIRABEL INTL A","7034900","2018-12-01 14:00","2018","12","01","14:00","0.3","","-3.7","","75","","","","18","","7","","72.4","","101.29","","","","","","NA"
"-74.04","45.68","MONTREAL MIRABEL INTL A","7034900","2018-12-01 15:00","2018","12","01","15:00","0.2","","-3.8","","74","","","","18","","7","","72.4","","101.30","","","","","","NA"
"-74.04","45.68","MONTREAL MIRABEL INTL A","7034900","2018-12-01 16:00","2018","12","01","16:00","-1.0","","-4.0","","80","","","","14","","6","","40.2","","101.25","","","","-3","","Mainly Clear"
"-74.04","45.68","MONTREAL MIRABEL INTL A","7034900","2018-12-01 17:00","2018","12","01","17:00","-2.2","","-4.3","","85","","","","11","","8","","40.2","","101.28","","","","-5","","NA"
"-74.04","45.68","MONTREAL MIRABEL INTL A","7034900","2018-12-01 18:00","2018","12","01","18:00","-2.8","","-4.5","","88","","","","11","","9","","40.2","","101.27","","","","-6","","NA"
"-74.04","45.68","MONTREAL MIRABEL INTL A","7034900","2018-12-01 19:00","2018","12","01","19:00","-2.9","","-4.5","","89","","","","7","","3","","40.2","","101.24","","","","-4","","Cloudy"
"-74.04","45.68","MONTREAL MIRABEL INTL A","7034900","2018-12-01 20:00","2018","12","01","20:00","-1.9","","-3.9","","87","","","","7","","8","","40.2","","101.23","","","","-5","","NA"
"-74.04","45.68","MONTREAL MIRABEL INTL A","7034900","2018-12-01 21:00","2018","12","01","21:00","-0.9","","-3.6","","82","","","","10","","11","","40.2","","101.19","","","","-5","","NA"
"-74.04","45.68","MONTREAL MIRABEL INTL A","7034900","2018-12-01 22:00","2018","12","01","22:00","-1.1","","-3.5","","84","","","","6","","11","","40.2","","101.10","","","","-5","","Cloudy"
"-74.04","45.68","MONTREAL MIRABEL INTL A","7034900","2018-12-01 23:00","2018","12","01","23:00","-1.4","","-3.4","","86","","","","6","","11","","40.2","","101.00","","","","-5","","NA"
"-74.04","45.68","MONTREAL MIRABEL INTL A","7034900","2018-12-02 00:00","2018","12","02","00:00","-1.6","","-3.3","","88","","","","6","","11","","40.2","","100.92","","","","-5","","NA"
"-74.04","45.68","MONTREAL MIRABEL INTL A","7034900","2018-12-02 01:00","2018","12","02","01:00","-1.7","","-3.2","","90","","","","6","","13","","32.2","","100.86","","","","-6","","Cloudy"
"-74.04","45.68","MONTREAL MIRABEL INTL A","7034900","2018-12-02 02:00","2018","12","02","02:00","-1.9","","-3.2","","91","","","","6","","18","","32.2","","100.77","","","","-7","","NA"
"-74.04","45.68","MONTREAL MIRABEL INTL A","7034900","2018-12-02 03:00","2018","12","02","03:00","-1.9","","-2.9","","93","","","","5","","14","","4.8","","100.74","","","","-7","","Snow"
"-74.04","45.68","MONTREAL MIRABEL INTL A","7034900","2018-12-02 04:00","2018","12","02","04:00","-2.0","","-2.7","","95","","","","5","","17","","2.4","","100.58","","","","-7","","Snow,Blowing Snow"
"-74.04","45.68","MONTREAL MIRABEL INTL A","7034900","2018-12-02 05:00","2018","12","02","05:00","-2.0","","-2.7","","95","","","","6","","13","","3.2","","100.42","","","","-6","","Snow,Blowing Snow"
"-74.04","45.68","MONTREAL MIRABEL INTL A","7034900","2018-12-02 06:00","2018","12","02","06:00","-1.9","","-2.5","","95","","","","5","","15","","16.1","","100.45","","","","-7","","Snow"
"-74.04","45.68","MONTREAL MIRABEL INTL A","7034900","2018-12-02 07:00","2018","12","02","07:00","-2.0","","-2.6","","96","","","","6","","12","","4.8","","100.27","","","","-6","","Snow,Fog"
"-74.04","45.68","MONTREAL MIRABEL INTL A","7034900","2018-12-02 08:00","2018","12","02","08:00","-1.6","","-2.0","","97","","","","5","","16","","3.2","","100.16","","","","-7","","Freezing Rain,Fog"
"-74.04","45.68","MONTREAL MIRABEL INTL A","7034900","2018-12-02 09:00","2018","12","02","09:00","-1.1","","-1.5","","97","","","","7","","16","","3.2","","99.99","","","","-6","","Freezing Rain,Fog"
"-74.04","45.68","MONTREAL MIRABEL INTL A","7034900","2018-12-02 10:00","2018","12","02","10:00","-0.5","","-0.8","","98","","","","6","","10","","2.8","","99.92","","","","-4","","Freezing Rain,Fog"
"-74.04","45.68","MONTREAL MIRABEL INTL A","7034900","2018-12-02 11:00","2018","12","02","11:00","-0.2","","-0.4","","98","","","","6","","16","","2.4","","99.68","","","","-5","","Freezing Rain,Fog"
"-74.04","45.68","MONTREAL MIRABEL INTL A","7034900","2018-12-02 12:00","2018","12","02","12:00","0.0","","-0.3","","98","","","","6","","13","","3.2","","99.46","","","","-4","","Rain,Drizzle,Fog"
"-74.04","45.68","MONTREAL MIRABEL INTL A","7034900","2018-12-02 13:00","2018","12","02","13:00","0.1","","0.0","","99","","","","6","","14","","4.8","","99.34","","","","","","Rain,Drizzle,Fog"
"-74.04","45.68","MONTREAL MIRABEL INTL A","7034900","2018-12-02 14:00","2018","12","02","14:00","0.3","","0.1","","99","","","","6","","8","","2.8","","99.23","","","","","","Rain,Drizzle,Fog"
"-74.04","45.68","MONTREAL MIRABEL INTL A","7034900","2018-12-02 15:00","2018","12","02","15:00","0.4","","0.2","","99","","","","5","","6","","6.4","","99.18","","","","","","Rain,Fog"
"-74.04","45.68","MONTREAL MIRABEL INTL A","7034900","2018-12-02 16:00","2018","12","02","16:00","0.4","","0.2","","99","","","","4","","8","","4.0","","99.12","","","","","","Drizzle,Fog"
"-74.04","45.68","MONTREAL MIRABEL INTL A","7034900","2018-12-02 17:00","2018","12","02","17:00","0.4","","0.3","","99","","","","1","","3","","2.0","","99.08","","","","","","Drizzle,Fog"
"-74.04","45.68","MONTREAL MIRABEL INTL A","7034900","2018-12-02 18:00","2018","12","02","18:00","0.4","","0.3","","100","","","","5","","9","","2.0","","99.03","","","","","","Drizzle,Fog"
"-74.04","45.68","MONTREAL MIRABEL INTL A","7034900","2018-12-02 19:00","2018","12","02","19:00","0.5","","0.4","","100","","","","1","","8","","1.6","","99.00","","","","","","Drizzle,Fog"
"-74.04","45.68","MONTREAL MIRABEL INTL A","7034900","2018-12-02 20:00","2018","12","02","20:00","0.7","","0.6","","100","","","","36","","6","","1.6","","98.96","","","","","","Drizzle,Fog"
"-74.04","45.68","MONTREAL MIRABEL INTL A","7034900","2018-12-02 21:00","2018","12","02","21:00","0.6","","0.6","","100","","","","3","","4","","3.2","","98.92","","","","","","Drizzle,Fog"
"-74.04","45.68","MONTREAL MIRABEL INTL A","7034900","2018-12-02 22:00","2018","12","02","22:00","0.8","","0.7","","100","","","","36","","7","","3.2","","98.95","","","","","","Drizzle,Fog"
"-74.04","45.68","MONTREAL MIRABEL INTL A","7034900","2018-12-02 23:00","2018","12","02","23:00","0.6","","0.6","","100","","","","4","","3","","16.1","","98.92","","","","","","NA"
"-74.04","45.68","MONTREAL MIRABEL INTL A","7034900","2018-12-03 00:00","2018","12","03","00:00","0.6","","0.6","","100","","","","5","","3","","24.1","","98.88","","","","","","NA"
"-74.04","45.68","MONTREAL MIRABEL INTL A","7034900","2018-12-03 01:00","2018","12","03","01:00","1.0","","0.9","","100","","","","4","","4","","16.1","","98.82","","","","","","Cloudy"
"-74.04","45.68","MONTREAL MIRABEL INTL A","7034900","2018-12-03 02:00","2018","12","03","02:00","0.7","","0.7","","100","","","","7","","5","","1.0","","98.75","","","","","","Drizzle,Fog"
"-74.04","45.68","MONTREAL MIRABEL INTL A","7034900","2018-12-03 03:00","2018","12","03","03:00","0.6","","0.6","","100","","","","4","","4","","1.2","","98.77","","","","","","Drizzle,Fog"
"-74.04","45.68","MONTREAL MIRABEL INTL A","7034900","2018-12-03 04:00","2018","12","03","04:00","0.8","","0.8","","100","","","","5","","5","","1.2","","98.69","","","","","","Drizzle,Fog"
"-74.04","45.68","MONTREAL MIRABEL INTL A","7034900","2018-12-03 05:00","2018","12","03","05:00","0.6","","0.6","","100","","","","2","","8","","1.2","","98.63","","","","","","Drizzle,Fog"
"-74.04","45.68","MONTREAL MIRABEL INTL A","7034900","2018-12-03 06:00","2018","12","03","06:00","0.7","","0.7","","100","","","","2","","7","","1.2","","98.64","","","","","","Drizzle,Fog"
"-74.04","45.68","MONTREAL MIRABEL INTL A","7034900","2018-12-03 07:00","2018","12","03","07:00","0.6","","0.6","","100","","","","","","0","","3.2","","98.65","","","","","","Drizzle,Fog"
"-74.04","45.68","MONTREAL MIRABEL INTL A","7034900","2018-12-03 08:00","2018","12","03","08:00","0.9","","0.9","","100","","","","8","","8","","3.2","","98.70","","","","","","Rain,Fog"
"-74.04","45.68","MONTREAL MIRABEL INTL A","7034900","2018-12-03 09:00","2018","12","03","09:00","1.0","","1.0","","100","","","","7","","5","","4.8","","98.77","","","","","","Rain,Fog"
"-74.04","45.68","MONTREAL MIRABEL INTL A","7034900","2018-12-03 10:00","2018","12","03","10:00","1.0","","1.0","","100","","","","3","","5","","2.4","","98.83","","","","","","Rain,Snow,Fog"
"-74.04","45.68","MONTREAL MIRABEL INTL A","7034900","2018-12-03 11:00","2018","12","03","11:00","0.5","","0.5","","100","","","","5","","8","","4.0","","98.84","","","","","","Snow,Fog"
"-74.04","45.68","MONTREAL MIRABEL INTL A","7034900","2018-12-03 12:00","2018","12","03","12:00","0.2","","0.0","","99","","","","4","","4","","2.4","","98.93","","","","","","Snow,Fog"
"-74.04","45.68","MONTREAL MIRABEL INTL A","7034900","2018-12-03 13:00","2018","12","03","13:00","0.3","","-0.6","","94","","","","34","","9","","8.1","","99.03","","","","","","Snow"
"-74.04","45.68","MONTREAL MIRABEL INTL A","7034900","2018-12-03 14:00","2018","12","03","14:00","0.4","","-3.6","","75","","","","35","","16","","24.1","","99.15","","","","","","NA"
"-74.04","45.68","MONTREAL MIRABEL INTL A","7034900","2018-12-03 15:00","2018","12","03","15:00","-0.1","","-3.8","","76","","","","34","","16","","40.2","","99.29","","","","-5","","Snow"
"-74.04","45.68","MONTREAL MIRABEL INTL A","7034900","2018-12-03 16:00","2018","12","03","16:00","-0.5","","-4.2","","76","","","","34","","13","","32.2","","99.42","","","","-5","","Snow"
"-74.04","45.68","MONTREAL MIRABEL INTL A","7034900","2018-12-03 17:00","2018","12","03","17:00","-0.6","","-4.8","","73","","","","34","","13","","40.2","","99.54","","","","-5","","NA"
"-74.04","45.68","MONTREAL MIRABEL INTL A","7034900","2018-12-03 18:00","2018","12","03","18:00","-0.4","","-4.7","","72","","","","35","","13","","40.2","","99.62","","","","-5","","NA"
"-74.04","45.68","MONTREAL MIRABEL INTL A","7034900","2018-12-03 19:00","2018","12","03","19:00","-0.4","","-4.7","","72","","","","34","","8","","40.2","","99.73","","","","-3","","Cloudy"
"-74.04","45.68","MONTREAL MIRABEL INTL A","7034900","2018-12-03 20:00","2018","12","03","20:00","-1.1","","-4.7","","77","","","","27","","5","","40.2","","99.76","","","","-3","","NA"
"-74.04","45.68","MONTREAL MIRABEL INTL A","7034900","2018-12-03 21:00","2018","12","03","21:00","-1.9","","-4.7","","81","","","","28","","5","","40.2","","99.79","","","","-4","","NA"
"-74.04","45.68","MONTREAL MIRABEL INTL A","7034900","2018-12-03 22:00","2018","12","03","22:00","-0.8","","-5.1","","73","","","","30","","8","","40.2","","99.84","","","","-4","","Mostly Cloudy"
"-74.04","45.68","MONTREAL MIRABEL INTL A","7034900","2018-12-03 23:00","2018","12","03","23:00","-1.5","","-7.0","","66","","","","34","","22","","40.2","","99.92","","","","-7","","NA"
"-74.04","45.68","MONTREAL MIRABEL INTL A","7034900","2018-12-04 00:00","2018","12","04","00:00","-2.7","","-8.7","","64","","","","32","","25","","40.2","","100.01","","","","-9","","NA"
"-74.04","45.68","MONTREAL MIRABEL INTL A","7034900","2018-12-04 01:00","2018","12","04","01:00","-3.5","","-9.7","","62","","","","35","","16","","40.2","","100.07","","","","-9","","Cloudy"
"-74.04","45.68","MONTREAL MIRABEL INTL A","7034900","2018-12-04 02:00","2018","12","04","02:00","-4.2","","-10.4","","62","","","","33","","23","","40.2","","100.16","","","","-11","","NA"
"-74.04","45.68","MONTREAL MIRABEL INTL A","7034900","2018-12-04 03:00","2018","12","04","03:00","-5.3","","-11.8","","61","","","","32","","19","","40.2","","100.25","","","","-12","","NA"
"-74.04","45.68","MONTREAL MIRABEL INTL A","7034900","2018-12-04 04:00","2018","12","04","04:00","-5.3","","-11.5","","62","","","","33","","16","","40.2","","100.32","","","","-11","","Mostly Cloudy"
"-74.04","45.68","MONTREAL MIRABEL INTL A","7034900","2018-12-04 05:00","2018","12","04","05:00","-5.4","","-11.4","","63","","","","31","","12","","40.2","","100.35","","","","-10","","NA"
"-74.04","45.68","MONTREAL MIRABEL INTL A","7034900","2018-12-04 06:00","2018","12","04","06:00","-6.0","","-12.2","","62","","","","34","","15","","40.2","","100.46","","","","-12","","NA"
"-74.04","45.68","MONTREAL MIRABEL INTL A","7034900","2018-12-04 07:00","2018","12","04","07:00","-6.0","","-11.7","","64","","","","33","","13","","40.2","","100.55","","","","-11","","Cloudy"
"-74.04","45.68","MONTREAL MIRABEL INTL A","7034900","2018-12-04 08:00","2018","12","04","08:00","-6.1","","-11.1","","68","","","","29","","8","","72.4","","100.61","","","","-10","","Snow Showers"
"-74.04","45.68","MONTREAL MIRABEL INTL A","7034900","2018-12-04 09:00","2018","12","04","09:00","-5.8","","-10.9","","68","","","","31","","8","","72.4","","100.67","","","","-10","","Snow Showers"
"-74.04","45.68","MONTREAL MIRABEL INTL A","7034900","2018-12-04 10:00","2018","12","04","10:00","-5.7","","-12.5","","59","","","","31","","12","","72.4","","100.68","","","","-11","","Snow Showers"
"-74.04","45.68","MONTREAL MIRABEL INTL A","7034900","2018-12-04 11:00","2018","12","04","11:00","-4.9","","-12.3","","57","","","","32","","13","","72.4","","100.69","","","","-10","","NA"
"-74.04","45.68","MONTREAL MIRABEL INTL A","7034900","2018-12-04 12:00","2018","12","04","12:00","-4.4","","-12.2","","55","","","","28","","10","","72.4","","100.63","","","","-9","","NA"
"-74.04","45.68","MONTREAL MIRABEL INTL A","7034900","2018-12-04 13:00","2018","12","04","13:00","-3.8","","-11.8","","54","","","","27","","9","","72.4","","100.64","","","","-8","","Mainly Clear"
"-74.04","45.68","MONTREAL MIRABEL INTL A","7034900","2018-12-04 14:00","2018","12","04","14:00","-3.6","","-11.5","","54","","","","28","","10","","72.4","","100.63","","","","-8","","NA"
"-74.04","45.68","MONTREAL MIRABEL INTL A","7034900","2018-12-04 15:00","2018","12","04","15:00","-4.2","","-11.1","","59","","","","26","","10","","72.4","","100.65","","","","-8","","NA"
"-74.04","45.68","MONTREAL MIRABEL INTL A","7034900","2018-12-04 16:00","2018","12","04","16:00","-5.1","","-11.7","","60","","","","27","","8","","72.4","","100.68","","","","-9","","Mostly Cloudy"
"-74.04","45.68","MONTREAL MIRABEL INTL A","7034900","2018-12-04 17:00","2018","12","04","17:00","-5.9","","-11.1","","67","","","","24","","7","","40.2","","100.72","","","","-9","","NA"
"-74.04","45.68","MONTREAL MIRABEL INTL A","7034900","2018-12-04 18:00","2018","12","04","18:00","-6.2","","-10.6","","71","","","","25","","8","","40.2","","100.74","","","","-10","","NA"
"-74.04","45.68","MONTREAL MIRABEL INTL A","7034900","2018-12-04 19:00","2018","12","04","19:00","-6.5","","-10.4","","74","","","","28","","7","","40.2","","100.77","","","","-10","","Mostly Cloudy"
"-74.04","45.68","MONTREAL MIRABEL INTL A","7034900","2018-12-04 20:00","2018","12","04","20:00","-6.8","","-10.2","","76","","","","23","","7","","40.2","","100.78","","","","-10","","NA"
"-74.04","45.68","MONTREAL MIRABEL INTL A","7034900","2018-12-04 21:00","2018","12","04","21:00","-6.7","","-10.3","","76","","","","21","","4","","40.2","","100.81","","","","-9","","NA"
"-74.04","45.68","MONTREAL MIRABEL INTL A","7034900","2018-12-04 22:00","2018","12","04","22:00","-6.9","","-9.9","","79","","","","23","","6","","40.2","","100.81","","","","-10","","Cloudy"
"-74.04","45.68","MONTREAL MIRABEL INTL A","7034900","2018-12-04 23:00","2018","12","04","23:00","-6.9","","-10.3","","77","","","","","","0","","40.2","","100.83","","","","","","NA"
"-74.04","45.68","MONTREAL MIRABEL INTL A","7034900","2018-12-05 00:00","2018","12","05","00:00","-8.4","","-10.5","","85","","","","28","","4","","40.2","","100.84","","","","-11","","NA"
"-74.04","45.68","MONTREAL MIRABEL INTL A","7034900","2018-12-05 01:00","2018","12","05","01:00","-8.2","","-9.7","","89","","","","26","","5","","40.2","","100.84","","","","-11","","Mainly Clear"
"-74.04","45.68","MONTREAL MIRABEL INTL A","7034900","2018-12-05 02:00","2018","12","05","02:00","-11.7","","-12.8","","92","","","","","","0","","40.2","","100.88","","","","","","NA"
"-74.04","45.68","MONTREAL MIRABEL INTL A","7034900","2018-12-05 03:00","2018","12","05","03:00","-10.8","","-11.8","","92","","","","34","","3","","40.2","","100.85","","","","-13","","NA"
"-74.04","45.68","MONTREAL MIRABEL INTL A","7034900","2018-12-05 04:00","2018","12","05","04:00","-12.1","","-13.2","","92","","","","","","0","","40.2","","100.81","","","","","","Clear"
"-74.04","45.68","MONTREAL MIRABEL INTL A","7034900","2018-12-05 05:00","2018","12","05","05:00","-12.4","","-13.6","","91","","","","","","0","","40.2","","100.79","","","","","","NA"
"-74.04","45.68","MONTREAL MIRABEL INTL A","7034900","2018-12-05 06:00","2018","12","05","06:00","-12.3","","-13.7","","90","","","","34","","4","","40.2","","100.80","","","","-15","","NA"
"-74.04","45.68","MONTREAL MIRABEL INTL A","7034900","2018-12-05 07:00","2018","12","05","07:00","-11.3","","-12.9","","88","","","","7","","3","","72.4","","100.84","","","","-13","","Mostly Cloudy"
"-74.04","45.68","MONTREAL MIRABEL INTL A","7034900","2018-12-05 08:00","2018","12","05","08:00","-11.0","","-12.6","","88","","","","6","","7","","48.3","","100.89","","","","-15","","NA"
"-74.04","45.68","MONTREAL MIRABEL INTL A","7034900","2018-12-05 09:00","2018","12","05","09:00","-9.8","","-11.9","","85","","","","2","","3","","40.2","","100.90","","","","-12","","Snow"
"-74.04","45.68","MONTREAL MIRABEL INTL A","7034900","2018-12-05 10:00","2018","12","05","10:00","-9.0","","-11.4","","83","","","","7","","9","","24.1","","100.91","","","","-14","","Snow"
"-74.04","45.68","MONTREAL MIRABEL INTL A","7034900","2018-12-05 11:00","2018","12","05","11:00","-8.1","","-10.9","","80","","","","6","","6","","24.1","","100.87","","","","-11","","Snow"
"-74.04","45.68","MONTREAL MIRABEL INTL A","7034900","2018-12-05 12:00","2018","12","05","12:00","-7.4","","-10.1","","81","","","","8","","3","","24.1","","100.83","","","","-9","","Snow"
"-74.04","45.68","MONTREAL MIRABEL INTL A","7034900","2018-12-05 13:00","2018","12","05","13:00","-6.4","","-9.7","","78","","","","10","","4","","24.1","","100.80","","","","-8","","Snow"
"-74.04","45.68","MONTREAL MIRABEL INTL A","7034900","2018-12-05 14:00","2018","12","05","14:00","-6.1","","-9.6","","77","","","","3","","4","","19.3","","100.79","","","","-8","","Snow"
"-74.04","45.68","MONTREAL MIRABEL INTL A","7034900","2018-12-05 15:00","2018","12","05","15:00","-6.0","","-9.1","","79","","","","2","","4","","16.1","","100.78","","","","-8","","Snow"
"-74.04","45.68","MONTREAL MIRABEL INTL A","7034900","2018-12-05 16:00","2018","12","05","16:00","-5.8","","-9.1","","77","","","","","","0","","19.3","","100.80","","","","","","Snow"
"-74.04","45.68","MONTREAL MIRABEL INTL A","7034900","2018-12-05 17:00","2018","12","05","17:00","-6.1","","-8.6","","83","","","","","","0","","24.1","","100.83","","","","","","Snow"
"-74.04","45.68","MONTREAL MIRABEL INTL A","7034900","2018-12-05 18:00","2018","12","05","18:00","-6.1","","-8.3","","85","","","","","","0","","24.1","","100.83","","","","","","Snow"
"-74.04","45.68","MONTREAL MIRABEL INTL A","7034900","2018-12-05 19:00","2018","12","05","19:00","-6.0","","-7.8","","87","","","","7","","3","","19.3","","100.83","","","","-7","","Snow"
"-74.04","45.68","MONTREAL MIRABEL INTL A","7034900","2018-12-05 20:00","2018","12","05","20:00","-6.1","","-7.8","","88","","","","4","","3","","19.3","","100.81","","","","-8","","Snow"
"-74.04","45.68","MONTREAL MIRABEL INTL A","7034900","2018-12-05 21:00","2018","12","05","21:00","-6.0","","-7.6","","88","","","","2","","3","","24.1","","100.79","","","","-7","","Snow"
"-74.04","45.68","MONTREAL MIRABEL INTL A","7034900","2018-12-05 22:00","2018","12","05","22:00","-6.2","","-7.8","","89","","","","4","","6","","24.1","","100.75","","","","-9","","Snow"
"-74.04","45.68","MONTREAL MIRABEL INTL A","7034900","2018-12-05 23:00","2018","12","05","23:00","-6.2","","-7.7","","89","","","","","","0","","24.1","","100.73","","","","","","Snow"
"-74.04","45.68","MONTREAL MIRABEL INTL A","7034900","2018-12-06 00:00","2018","12","06","00:00","-6.2","","-7.6","","90","","","","6","","6","","24.1","","100.69","","","","-9","","Snow"
"-74.04","45.68","MONTREAL MIRABEL INTL A","7034900","2018-12-06 01:00","2018","12","06","01:00","-6.2","","-7.4","","91","","","","","","0","","16.1","","100.68","","","","","","Snow"
"-74.04","45.68","MONTREAL MIRABEL INTL A","7034900","2018-12-06 02:00","2018","12","06","02:00","-6.1","","-7.2","","92","","","","5","","5","","24.1","","100.69","","","","-9","","Snow"
"-74.04","45.68","MONTREAL MIRABEL INTL A","7034900","2018-12-06 03:00","2018","12","06","03:00","-6.0","","-7.1","","92","","","","5","","4","","24.1","","100.67","","","","-8","","Snow"
"-74.04","45.68","MONTREAL MIRABEL INTL A","7034900","2018-12-06 04:00","2018","12","06","04:00","-6.0","","-7.1","","92","","","","4","","4","","24.1","","100.59","","","","-8","","Snow"
"-74.04","45.68","MONTREAL MIRABEL INTL A","7034900","2018-12-06 05:00","2018","12","06","05:00","-6.0","","-7.0","","93","","","","3","","4","","24.1","","100.58","","","","-8","","Snow"
"-74.04","45.68","MONTREAL MIRABEL INTL A","7034900","2018-12-06 06:00","2018","12","06","06:00","-6.0","","-6.9","","93","","","","4","","3","","24.1","","100.57","","","","-7","","Snow"
"-74.04","45.68","MONTREAL MIRABEL INTL A","7034900","2018-12-06 07:00","2018","12","06","07:00","-6.0","","-7.0","","93","","","","","","0","","8.1","","100.56","","","","","","Snow"
"-74.04","45.68","MONTREAL MIRABEL INTL A","7034900","2018-12-06 08:00","2018","12","06","08:00","-5.9","","-6.8","","93","","","","4","","3","","8.1","","100.54","","","","-7","","Snow"
"-74.04","45.68","MONTREAL MIRABEL INTL A","7034900","2018-12-06 09:00","2018","12","06","09:00","-5.5","","-6.7","","92","","","","","","0","","6.4","","100.55","","","","","","Snow"
"-74.04","45.68","MONTREAL MIRABEL INTL A","7034900","2018-12-06 10:00","2018","12","06","10:00","-4.2","","-5.8","","89","","","","","","0","","6.4","","100.54","","","","","","Snow"
"-74.04","45.68","MONTREAL MIRABEL INTL A","7034900","2018-12-06 11:00","2018","12","06","11:00","-3.4","","-4.9","","90","","","","25","","10","","9.7","","100.47","","","","-7","","Snow"
"-74.04","45.68","MONTREAL MIRABEL INTL A","7034900","2018-12-06 12:00","2018","12","06","12:00","-2.7","","-4.1","","90","","","","24","","9","","9.7","","100.41","","","","-6","","Snow"
"-74.04","45.68","MONTREAL MIRABEL INTL A","7034900","2018-12-06 13:00","2018","12","06","13:00","-2.1","","-3.6","","89","","","","25","","9","","16.1","","100.39","","","","-6","","Snow"
"-74.04","45.68","MONTREAL MIRABEL INTL A","7034900","2018-12-06 14:00","2018","12","06","14:00","-0.9","","-3.6","","82","","","","23","","6","","12.9","","100.34","","","","-3","","Snow"
"-74.04","45.68","MONTREAL MIRABEL INTL A","7034900","2018-12-06 15:00","2018","12","06","15:00","-1.2","","-3.9","","82","","","","22","","4","","24.1","","100.34","","","","-3","","Snow"
"-74.04","45.68","MONTREAL MIRABEL INTL A","7034900","2018-12-06 16:00","2018","12","06","16:00","-0.9","","-3.9","","80","","","","22","","8","","9.7","","100.36","","","","-4","","Snow"
"-74.04","45.68","MONTREAL MIRABEL INTL A","7034900","2018-12-06 17:00","2018","12","06","17:00","-1.7","","-2.6","","93","","","","22","","7","","4.0","","100.36","","","","-4","","Snow"
"-74.04","45.68","MONTREAL MIRABEL INTL A","7034900","2018-12-06 18:00","2018","12","06","18:00","-1.8","","-2.4","","96","","","","21","","7","","6.4","","100.36","","","","-4","","Snow"
"-74.04","45.68","MONTREAL MIRABEL INTL A","7034900","2018-12-06 19:00","2018","12","06","19:00","-1.7","","-2.3","","95","","","","23","","4","","12.9","","100.37","","","","-3","","Snow"
"-74.04","45.68","MONTREAL MIRABEL INTL A","7034900","2018-12-06 20:00","2018","12","06","20:00","-1.7","","-2.3","","96","","","","23","","5","","16.1","","100.37","","","","-4","","Snow"
"-74.04","45.68","MONTREAL MIRABEL INTL A","7034900","2018-12-06 21:00","2018","12","06","21:00","-2.4","","-2.9","","96","","","","22","","6","","16.1","","100.36","","","","-5","","Snow"
"-74.04","45.68","MONTREAL MIRABEL INTL A","7034900","2018-12-06 22:00","2018","12","06","22:00","-2.6","","-3.6","","92","","","","21","","16","","24.1","","100.38","","","","-8","","Snow"
"-74.04","45.68","MONTREAL MIRABEL INTL A","7034900","2018-12-06 23:00","2018","12","06","23:00","-2.2","","-4.0","","87","","","","25","","14","","32.2","","100.44","","","","-7","","Snow"
"-74.04","45.68","MONTREAL MIRABEL INTL A","7034900","2018-12-07 00:00","2018","12","07","00:00","-2.4","","-4.2","","88","","","","26","","8","","32.2","","100.49","","","","-6","","Snow"
"-74.04","45.68","MONTREAL MIRABEL INTL A","7034900","2018-12-07 01:00","2018","12","07","01:00","-2.5","","-5.1","","82","","","","26","","8","","40.2","","100.56","","","","-6","","Cloudy"
"-74.04","45.68","MONTREAL MIRABEL INTL A","7034900","2018-12-07 02:00","2018","12","07","02:00","-3.3","","-7.5","","73","","","","29","","10","","40.2","","100.69","","","","-7","","NA"
"-74.04","45.68","MONTREAL MIRABEL INTL A","7034900","2018-12-07 03:00","2018","12","07","03:00","-5.3","","-9.2","","74","","","","29","","13","","40.2","","100.83","","","","-10","","NA"
"-74.04","45.68","MONTREAL MIRABEL INTL A","7034900","2018-12-07 04:00","2018","12","07","04:00","-6.7","","-10.3","","76","","","","28","","14","","40.2","","100.94","","","","-12","","Mainly Clear"
"-74.04","45.68","MONTREAL MIRABEL INTL A","7034900","2018-12-07 05:00","2018","12","07","05:00","-7.9","","-11.7","","75","","","","29","","13","","40.2","","101.08","","","","-14","","NA"
"-74.04","45.68","MONTREAL MIRABEL INTL A","7034900","2018-12-07 06:00","2018","12","07","06:00","-9.4","","-12.9","","76","","","","27","","8","","40.2","","101.24","","","","-14","","NA"
"-74.04","45.68","MONTREAL MIRABEL INTL A","7034900","2018-12-07 07:00","2018","12","07","07:00","-10.1","","-14.1","","72","","","","27","","8","","40.2","","101.38","","","","-15","","Clear"
"-74.04","45.68","MONTREAL MIRABEL INTL A","7034900","2018-12-07 08:00","2018","12","07","08:00","-10.9","","-14.6","","75","","","","26","","13","","40.2","","101.49","","","","-17","","NA"
"-74.04","45.68","MONTREAL MIRABEL INTL A","7034900","2018-12-07 09:00","2018","12","07","09:00","-10.7","","-15.0","","71","","","","25","","10","","72.4","","101.60","","","","-16","","NA"
"-74.04","45.68","MONTREAL MIRABEL INTL A","7034900","2018-12-07 10:00","2018","12","07","10:00","-9.9","","-15.0","","67","","","","25","","12","","72.4","","101.69","","","","-16","","Mainly Clear"
"-74.04","45.68","MONTREAL MIRABEL INTL A","7034900","2018-12-07 11:00","2018","12","07","11:00","-9.5","","-15.2","","63","","","","24","","15","","72.4","","101.71","","","","-16","","NA"
"-74.04","45.68","MONTREAL MIRABEL INTL A","7034900","2018-12-07 12:00","2018","12","07","12:00","-8.7","","-16.0","","56","","","","26","","16","","72.4","","101.72","","","","-15","","NA"
"-74.04","45.68","MONTREAL MIRABEL INTL A","7034900","2018-12-07 13:00","2018","12","07","13:00","-8.6","","-16.2","","54","","","","25","","13","","72.4","","101.75","","","","-15","","Clear"
"-74.04","45.68","MONTREAL MIRABEL INTL A","7034900","2018-12-07 14:00","2018","12","07","14:00","-9.2","","-15.4","","61","","","","24","","14","","72.4","","101.79","","","","-16","","NA"
"-74.04","45.68","MONTREAL MIRABEL INTL A","7034900","2018-12-07 15:00","2018","12","07","15:00","-9.6","","-15.2","","64","","","","25","","10","","72.4","","101.83","","","","-15","","NA"
"-74.04","45.68","MONTREAL MIRABEL INTL A","7034900","2018-12-07 16:00","2018","12","07","16:00","-10.7","","-17.7","","57","","","","28","","6","","72.4","","101.90","","","","-14","","Mostly Cloudy"
"-74.04","45.68","MONTREAL MIRABEL INTL A","7034900","2018-12-07 17:00","2018","12","07","17:00","-11.2","","-18.4","","56","","","","29","","8","","40.2","","101.97","","","","-16","","NA"
"-74.04","45.68","MONTREAL MIRABEL INTL A","7034900","2018-12-07 18:00","2018","12","07","18:00","-12.2","","-18.5","","60","","","","29","","7","","40.2","","102.03","","","","-17","","NA"
"-74.04","45.68","MONTREAL MIRABEL INTL A","7034900","2018-12-07 19:00","2018","12","07","19:00","-13.3","","-18.8","","64","","","","30","","5","","40.2","","102.08","","","","-17","","Mostly Cloudy"
"-74.04","45.68","MONTREAL MIRABEL INTL A","7034900","2018-12-07 20:00","2018","12","07","20:00","-13.9","","-18.9","","67","","","","28","","8","","40.2","","102.08","","","","-19","","NA"
"-74.04","45.68","MONTREAL MIRABEL INTL A","7034900","2018-12-07 21:00","2018","12","07","21:00","-15.0","","-19.4","","70","","","","27","","5","","40.2","","102.09","","","","-19","","NA"
"-74.04","45.68","MONTREAL MIRABEL INTL A","7034900","2018-12-07 22:00","2018","12","07","22:00","-15.8","","-19.7","","72","","","","30","","6","","40.2","","102.08","","","","-20","","Clear"
"-74.04","45.68","MONTREAL MIRABEL INTL A","7034900","2018-12-07 23:00","2018","12","07","23:00","-17.6","","-20.4","","79","","","","23","","3","","40.2","","102.11","","","","-20","","NA"
"-74.04","45.68","MONTREAL MIRABEL INTL A","7034900","2018-12-08 00:00","2018","12","08","00:00","-19.5","","-21.4","","85","","","","26","","5","","40.2","","102.15","","","","-24","","NA"
"-74.04","45.68","MONTREAL MIRABEL INTL A","7034900","2018-12-08 01:00","2018","12","08","01:00","-19.6","","-21.7","","84","","","","","","0","","40.2","","102.10","","","","","","Clear"
"-74.04","45.68","MONTREAL MIRABEL INTL A","7034900","2018-12-08 02:00","2018","12","08","02:00","-19.8","","-21.8","","84","","","","","","0","","40.2","","102.10","","","","","","NA"
"-74.04","45.68","MONTREAL MIRABEL INTL A","7034900","2018-12-08 03:00","2018","12","08","03:00","-20.5","","-22.5","","85","","","","29","","4","","40.2","","102.11","","","","-24","","NA"
"-74.04","45.68","MONTREAL MIRABEL INTL A","7034900","2018-12-08 04:00","2018","12","08","04:00","-20.9","","-22.9","","85","","","","","","0","","40.2","","102.09","","","","","","Clear"
"-74.04","45.68","MONTREAL MIRABEL INTL A","7034900","2018-12-08 05:00","2018","12","08","05:00","-21.3","","-23.4","","83","","","","","","0","","40.2","","102.05","","","","","","NA"
"-74.04","45.68","MONTREAL MIRABEL INTL A","7034900","2018-12-08 06:00","2018","12","08","06:00","-21.5","","-23.7","","83","","","","","","0","","40.2","","102.06","","","","","","NA"
"-74.04","45.68","MONTREAL MIRABEL INTL A","7034900","2018-12-08 07:00","2018","12","08","07:00","-22.1","","-24.4","","82","","","","32","","3","","40.2","","102.12","","","","-25","","Mainly Clear"
"-74.04","45.68","MONTREAL MIRABEL INTL A","7034900","2018-12-08 08:00","2018","12","08","08:00","-22.0","","-24.1","","83","","","","25","","3","","40.2","","102.16","","","","-25","","NA"
"-74.04","45.68","MONTREAL MIRABEL INTL A","7034900","2018-12-08 09:00","2018","12","08","09:00","-19.3","","-21.9","","80","","","","","","0","","40.2","","102.16","","","","","","NA"
"-74.04","45.68","MONTREAL MIRABEL INTL A","7034900","2018-12-08 10:00","2018","12","08","10:00","-16.8","","-20.1","","76","","","","28","","7","","40.2","","102.26","","","","-22","","Mostly Cloudy"
"-74.04","45.68","MONTREAL MIRABEL INTL A","7034900","2018-12-08 11:00","2018","12","08","11:00","-14.5","","-20.0","","64","","","","22","","6","","48.3","","102.20","","","","-19","","NA"
"-74.04","45.68","MONTREAL MIRABEL INTL A","7034900","2018-12-08 12:00","2018","12","08","12:00","-12.8","","-18.3","","64","","","","24","","12","","48.3","","102.12","","","","-19","","NA"
"-74.04","45.68","MONTREAL MIRABEL INTL A","7034900","2018-12-08 13:00","2018","12","08","13:00","-11.0","","-17.6","","59","","","","21","","10","","72.4","","102.05","","","","-16","","Mostly Cloudy"
"-74.04","45.68","MONTREAL MIRABEL INTL A","7034900","2018-12-08 14:00","2018","12","08","14:00","-11.0","","-17.2","","61","","","","22","","9","","72.4","","102.02","","","","-16","","NA"
"-74.04","45.68","MONTREAL MIRABEL INTL A","7034900","2018-12-08 15:00","2018","12","08","15:00","-11.1","","-15.3","","71","","","","23","","9","","8.1","","101.99","","","","-16","","Snow"
"-74.04","45.68","MONTREAL MIRABEL INTL A","7034900","2018-12-08 16:00","2018","12","08","16:00","-11.2","","-14.7","","76","","","","24","","7","","6.4","","101.99","","","","-15","","Snow"
"-74.04","45.68","MONTREAL MIRABEL INTL A","7034900","2018-12-08 17:00","2018","12","08","17:00","-11.5","","-14.0","","82","","","","23","","7","","12.9","","102.00","","","","-16","","Snow"
"-74.04","45.68","MONTREAL MIRABEL INTL A","7034900","2018-12-08 18:00","2018","12","08","18:00","-11.7","","-13.6","","86","","","","24","","4","","16.1","","102.02","","","","-14","","Snow"
"-74.04","45.68","MONTREAL MIRABEL INTL A","7034900","2018-12-08 19:00","2018","12","08","19:00","-12.5","","-14.0","","89","","","","25","","4","","24.1","","102.05","","","","-15","","Snow"
"-74.04","45.68","MONTREAL MIRABEL INTL A","7034900","2018-12-08 20:00","2018","12","08","20:00","-12.3","","-14.0","","87","","","","25","","7","","40.2","","102.11","","","","-17","","NA"
"-74.04","45.68","MONTREAL MIRABEL INTL A","7034900","2018-12-08 21:00","2018","12","08","21:00","-12.1","","-13.8","","87","","","","25","","8","","40.2","","102.09","","","","-17","","NA"
"-74.04","45.68","MONTREAL MIRABEL INTL A","7034900","2018-12-08 22:00","2018","12","08","22:00","-14.4","","-16.1","","87","","","","","","0","","40.2","","102.09","","","","","","Mainly Clear"
"-74.04","45.68","MONTREAL MIRABEL INTL A","7034900","2018-12-08 23:00","2018","12","08","23:00","-14.8","","-15.9","","91","","","","25","","5","","40.2","","102.09","","","","-18","","NA"
"-74.04","45.68","MONTREAL MIRABEL INTL A","7034900","2018-12-09 00:00","2018","12","09","00:00","-14.8","","-15.9","","92","","","","27","","8","","40.2","","102.07","","","","-20","","NA"
"-74.04","45.68","MONTREAL MIRABEL INTL A","7034900","2018-12-09 01:00","2018","12","09","01:00","-16.3","","-17.9","","88","","","","26","","3","","40.2","","102.02","","","","-19","","Clear"
"-74.04","45.68","MONTREAL MIRABEL INTL A","7034900","2018-12-09 02:00","2018","12","09","02:00","-16.9","","-18.3","","89","","","","","","0","","40.2","","102.03","","","","","","NA"
"-74.04","45.68","MONTREAL MIRABEL INTL A","7034900","2018-12-09 03:00","2018","12","09","03:00","-17.6","","-19.1","","88","","","","","","0","","40.2","","101.96","","","","","","NA"
"-74.04","45.68","MONTREAL MIRABEL INTL A","7034900","2018-12-09 04:00","2018","12","09","04:00","-18.2","","-19.8","","88","","","","19","","4","","16.1","","101.89","","","","-21","","Mainly Clear"
"-74.04","45.68","MONTREAL MIRABEL INTL A","7034900","2018-12-09 05:00","2018","12","09","05:00","-16.4","","-18.1","","87","","","","11","","4","","19.3","","101.76","","","","-19","","NA"
"-74.04","45.68","MONTREAL MIRABEL INTL A","7034900","2018-12-09 06:00","2018","12","09","06:00","-15.1","","-16.8","","87","","","","36","","5","","4.0","","101.69","","","","-19","","Snow,Fog"
"-74.04","45.68","MONTREAL MIRABEL INTL A","7034900","2018-12-09 07:00","2018","12","09","07:00","-14.2","","-15.8","","88","","","","1","","4","","4.0","","101.59","","","","-17","","Snow,Fog"
"-74.04","45.68","MONTREAL MIRABEL INTL A","7034900","2018-12-09 08:00","2018","12","09","08:00","-13.1","","-14.5","","90","","","","2","","4","","8.1","","101.51","","","","-16","","Fog"
"-74.04","45.68","MONTREAL MIRABEL INTL A","7034900","2018-12-09 09:00","2018","12","09","09:00","-12.6","","-14.1","","89","","","","5","","3","","8.1","","101.44","","","","-15","","Snow,Fog"
"-74.04","45.68","MONTREAL MIRABEL INTL A","7034900","2018-12-09 10:00","2018","12","09","10:00","-11.6","","-13.0","","89","","","","","","0","","12.9","","101.34","","","","","","Snow"
"-74.04","45.68","MONTREAL MIRABEL INTL A","7034900","2018-12-09 11:00","2018","12","09","11:00","-9.1","","-10.2","","92","","","","26","","7","","12.9","","101.19","","","","-13","","Snow"
"-74.04","45.68","MONTREAL MIRABEL INTL A","7034900","2018-12-09 12:00","2018","12","09","12:00","-6.6","","-8.1","","89","","","","22","","9","","16.1","","101.06","","","","-11","","Snow"
"-74.04","45.68","MONTREAL MIRABEL INTL A","7034900","2018-12-09 13:00","2018","12","09","13:00","-2.5","","-6.8","","73","","","","24","","18","","40.2","","100.94","","","","-8","","Cloudy"
"-74.04","45.68","MONTREAL MIRABEL INTL A","7034900","2018-12-09 14:00","2018","12","09","14:00","-1.6","","-6.4","","70","","","","24","","22","","40.2","","100.89","","","","-8","","Blowing Snow"
"-74.04","45.68","MONTREAL MIRABEL INTL A","7034900","2018-12-09 15:00","2018","12","09","15:00","-1.6","","-6.2","","71","","","","24","","22","","8.1","","100.86","","","","-8","","Snow,Blowing Snow"
"-74.04","45.68","MONTREAL MIRABEL INTL A","7034900","2018-12-09 16:00","2018","12","09","16:00","-1.7","","-6.5","","70","","","","23","","17","","19.3","","100.87","","","","-7","","Snow,Blowing Snow"
"-74.04","45.68","MONTREAL MIRABEL INTL A","7034900","2018-12-09 17:00","2018","12","09","17:00","-1.5","","-6.8","","67","","","","25","","19","","40.2","","100.86","","","","-7","","Blowing Snow"
"-74.04","45.68","MONTREAL MIRABEL INTL A","7034900","2018-12-09 18:00","2018","12","09","18:00","-1.5","","-6.3","","70","","","","25","","20","","40.2","","100.85","","","","-7","","Blowing Snow"
"-74.04","45.68","MONTREAL MIRABEL INTL A","7034900","2018-12-09 19:00","2018","12","09","19:00","-1.9","","-5.5","","77","","","","25","","17","","24.1","","100.86","","","","-7","","Snow,Blowing Snow"
"-74.04","45.68","MONTREAL MIRABEL INTL A","7034900","2018-12-09 20:00","2018","12","09","20:00","-2.4","","-5.7","","78","","","","25","","13","","40.2","","100.85","","","","-7","","NA"
"-74.04","45.68","MONTREAL MIRABEL INTL A","7034900","2018-12-09 21:00","2018","12","09","21:00","-2.3","","-5.7","","78","","","","24","","12","","40.2","","100.89","","","","-7","","NA"
"-74.04","45.68","MONTREAL MIRABEL INTL A","7034900","2018-12-09 22:00","2018","12","09","22:00","-2.9","","-4.8","","87","","","","30","","8","","24.1","","100.97","","","","-6","","Snow Showers"
"-74.04","45.68","MONTREAL MIRABEL INTL A","7034900","2018-12-09 23:00","2018","12","09","23:00","-3.4","","-9.2","","64","","","","32","","13","","40.2","","101.01","","","","-8","","Snow Showers"
"-74.04","45.68","MONTREAL MIRABEL INTL A","7034900","2018-12-10 00:00","2018","12","10","00:00","-5.4","","-9.8","","71","","","","33","","9","","40.2","","101.05","","","","-9","","NA"
"-74.04","45.68","MONTREAL MIRABEL INTL A","7034900","2018-12-10 01:00","2018","12","10","01:00","-6.5","","-10.1","","76","","","","33","","6","","40.2","","101.05","","","","-9","","Mainly Clear"
"-74.04","45.68","MONTREAL MIRABEL INTL A","7034900","2018-12-10 02:00","2018","12","10","02:00","-6.8","","-11.0","","72","","","","34","","12","","40.2","","101.12","","","","-12","","NA"
"-74.04","45.68","MONTREAL MIRABEL INTL A","7034900","2018-12-10 03:00","2018","12","10","03:00","-8.5","","-12.3","","74","","","","31","","7","","40.2","","101.18","","","","-12","","NA"
"-74.04","45.68","MONTREAL MIRABEL INTL A","7034900","2018-12-10 04:00","2018","12","10","04:00","-10.5","","-13.1","","81","","","","29","","7","","40.2","","101.17","","","","-15","","Mostly Cloudy"
"-74.04","45.68","MONTREAL MIRABEL INTL A","7034900","2018-12-10 05:00","2018","12","10","05:00","-10.2","","-13.4","","77","","","","33","","11","","40.2","","101.18","","","","-16","","NA"
"-74.04","45.68","MONTREAL MIRABEL INTL A","7034900","2018-12-10 06:00","2018","12","10","06:00","-10.3","","-13.0","","81","","","","3","","4","","40.2","","101.25","","","","-13","","NA"
"-74.04","45.68","MONTREAL MIRABEL INTL A","7034900","2018-12-10 07:00","2018","12","10","07:00","-9.0","","-14.5","","65","","","","36","","10","","72.4","","101.29","","","","-14","","Mostly Cloudy"
"-74.04","45.68","MONTREAL MIRABEL INTL A","7034900","2018-12-10 08:00","2018","12","10","08:00","-11.0","","-15.2","","71","","","","36","","4","","72.4","","101.33","","","","-13","","NA"
"-74.04","45.68","MONTREAL MIRABEL INTL A","7034900","2018-12-10 09:00","2018","12","10","09:00","-10.1","","-15.2","","67","","","","35","","6","","72.4","","101.39","","","","-14","","NA"
"-74.04","45.68","MONTREAL MIRABEL INTL A","7034900","2018-12-10 10:00","2018","12","10","10:00","-8.6","","-15.6","","57","","","","4","","7","","72.4","","101.44","","","","-12","","Mostly Cloudy"
"-74.04","45.68","MONTREAL MIRABEL INTL A","7034900","2018-12-10 11:00","2018","12","10","11:00","-8.2","","-15.2","","58","","","","2","","6","","72.4","","101.41","","","","-11","","NA"
"-74.04","45.68","MONTREAL MIRABEL INTL A","7034900","2018-12-10 12:00","2018","12","10","12:00","-8.0","","-15.2","","56","","","","7","","5","","72.4","","101.38","","","","-11","","NA"
"-74.04","45.68","MONTREAL MIRABEL INTL A","7034900","2018-12-10 13:00","2018","12","10","13:00","-6.8","","-13.9","","58","","","","23","","10","","72.4","","101.35","","","","-11","","Mainly Clear"
"-74.04","45.68","MONTREAL MIRABEL INTL A","7034900","2018-12-10 14:00","2018","12","10","14:00","-7.0","","-14.2","","57","","","","22","","15","","72.4","","101.32","","","","-13","","NA"
"-74.04","45.68","MONTREAL MIRABEL INTL A","7034900","2018-12-10 15:00","2018","12","10","15:00","-7.2","","-14.2","","58","","","","24","","12","","72.4","","101.34","","","","-13","","NA"
"-74.04","45.68","MONTREAL MIRABEL INTL A","7034900","2018-12-10 16:00","2018","12","10","16:00","-8.2","","-14.3","","62","","","","21","","8","","64.4","","101.34","","","","-12","","Mainly Clear"
"-74.04","45.68","MONTREAL MIRABEL INTL A","7034900","2018-12-10 17:00","2018","12","10","17:00","-9.6","","-14.9","","65","","","","21","","9","","40.2","","101.39","","","","-14","","NA"
"-74.04","45.68","MONTREAL MIRABEL INTL A","7034900","2018-12-10 18:00","2018","12","10","18:00","-10.6","","-15.2","","69","","","","28","","5","","40.2","","101.37","","","","-14","","NA"
"-74.04","45.68","MONTREAL MIRABEL INTL A","7034900","2018-12-10 19:00","2018","12","10","19:00","-11.1","","-14.7","","75","","","","1","","4","","40.2","","101.37","","","","-14","","Mainly Clear"
"-74.04","45.68","MONTREAL MIRABEL INTL A","7034900","2018-12-10 20:00","2018","12","10","20:00","-13.0","","-15.1","","85","","","","32","","4","","40.2","","101.37","","","","-16","","NA"
"-74.04","45.68","MONTREAL MIRABEL INTL A","7034900","2018-12-10 21:00","2018","12","10","21:00","-13.7","","-15.5","","87","","","","36","","4","","40.2","","101.33","","","","-16","","NA"
"-74.04","45.68","MONTREAL MIRABEL INTL A","7034900","2018-12-10 22:00","2018","12","10","22:00","-13.9","","-15.4","","89","","","","36","","6","","40.2","","101.34","","","","-18","","Mainly Clear"
"-74.04","45.68","MONTREAL MIRABEL INTL A","7034900","2018-12-10 23:00","2018","12","10","23:00","-14.2","","-16.0","","86","","","","2","","6","","40.2","","101.29","","","","-18","","NA"
"-74.04","45.68","MONTREAL MIRABEL INTL A","7034900","2018-12-11 00:00","2018","12","11","00:00","-15.1","","-16.8","","87","","","","3","","5","","40.2","","101.27","","","","-19","","NA"
"-74.04","45.68","MONTREAL MIRABEL INTL A","7034900","2018-12-11 01:00","2018","12","11","01:00","-14.9","","-16.5","","87","","","","1","","4","","40.2","","101.22","","","","-18","","Mostly Cloudy"
"-74.04","45.68","MONTREAL MIRABEL INTL A","7034900","2018-12-11 02:00","2018","12","11","02:00","-15.1","","-16.7","","88","","","","35","","5","","40.2","","101.24","","","","-19","","NA"
"-74.04","45.68","MONTREAL MIRABEL INTL A","7034900","2018-12-11 03:00","2018","12","11","03:00","-14.3","","-16.1","","86","","","","1","","7","","40.2","","101.20","","","","-19","","NA"
"-74.04","45.68","MONTREAL MIRABEL INTL A","7034900","2018-12-11 04:00","2018","12","11","04:00","-14.3","","-16.4","","84","","","","3","","5","","40.2","","101.13","","","","-18","","Cloudy"
"-74.04","45.68","MONTREAL MIRABEL INTL A","7034900","2018-12-11 05:00","2018","12","11","05:00","-13.8","","-15.8","","84","","","","5","","6","","40.2","","101.09","","","","-18","","NA"
"-74.04","45.68","MONTREAL MIRABEL INTL A","7034900","2018-12-11 06:00","2018","12","11","06:00","-13.1","","-15.3","","84","","","","5","","8","","40.2","","101.08","","","","-18","","NA"
"-74.04","45.68","MONTREAL MIRABEL INTL A","7034900","2018-12-11 07:00","2018","12","11","07:00","-12.1","","-14.7","","81","","","","5","","9","","19.3","","101.04","","","","-17","","Cloudy"
"-74.04","45.68","MONTREAL MIRABEL INTL A","7034900","2018-12-11 08:00","2018","12","11","08:00","-12.1","","-14.1","","85","","","","5","","9","","16.1","","101.03","","","","-17","","Snow"
"-74.04","45.68","MONTREAL MIRABEL INTL A","7034900","2018-12-11 09:00","2018","12","11","09:00","-11.8","","-13.8","","85","","","","4","","7","","4.8","","101.01","","","","-16","","Snow"
"-74.04","45.68","MONTREAL MIRABEL INTL A","7034900","2018-12-11 10:00","2018","12","11","10:00","-11.4","","-13.4","","85","","","","5","","8","","6.4","","101.00","","","","-16","","Snow"
"-74.04","45.68","MONTREAL MIRABEL INTL A","7034900","2018-12-11 11:00","2018","12","11","11:00","-10.8","","-13.0","","84","","","","5","","9","","8.1","","100.88","","","","-16","","Snow"
"-74.04","45.68","MONTREAL MIRABEL INTL A","7034900","2018-12-11 12:00","2018","12","11","12:00","-10.3","","-12.4","","84","","","","5","","10","","6.4","","100.75","","","","-16","","Snow"
"-74.04","45.68","MONTREAL MIRABEL INTL A","7034900","2018-12-11 13:00","2018","12","11","13:00","-10.0","","-12.0","","85","","","","5","","8","","3.2","","100.65","","","","-14","","Snow"
"-74.04","45.68","MONTREAL MIRABEL INTL A","7034900","2018-12-11 14:00","2018","12","11","14:00","-9.8","","-11.6","","87","","","","5","","11","","3.2","","100.60","","","","-15","","Snow"
"-74.04","45.68","MONTREAL MIRABEL INTL A","7034900","2018-12-11 15:00","2018","12","11","15:00","-9.7","","-11.6","","87","","","","5","","9","","4.8","","100.58","","","","-15","","Snow"
"-74.04","45.68","MONTREAL MIRABEL INTL A","7034900","2018-12-11 16:00","2018","12","11","16:00","-9.6","","-11.2","","88","","","","5","","7","","4.8","","100.56","","","","-14","","Snow"
"-74.04","45.68","MONTREAL MIRABEL INTL A","7034900","2018-12-11 17:00","2018","12","11","17:00","-9.3","","-10.8","","88","","","","6","","5","","4.8","","100.57","","","","-12","","Snow"
"-74.04","45.68","MONTREAL MIRABEL INTL A","7034900","2018-12-11 18:00","2018","12","11","18:00","-9.2","","-10.8","","88","","","","4","","8","","4.8","","100.58","","","","-14","","Snow"
"-74.04","45.68","MONTREAL MIRABEL INTL A","7034900","2018-12-11 19:00","2018","12","11","19:00","-9.1","","-10.8","","88","","","","4","","8","","8.1","","100.60","","","","-13","","Snow"
"-74.04","45.68","MONTREAL MIRABEL INTL A","7034900","2018-12-11 20:00","2018","12","11","20:00","-9.1","","-10.8","","88","","","","4","","9","","8.1","","100.60","","","","-14","","Snow"
"-74.04","45.68","MONTREAL MIRABEL INTL A","7034900","2018-12-11 21:00","2018","12","11","21:00","-9.1","","-10.9","","87","","","","3","","9","","6.4","","100.60","","","","-14","","Snow"
"-74.04","45.68","MONTREAL MIRABEL INTL A","7034900","2018-12-11 22:00","2018","12","11","22:00","-9.0","","-10.8","","87","","","","6","","7","","9.7","","100.57","","","","-13","","Snow"
"-74.04","45.68","MONTREAL MIRABEL INTL A","7034900","2018-12-11 23:00","2018","12","11","23:00","-9.2","","-10.9","","87","","","","3","","5","","9.7","","100.57","","","","-12","","Snow"
"-74.04","45.68","MONTREAL MIRABEL INTL A","7034900","2018-12-12 00:00","2018","12","12","00:00","-9.7","","-11.3","","88","","","","2","","3","","19.3","","100.57","","","","-11","","Snow"
"-74.04","45.68","MONTREAL MIRABEL INTL A","7034900","2018-12-12 01:00","2018","12","12","01:00","-10.2","","-11.4","","91","","","","1","","6","","19.3","","100.59","","","","-14","","Snow"
"-74.04","45.68","MONTREAL MIRABEL INTL A","7034900","2018-12-12 02:00","2018","12","12","02:00","-11.6","","-12.3","","94","","","","","","0","","24.1","","100.62","","","","","","Snow"
"-74.04","45.68","MONTREAL MIRABEL INTL A","7034900","2018-12-12 03:00","2018","12","12","03:00","-12.1","","-13.4","","90","","","","24","","4","","8.1","","100.70","","","","-15","","Snow"
"-74.04","45.68","MONTREAL MIRABEL INTL A","7034900","2018-12-12 04:00","2018","12","12","04:00","-11.0","","-12.3","","90","","","","","","0","","16.1","","100.72","","","","","","Snow"
"-74.04","45.68","MONTREAL MIRABEL INTL A","7034900","2018-12-12 05:00","2018","12","12","05:00","-11.3","","-12.6","","91","","","","22","","3","","16.1","","100.81","","","","-13","","Snow"
"-74.04","45.68","MONTREAL MIRABEL INTL A","7034900","2018-12-12 06:00","2018","12","12","06:00","-12.3","","-13.5","","91","","","","31","","3","","19.3","","100.91","","","","-14","","Snow"
"-74.04","45.68","MONTREAL MIRABEL INTL A","7034900","2018-12-12 07:00","2018","12","12","07:00","-13.3","","-14.7","","90","","","","","","0","","8.1","","101.00","","","","","","Snow"
"-74.04","45.68","MONTREAL MIRABEL INTL A","7034900","2018-12-12 08:00","2018","12","12","08:00","-13.4","","-14.9","","89","","","","1","","4","","16.1","","101.09","","","","-16","","Snow"
"-74.04","45.68","MONTREAL MIRABEL INTL A","7034900","2018-12-12 09:00","2018","12","12","09:00","-12.9","","-14.3","","90","","","","3","","5","","40.2","","101.20","","","","-16","","Snow"
"-74.04","45.68","MONTREAL MIRABEL INTL A","7034900","2018-12-12 10:00","2018","12","12","10:00","-11.5","","-13.1","","88","","","","7","","7","","72.4","","101.26","","","","-16","","Clear"
"-74.04","45.68","MONTREAL MIRABEL INTL A","7034900","2018-12-12 11:00","2018","12","12","11:00","-9.8","","-15.0","","66","","","","8","","7","","72.4","","101.31","","","","-14","","NA"
"-74.04","45.68","MONTREAL MIRABEL INTL A","7034900","2018-12-12 12:00","2018","12","12","12:00","-9.4","","-16.4","","57","","","","5","","8","","72.4","","101.31","","","","-14","","NA"
"-74.04","45.68","MONTREAL MIRABEL INTL A","7034900","2018-12-12 13:00","2018","12","12","13:00","-8.7","","-16.6","","53","","","","7","","9","","72.4","","101.34","","","","-13","","Clear"
"-74.04","45.68","MONTREAL MIRABEL INTL A","7034900","2018-12-12 14:00","2018","12","12","14:00","-8.5","","-17.0","","51","","","","7","","7","","72.4","","101.37","","","","-12","","NA"
"-74.04","45.68","MONTREAL MIRABEL INTL A","7034900","2018-12-12 15:00","2018","12","12","15:00","-9.2","","-17.8","","50","","","","9","","13","","72.4","","101.42","","","","-15","","NA"
"-74.04","45.68","MONTREAL MIRABEL INTL A","7034900","2018-12-12 16:00","2018","12","12","16:00","-10.4","","-18.4","","53","","","","11","","7","","72.4","","101.50","","","","-14","","Clear"
"-74.04","45.68","MONTREAL MIRABEL INTL A","7034900","2018-12-12 17:00","2018","12","12","17:00","-12.3","","-18.5","","60","","","","","","0","","40.2","","101.56","","","","","","NA"
"-74.04","45.68","MONTREAL MIRABEL INTL A","7034900","2018-12-12 18:00","2018","12","12","18:00","-14.5","","-18.3","","73","","","","","","0","","40.2","","101.61","","","","","","NA"
"-74.04","45.68","MONTREAL MIRABEL INTL A","7034900","2018-12-12 19:00","2018","12","12","19:00","-15.6","","-18.3","","80","","","","5","","7","","40.2","","101.68","","","","-21","","Clear"
"-74.04","45.68","MONTREAL MIRABEL INTL A","7034900","2018-12-12 20:00","2018","12","12","20:00","-16.6","","-19.4","","79","","","","","","0","","40.2","","101.75","","","","","","NA"
"-74.04","45.68","MONTREAL MIRABEL INTL A","7034900","2018-12-12 21:00","2018","12","12","21:00","-17.1","","-19.3","","83","","","","3","","4","","40.2","","101.74","","","","-20","","NA"
"-74.04","45.68","MONTREAL MIRABEL INTL A","7034900","2018-12-12 22:00","2018","12","12","22:00","-17.4","","-19.8","","82","","","","4","","8","","40.2","","101.78","","","","-23","","Clear"
"-74.04","45.68","MONTREAL MIRABEL INTL A","7034900","2018-12-12 23:00","2018","12","12","23:00","-18.4","","-20.6","","83","","","","","","0","","40.2","","101.85","","","","","","NA"
"-74.04","45.68","MONTREAL MIRABEL INTL A","7034900","2018-12-13 00:00","2018","12","13","00:00","-18.2","","-20.1","","85","","","","4","","6","","40.2","","101.87","","","","-23","","NA"
"-74.04","45.68","MONTREAL MIRABEL INTL A","7034900","2018-12-13 01:00","2018","12","13","01:00","-19.3","","-21.0","","86","","","","3","","5","","40.2","","101.90","","","","-23","","Clear"
"-74.04","45.68","MONTREAL MIRABEL INTL A","7034900","2018-12-13 02:00","2018","12","13","02:00","-19.5","","-21.4","","85","","","","3","","3","","40.2","","101.92","","","","-22","","NA"
"-74.04","45.68","MONTREAL MIRABEL INTL A","7034900","2018-12-13 03:00","2018","12","13","03:00","-18.8","","-21.1","","82","","","","4","","6","","40.2","","101.91","","","","-24","","NA"
"-74.04","45.68","MONTREAL MIRABEL INTL A","7034900","2018-12-13 04:00","2018","12","13","04:00","-20.0","","-22.4","","82","","","","4","","7","","40.2","","101.94","","","","-26","","Clear"
"-74.04","45.68","MONTREAL MIRABEL INTL A","7034900","2018-12-13 05:00","2018","12","13","05:00","-19.5","","-22.0","","81","","","","4","","7","","40.2","","102.00","","","","-25","","NA"
"-74.04","45.68","MONTREAL MIRABEL INTL A","7034900","2018-12-13 06:00","2018","12","13","06:00","-18.5","","-21.1","","80","","","","4","","5","","40.2","","102.02","","","","-23","","NA"
"-74.04","45.68","MONTREAL MIRABEL INTL A","7034900","2018-12-13 07:00","2018","12","13","07:00","-18.7","","-21.0","","83","","","","4","","7","","40.2","","102.02","","","","-24","","Mainly Clear"
"-74.04","45.68","MONTREAL MIRABEL INTL A","7034900","2018-12-13 08:00","2018","12","13","08:00","-19.0","","-21.6","","81","","","","4","","3","","40.2","","102.10","","","","-21","","NA"
"-74.04","45.68","MONTREAL MIRABEL INTL A","7034900","2018-12-13 09:00","2018","12","13","09:00","-16.0","","-18.8","","80","","","","5","","13","","32.2","","102.12","","","","-24","","Blowing Snow"
"-74.04","45.68","MONTREAL MIRABEL INTL A","7034900","2018-12-13 10:00","2018","12","13","10:00","-14.9","","-17.9","","78","","","","5","","17","","40.2","","102.15","","","","-23","","Blowing Snow"
"-74.04","45.68","MONTREAL MIRABEL INTL A","7034900","2018-12-13 11:00","2018","12","13","11:00","-13.8","","-17.5","","73","","","","6","","13","","40.2","","102.11","","","","-21","","Blowing Snow"
"-74.04","45.68","MONTREAL MIRABEL INTL A","7034900","2018-12-13 12:00","2018","12","13","12:00","-13.2","","-17.5","","70","","","","6","","13","","40.2","","102.03","","","","-20","","Blowing Snow"
"-74.04","45.68","MONTREAL MIRABEL INTL A","7034900","2018-12-13 13:00","2018","12","13","13:00","-12.0","","-16.8","","68","","","","5","","9","","40.2","","102.04","","","","-17","","Blowing Snow"
"-74.04","45.68","MONTREAL MIRABEL INTL A","7034900","2018-12-13 14:00","2018","12","13","14:00","-11.3","","-16.6","","66","","","","5","","8","","40.2","","102.03","","","","-16","","Blowing Snow"
"-74.04","45.68","MONTREAL MIRABEL INTL A","7034900","2018-12-13 15:00","2018","12","13","15:00","-11.4","","-16.4","","67","","","","6","","9","","24.1","","102.08","","","","-17","","NA"
"-74.04","45.68","MONTREAL MIRABEL INTL A","7034900","2018-12-13 16:00","2018","12","13","16:00","-11.1","","-15.8","","69","","","","4","","5","","24.1","","102.14","","","","-14","","Cloudy"
"-74.04","45.68","MONTREAL MIRABEL INTL A","7034900","2018-12-13 17:00","2018","12","13","17:00","-10.9","","-15.4","","70","","","","5","","8","","32.2","","102.15","","","","-16","","NA"
"-74.04","45.68","MONTREAL MIRABEL INTL A","7034900","2018-12-13 18:00","2018","12","13","18:00","-10.4","","-15.5","","66","","","","5","","10","","32.2","","102.14","","","","-16","","NA"
"-74.04","45.68","MONTREAL MIRABEL INTL A","7034900","2018-12-13 19:00","2018","12","13","19:00","-10.2","","-15.0","","68","","","","6","","11","","40.2","","102.13","","","","-16","","Cloudy"
"-74.04","45.68","MONTREAL MIRABEL INTL A","7034900","2018-12-13 20:00","2018","12","13","20:00","-9.9","","-14.5","","69","","","","5","","9","","40.2","","102.18","","","","-15","","NA"
"-74.04","45.68","MONTREAL MIRABEL INTL A","7034900","2018-12-13 21:00","2018","12","13","21:00","-9.5","","-14.4","","68","","","","5","","10","","40.2","","102.15","","","","-15","","NA"
"-74.04","45.68","MONTREAL MIRABEL INTL A","7034900","2018-12-13 22:00","2018","12","13","22:00","-9.1","","-14.2","","67","","","","6","","7","","40.2","","102.11","","","","-13","","Cloudy"
"-74.04","45.68","MONTREAL MIRABEL INTL A","7034900","2018-12-13 23:00","2018","12","13","23:00","-9.0","","-14.0","","67","","","","4","","9","","40.2","","102.06","","","","-14","","NA"
"-74.04","45.68","MONTREAL MIRABEL INTL A","7034900","2018-12-14 00:00","2018","12","14","00:00","-8.5","","-13.8","","66","","","","4","","7","","40.2","","102.05","","","","-12","","NA"
"-74.04","45.68","MONTREAL MIRABEL INTL A","7034900","2018-12-14 01:00","2018","12","14","01:00","-8.0","","-13.1","","67","","","","6","","8","","40.2","","101.98","","","","-12","","Cloudy"
"-74.04","45.68","MONTREAL MIRABEL INTL A","7034900","2018-12-14 02:00","2018","12","14","02:00","-7.7","","-12.2","","70","","","","4","","5","","40.2","","102.05","","","","-10","","NA"
"-74.04","45.68","MONTREAL MIRABEL INTL A","7034900","2018-12-14 03:00","2018","12","14","03:00","-7.5","","-12.4","","68","","","","6","","8","","40.2","","101.99","","","","-12","","NA"
"-74.04","45.68","MONTREAL MIRABEL INTL A","7034900","2018-12-14 04:00","2018","12","14","04:00","-7.5","","-12.2","","69","","","","5","","12","","40.2","","101.88","","","","-13","","Cloudy"
"-74.04","45.68","MONTREAL MIRABEL INTL A","7034900","2018-12-14 05:00","2018","12","14","05:00","-7.5","","-11.1","","76","","","","3","","8","","40.2","","101.83","","","","-12","","NA"
"-74.04","45.68","MONTREAL MIRABEL INTL A","7034900","2018-12-14 06:00","2018","12","14","06:00","-6.9","","-11.1","","72","","","","4","","8","","40.2","","101.86","","","","-11","","NA"
"-74.04","45.68","MONTREAL MIRABEL INTL A","7034900","2018-12-14 07:00","2018","12","14","07:00","-6.8","","-10.2","","77","","","","3","","6","","24.1","","101.81","","","","-10","","Cloudy"
"-74.04","45.68","MONTREAL MIRABEL INTL A","7034900","2018-12-14 08:00","2018","12","14","08:00","-6.2","","-10.0","","75","","","","4","","8","","32.2","","101.80","","","","-10","","NA"
"-74.04","45.68","MONTREAL MIRABEL INTL A","7034900","2018-12-14 09:00","2018","12","14","09:00","-5.8","","-9.3","","76","","","","4","","8","","12.9","","101.78","","","","-10","","NA"
"-74.04","45.68","MONTREAL MIRABEL INTL A","7034900","2018-12-14 10:00","2018","12","14","10:00","-5.1","","-8.3","","79","","","","2","","3","","24.1","","101.78","","","","-6","","Cloudy"
"-74.04","45.68","MONTREAL MIRABEL INTL A","7034900","2018-12-14 11:00","2018","12","14","11:00","-4.9","","-8.2","","78","","","","4","","8","","24.1","","101.63","","","","-8","","NA"
"-74.04","45.68","MONTREAL MIRABEL INTL A","7034900","2018-12-14 12:00","2018","12","14","12:00","-4.3","","-7.5","","79","","","","1","","8","","11.3","","101.50","","","","-8","","NA"
"-74.04","45.68","MONTREAL MIRABEL INTL A","7034900","2018-12-14 13:00","2018","12","14","13:00","-3.9","","-5.9","","86","","","","1","","5","","6.4","","101.40","","","","-6","","Ice Pellets,Fog"
"-74.04","45.68","MONTREAL MIRABEL INTL A","7034900","2018-12-14 14:00","2018","12","14","14:00","-3.0","","-4.2","","92","","","","3","","5","","6.4","","101.31","","","","-5","","Ice Pellets,Fog"
"-74.04","45.68","MONTREAL MIRABEL INTL A","7034900","2018-12-14 15:00","2018","12","14","15:00","-2.6","","-3.5","","93","","","","5","","5","","4.8","","101.27","","","","-5","","Freezing Rain,Fog"
"-74.04","45.68","MONTREAL MIRABEL INTL A","7034900","2018-12-14 16:00","2018","12","14","16:00","-2.1","","-2.7","","96","","","","6","","4","","4.0","","101.23","","","","-4","","Freezing Rain,Fog"
"-74.04","45.68","MONTREAL MIRABEL INTL A","7034900","2018-12-14 17:00","2018","12","14","17:00","-1.6","","-2.0","","97","","","","6","","4","","4.0","","101.17","","","","-3","","Freezing Rain,Fog"
"-74.04","45.68","MONTREAL MIRABEL INTL A","7034900","2018-12-14 18:00","2018","12","14","18:00","-1.0","","-1.4","","97","","","","9","","3","","4.0","","101.16","","","","-2","","Freezing Rain,Fog"
"-74.04","45.68","MONTREAL MIRABEL INTL A","7034900","2018-12-14 19:00","2018","12","14","19:00","-0.8","","-1.0","","98","","","","","","0","","3.2","","101.14","","","","","","Freezing Rain,Fog"
"-74.04","45.68","MONTREAL MIRABEL INTL A","7034900","2018-12-14 20:00","2018","12","14","20:00","0.0","","-0.2","","99","","","","21","","4","","1.6","","101.02","","","","-1","","Drizzle,Fog"
"-74.04","45.68","MONTREAL MIRABEL INTL A","7034900","2018-12-14 21:00","2018","12","14","21:00","0.0","","-0.1","","99","","","","20","","8","","1.6","","100.90","","","","-3","","Rain,Drizzle,Fog"
"-74.04","45.68","MONTREAL MIRABEL INTL A","7034900","2018-12-14 22:00","2018","12","14","22:00","-0.1","","-0.2","","99","","","","25","","5","","1.6","","100.86","","","","-2","","Fog"
"-74.04","45.68","MONTREAL MIRABEL INTL A","7034900","2018-12-14 23:00","2018","12","14","23:00","0.4","","0.3","","100","","","","28","","6","","1.2","","100.85","","","","","","Fog"
"-74.04","45.68","MONTREAL MIRABEL INTL A","7034900","2018-12-15 00:00","2018","12","15","00:00","1.0","","1.0","","100","","","","26","","14","","0.8","","100.83","","","","","","Fog"
"-74.04","45.68","MONTREAL MIRABEL INTL A","7034900","2018-12-15 01:00","2018","12","15","01:00","1.2","","1.2","","99","","","","25","","13","","3.2","","100.81","","","","","","Fog"
"-74.04","45.68","MONTREAL MIRABEL INTL A","7034900","2018-12-15 02:00","2018","12","15","02:00","1.2","","0.8","","97","","","","25","","11","","6.4","","100.88","","","","","","Fog"
"-74.04","45.68","MONTREAL MIRABEL INTL A","7034900","2018-12-15 03:00","2018","12","15","03:00","0.9","","0.3","","96","","","","23","","18","","8.1","","100.91","","","","","","Fog"
"-74.04","45.68","MONTREAL MIRABEL INTL A","7034900","2018-12-15 04:00","2018","12","15","04:00","1.0","","0.3","","95","","","","25","","16","","6.4","","100.94","","","","","","Fog"
"-74.04","45.68","MONTREAL MIRABEL INTL A","7034900","2018-12-15 05:00","2018","12","15","05:00","1.1","","0.4","","95","","","","25","","13","","6.4","","101.00","","","","","","Fog"
"-74.04","45.68","MONTREAL MIRABEL INTL A","7034900","2018-12-15 06:00","2018","12","15","06:00","1.2","","0.4","","94","","","","25","","9","","8.1","","101.13","","","","","","Fog"
"-74.04","45.68","MONTREAL MIRABEL INTL A","7034900","2018-12-15 07:00","2018","12","15","07:00","1.3","","0.5","","94","","","","24","","15","","12.9","","101.20","","","","","","Cloudy"
"-74.04","45.68","MONTREAL MIRABEL INTL A","7034900","2018-12-15 08:00","2018","12","15","08:00","1.3","","0.5","","94","","","","25","","13","","12.9","","101.26","","","","","","NA"
"-74.04","45.68","MONTREAL MIRABEL INTL A","7034900","2018-12-15 09:00","2018","12","15","09:00","1.3","","0.5","","94","","","","24","","14","","12.9","","101.30","","","","","","NA"
"-74.04","45.68","MONTREAL MIRABEL INTL A","7034900","2018-12-15 10:00","2018","12","15","10:00","1.6","","0.5","","92","","","","23","","10","","19.3","","101.37","","","","","","Cloudy"
"-74.04","45.68","MONTREAL MIRABEL INTL A","7034900","2018-12-15 11:00","2018","12","15","11:00","2.5","","0.5","","87","","","","25","","11","","24.1","","101.38","","","","","","NA"
"-74.04","45.68","MONTREAL MIRABEL INTL A","7034900","2018-12-15 12:00","2018","12","15","12:00","3.1","","0.5","","83","","","","22","","9","","32.2","","101.40","","","","","","NA"
"-74.04","45.68","MONTREAL MIRABEL INTL A","7034900","2018-12-15 13:00","2018","12","15","13:00","3.3","","0.0","","79","","","","22","","8","","32.2","","101.36","","","","","","Mostly Cloudy"
"-74.04","45.68","MONTREAL MIRABEL INTL A","7034900","2018-12-15 14:00","2018","12","15","14:00","3.1","","0.0","","80","","","","25","","8","","40.2","","101.44","","","","","","NA"
"-74.04","45.68","MONTREAL MIRABEL INTL A","7034900","2018-12-15 15:00","2018","12","15","15:00","2.7","","0.0","","82","","","","24","","7","","40.2","","101.48","","","","","","NA"
"-74.04","45.68","MONTREAL MIRABEL INTL A","7034900","2018-12-15 16:00","2018","12","15","16:00","2.4","","-0.2","","83","","","","25","","8","","40.2","","101.53","","","","","","Cloudy"
"-74.04","45.68","MONTREAL MIRABEL INTL A","7034900","2018-12-15 17:00","2018","12","15","17:00","2.2","","-0.3","","83","","","","28","","5","","40.2","","101.55","","","","","","NA"
"-74.04","45.68","MONTREAL MIRABEL INTL A","7034900","2018-12-15 18:00","2018","12","15","18:00","2.2","","-0.3","","83","","","","","","0","","40.2","","101.61","","","","","","NA"
"-74.04","45.68","MONTREAL MIRABEL INTL A","7034900","2018-12-15 19:00","2018","12","15","19:00","1.2","","-0.2","","90","","","","","","0","","40.2","","101.66","","","","","","Cloudy"
"-74.04","45.68","MONTREAL MIRABEL INTL A","7034900","2018-12-15 20:00","2018","12","15","20:00","1.7","","-0.8","","83","","","","1","","4","","40.2","","101.68","","","","","","NA"
"-74.04","45.68","MONTREAL MIRABEL INTL A","7034900","2018-12-15 21:00","2018","12","15","21:00","0.1","","-1.4","","90","","","","1","","3","","40.2","","101.64","","","","","","NA"
"-74.04","45.68","MONTREAL MIRABEL INTL A","7034900","2018-12-15 22:00","2018","12","15","22:00","-0.3","","-1.2","","94","","","","","","0","","40.2","","101.63","","","","","","Mostly Cloudy"
"-74.04","45.68","MONTREAL MIRABEL INTL A","7034900","2018-12-15 23:00","2018","12","15","23:00","-1.9","","-2.1","","98","","","","3","","3","","40.2","","101.57","","","","-3","","NA"
"-74.04","45.68","MONTREAL MIRABEL INTL A","7034900","2018-12-16 00:00","2018","12","16","00:00","-2.6","","-3.2","","96","","","","","","0","","40.2","","101.53","","","","","","NA"
"-74.04","45.68","MONTREAL MIRABEL INTL A","7034900","2018-12-16 01:00","2018","12","16","01:00","-3.5","","-4.3","","95","","","","","","0","","40.2","","101.49","","","","","","Mainly Clear"
"-74.04","45.68","MONTREAL MIRABEL INTL A","7034900","2018-12-16 02:00","2018","12","16","02:00","-3.5","","-4.1","","96","","","","","","0","","40.2","","101.51","","","","","","NA"
"-74.04","45.68","MONTREAL MIRABEL INTL A","7034900","2018-12-16 03:00","2018","12","16","03:00","-3.3","","-4.0","","95","","","","4","","4","","40.2","","101.45","","","","-5","","NA"
"-74.04","45.68","MONTREAL MIRABEL INTL A","7034900","2018-12-16 04:00","2018","12","16","04:00","-3.8","","-4.4","","95","","","","5","","4","","40.2","","101.35","","","","-5","","Mainly Clear"
"-74.04","45.68","MONTREAL MIRABEL INTL A","7034900","2018-12-16 05:00","2018","12","16","05:00","-4.2","","-4.8","","96","","","","6","","5","","40.2","","101.33","","","","-6","","NA"
"-74.04","45.68","MONTREAL MIRABEL INTL A","7034900","2018-12-16 06:00","2018","12","16","06:00","-4.4","","-5.1","","95","","","","5","","4","","40.2","","101.34","","","","-6","","NA"
"-74.04","45.68","MONTREAL MIRABEL INTL A","7034900","2018-12-16 07:00","2018","12","16","07:00","-4.6","","-5.4","","95","","","","3","","5","","72.4","","101.31","","","","-7","","Mostly Cloudy"
"-74.04","45.68","MONTREAL MIRABEL INTL A","7034900","2018-12-16 08:00","2018","12","16","08:00","-4.2","","-5.0","","94","","","","36","","6","","72.4","","101.27","","","","-7","","NA"
"-74.04","45.68","MONTREAL MIRABEL INTL A","7034900","2018-12-16 09:00","2018","12","16","09:00","-3.4","","-4.7","","91","","","","2","","3","","72.4","","101.26","","","","-5","","NA"
"-74.04","45.68","MONTREAL MIRABEL INTL A","7034900","2018-12-16 10:00","2018","12","16","10:00","-2.6","","-4.0","","90","","","","6","","7","","72.4","","101.26","","","","-5","","Mostly Cloudy"
"-74.04","45.68","MONTREAL MIRABEL INTL A","7034900","2018-12-16 11:00","2018","12","16","11:00","-0.9","","-3.2","","84","","","","5","","12","","48.3","","101.07","","","","-5","","NA"
"-74.04","45.68","MONTREAL MIRABEL INTL A","7034900","2018-12-16 12:00","2018","12","16","12:00","-0.5","","-3.0","","83","","","","6","","12","","72.4","","100.96","","","","-4","","NA"
"-74.04","45.68","MONTREAL MIRABEL INTL A","7034900","2018-12-16 13:00","2018","12","16","13:00","-0.7","","-3.4","","82","","","","7","","10","","72.4","","100.93","","","","-4","","Mostly Cloudy"
"-74.04","45.68","MONTREAL MIRABEL INTL A","7034900","2018-12-16 14:00","2018","12","16","14:00","-0.5","","-3.0","","83","","","","5","","14","","64.4","","100.85","","","","-5","","NA"
"-74.04","45.68","MONTREAL MIRABEL INTL A","7034900","2018-12-16 15:00","2018","12","16","15:00","-0.6","","-3.0","","84","","","","5","","15","","48.3","","100.77","","","","-5","","NA"
"-74.04","45.68","MONTREAL MIRABEL INTL A","7034900","2018-12-16 16:00","2018","12","16","16:00","-1.0","","-3.1","","86","","","","4","","9","","40.2","","100.76","","","","-4","","Mostly Cloudy"
"-74.04","45.68","MONTREAL MIRABEL INTL A","7034900","2018-12-16 17:00","2018","12","16","17:00","-1.3","","-3.2","","87","","","","5","","7","","40.2","","100.76","","","","-4","","NA"
"-74.04","45.68","MONTREAL MIRABEL INTL A","7034900","2018-12-16 18:00","2018","12","16","18:00","-1.8","","-3.6","","87","","","","5","","10","","40.2","","100.66","","","","-5","","NA"
"-74.04","45.68","MONTREAL MIRABEL INTL A","7034900","2018-12-16 19:00","2018","12","16","19:00","-1.7","","-3.6","","87","","","","5","","8","","40.2","","100.58","","","","-5","","Cloudy"
"-74.04","45.68","MONTREAL MIRABEL INTL A","7034900","2018-12-16 20:00","2018","12","16","20:00","-1.6","","-3.4","","87","","","","5","","7","","40.2","","100.46","","","","-4","","NA"
"-74.04","45.68","MONTREAL MIRABEL INTL A","7034900","2018-12-16 21:00","2018","12","16","21:00","-1.6","","-3.4","","88","","","","6","","8","","40.2","","100.41","","","","-5","","NA"
"-74.04","45.68","MONTREAL MIRABEL INTL A","7034900","2018-12-16 22:00","2018","12","16","22:00","-1.5","","-3.3","","88","","","","35","","6","","32.2","","100.32","","","","-4","","Cloudy"
"-74.04","45.68","MONTREAL MIRABEL INTL A","7034900","2018-12-16 23:00","2018","12","16","23:00","-1.6","","-3.0","","90","","","","8","","6","","32.2","","100.18","","","","-4","","NA"
"-74.04","45.68","MONTREAL MIRABEL INTL A","7034900","2018-12-17 00:00","2018","12","17","00:00","-1.4","","-3.1","","89","","","","8","","7","","32.2","","100.12","","","","-4","","NA"
"-74.04","45.68","MONTREAL MIRABEL INTL A","7034900","2018-12-17 01:00","2018","12","17","01:00","-1.4","","-3.1","","89","","","","","","0","","24.1","","100.00","","","","","","Cloudy"
"-74.04","45.68","MONTREAL MIRABEL INTL A","7034900","2018-12-17 02:00","2018","12","17","02:00","-1.7","","-3.0","","91","","","","11","","5","","24.1","","99.87","","","","-4","","NA"
"-74.04","45.68","MONTREAL MIRABEL INTL A","7034900","2018-12-17 03:00","2018","12","17","03:00","-1.8","","-3.0","","92","","","","","","0","","16.1","","99.84","","","","","","NA"
"-74.04","45.68","MONTREAL MIRABEL INTL A","7034900","2018-12-17 04:00","2018","12","17","04:00","-1.8","","-2.9","","92","","","","32","","6","","12.9","","99.77","","","","-4","","Cloudy"
"-74.04","45.68","MONTREAL MIRABEL INTL A","7034900","2018-12-17 05:00","2018","12","17","05:00","-2.0","","-2.5","","96","","","","","","0","","4.8","","99.67","","","","","","Freezing Drizzle,Fog"
"-74.04","45.68","MONTREAL MIRABEL INTL A","7034900","2018-12-17 06:00","2018","12","17","06:00","-1.7","","-2.0","","98","","","","","","0","","1.2","","99.62","","","","","","Freezing Drizzle,Snow,Fog"
"-74.04","45.68","MONTREAL MIRABEL INTL A","7034900","2018-12-17 07:00","2018","12","17","07:00","-1.8","","-2.1","","98","","","","5","","3","","2.4","","99.56","","","","-3","","Freezing Drizzle,Snow,Fog"
"-74.04","45.68","MONTREAL MIRABEL INTL A","7034900","2018-12-17 08:00","2018","12","17","08:00","-1.8","","-2.1","","98","","","","","","0","","3.2","","99.51","","","","","","Freezing Drizzle,Snow,Fog"
"-74.04","45.68","MONTREAL MIRABEL INTL A","7034900","2018-12-17 09:00","2018","12","17","09:00","-1.6","","-1.9","","98","","","","","","0","","4.0","","99.48","","","","","","Snow,Fog"
"-74.04","45.68","MONTREAL MIRABEL INTL A","7034900","2018-12-17 10:00","2018","12","17","10:00","-0.8","","-1.3","","97","","","","26","","7","","4.8","","99.44","","","","-3","","Snow,Fog"
"-74.04","45.68","MONTREAL MIRABEL INTL A","7034900","2018-12-17 11:00","2018","12","17","11:00","-0.2","","-1.4","","92","","","","28","","10","","24.1","","99.35","","","","-4","","Snow"
"-74.04","45.68","MONTREAL MIRABEL INTL A","7034900","2018-12-17 12:00","2018","12","17","12:00","0.0","","-1.3","","91","","","","26","","12","","16.1","","99.28","","","","-4","","Snow"
"-74.04","45.68","MONTREAL MIRABEL INTL A","7034900","2018-12-17 13:00","2018","12","17","13:00","0.3","","-1.3","","89","","","","27","","11","","24.1","","99.24","","","","","","Cloudy"
"-74.04","45.68","MONTREAL MIRABEL INTL A","7034900","2018-12-17 14:00","2018","12","17","14:00","0.6","","-1.2","","88","","","","27","","10","","24.1","","99.24","","","","","","NA"
"-74.04","45.68","MONTREAL MIRABEL INTL A","7034900","2018-12-17 15:00","2018","12","17","15:00","0.5","","-1.1","","89","","","","27","","7","","19.3","","99.30","","","","","","Snow"
"-74.04","45.68","MONTREAL MIRABEL INTL A","7034900","2018-12-17 16:00","2018","12","17","16:00","0.9","","-3.5","","72","","","","31","","21","","24.1","","99.37","","","","","","Snow"
"-74.04","45.68","MONTREAL MIRABEL INTL A","7034900","2018-12-17 17:00","2018","12","17","17:00","-0.9","","-6.4","","66","","","","32","","17","","40.2","","99.47","","","","-6","","NA"
"-74.04","45.68","MONTREAL MIRABEL INTL A","7034900","2018-12-17 18:00","2018","12","17","18:00","-2.5","","-7.7","","67","","","","32","","18","","40.2","","99.56","","","","-8","","NA"
"-74.04","45.68","MONTREAL MIRABEL INTL A","7034900","2018-12-17 19:00","2018","12","17","19:00","-3.8","","-10.1","","62","","","","32","","23","","40.2","","99.63","","","","-11","","Cloudy"
"-74.04","45.68","MONTREAL MIRABEL INTL A","7034900","2018-12-17 20:00","2018","12","17","20:00","-5.2","","-12.2","","58","","","","30","","24","","40.2","","99.74","","","","-12","","NA"
"-74.04","45.68","MONTREAL MIRABEL INTL A","7034900","2018-12-17 21:00","2018","12","17","21:00","-6.3","","-13.3","","58","","","","33","","22","","24.1","","99.86","","","","-14","","Snow"
"-74.04","45.68","MONTREAL MIRABEL INTL A","7034900","2018-12-17 22:00","2018","12","17","22:00","-6.8","","-13.1","","61","","","","31","","16","","40.2","","99.93","","","","-13","","Snow"
"-74.04","45.68","MONTREAL MIRABEL INTL A","7034900","2018-12-17 23:00","2018","12","17","23:00","-7.1","","-13.7","","60","","","","30","","17","","40.2","","99.99","","","","-14","","NA"
"-74.04","45.68","MONTREAL MIRABEL INTL A","7034900","2018-12-18 00:00","2018","12","18","00:00","-7.5","","-13.9","","60","","","","31","","17","","40.2","","100.07","","","","-14","","NA"
"-74.04","45.68","MONTREAL MIRABEL INTL A","7034900","2018-12-18 01:00","2018","12","18","01:00","-7.9","","-13.6","","64","","","","33","","22","","40.2","","100.11","","","","-16","","Mostly Cloudy"
"-74.04","45.68","MONTREAL MIRABEL INTL A","7034900","2018-12-18 02:00","2018","12","18","02:00","-8.2","","-14.1","","63","","","","31","","13","","40.2","","100.21","","","","-14","","NA"
"-74.04","45.68","MONTREAL MIRABEL INTL A","7034900","2018-12-18 03:00","2018","12","18","03:00","-8.5","","-14.4","","63","","","","31","","15","","40.2","","100.29","","","","-15","","NA"
"-74.04","45.68","MONTREAL MIRABEL INTL A","7034900","2018-12-18 04:00","2018","12","18","04:00","-8.9","","-14.6","","64","","","","30","","16","","40.2","","100.36","","","","-16","","Mostly Cloudy"
"-74.04","45.68","MONTREAL MIRABEL INTL A","7034900","2018-12-18 05:00","2018","12","18","05:00","-9.0","","-14.7","","64","","","","30","","13","","40.2","","100.45","","","","-15","","NA"
"-74.04","45.68","MONTREAL MIRABEL INTL A","7034900","2018-12-18 06:00","2018","12","18","06:00","-9.3","","-15.0","","64","","","","31","","18","","40.2","","100.54","","","","-17","","NA"
"-74.04","45.68","MONTREAL MIRABEL INTL A","7034900","2018-12-18 07:00","2018","12","18","07:00","-9.3","","-14.7","","65","","","","31","","12","","40.2","","100.63","","","","-15","","Mostly Cloudy"
"-74.04","45.68","MONTREAL MIRABEL INTL A","7034900","2018-12-18 08:00","2018","12","18","08:00","-8.6","","-14.2","","64","","","","32","","22","","48.3","","100.68","","","","-16","","NA"
"-74.04","45.68","MONTREAL MIRABEL INTL A","7034900","2018-12-18 09:00","2018","12","18","09:00","-8.4","","-13.9","","65","","","","29","","10","","48.3","","100.75","","","","-13","","NA"
"-74.04","45.68","MONTREAL MIRABEL INTL A","7034900","2018-12-18 10:00","2018","12","18","10:00","-6.8","","-13.7","","59","","","","30","","15","","72.4","","100.80","","","","-13","","Mainly Clear"
"-74.04","45.68","MONTREAL MIRABEL INTL A","7034900","2018-12-18 11:00","2018","12","18","11:00","-6.2","","-13.4","","57","","","","31","","21","","72.4","","100.81","","","","-13","","NA"
"-74.04","45.68","MONTREAL MIRABEL INTL A","7034900","2018-12-18 12:00","2018","12","18","12:00","-5.4","","-13.0","","55","","","","26","","10","","72.4","","100.79","","","","-10","","NA"
"-74.04","45.68","MONTREAL MIRABEL INTL A","7034900","2018-12-18 13:00","2018","12","18","13:00","-5.3","","-13.0","","55","","","","32","","19","","72.4","","100.81","","","","-12","","Mainly Clear"
"-74.04","45.68","MONTREAL MIRABEL INTL A","7034900","2018-12-18 14:00","2018","12","18","14:00","-5.4","","-12.7","","56","","","","33","","23","","72.4","","100.88","","","","-13","","NA"
"-74.04","45.68","MONTREAL MIRABEL INTL A","7034900","2018-12-18 15:00","2018","12","18","15:00","-5.7","","-13.0","","57","","","","32","","20","","72.4","","100.89","","","","-12","","NA"
"-74.04","45.68","MONTREAL MIRABEL INTL A","7034900","2018-12-18 16:00","2018","12","18","16:00","-6.4","","-13.2","","59","","","","30","","13","","72.4","","100.91","","","","-12","","Mainly Clear"
"-74.04","45.68","MONTREAL MIRABEL INTL A","7034900","2018-12-18 17:00","2018","12","18","17:00","-7.2","","-13.3","","62","","","","29","","7","","40.2","","100.98","","","","-11","","NA"
"-74.04","45.68","MONTREAL MIRABEL INTL A","7034900","2018-12-18 18:00","2018","12","18","18:00","-8.1","","-13.2","","67","","","","26","","8","","40.2","","100.99","","","","-12","","NA"
"-74.04","45.68","MONTREAL MIRABEL INTL A","7034900","2018-12-18 19:00","2018","12","18","19:00","-8.7","","-13.2","","70","","","","28","","12","","40.2","","101.00","","","","-14","","Mainly Clear"
"-74.04","45.68","MONTREAL MIRABEL INTL A","7034900","2018-12-18 20:00","2018","12","18","20:00","-9.0","","-13.3","","71","","","","26","","6","","40.2","","101.01","","","","-12","","NA"
"-74.04","45.68","MONTREAL MIRABEL INTL A","7034900","2018-12-18 21:00","2018","12","18","21:00","-9.0","","-13.2","","72","","","","26","","8","","40.2","","101.00","","","","-13","","NA"
"-74.04","45.68","MONTREAL MIRABEL INTL A","7034900","2018-12-18 22:00","2018","12","18","22:00","-8.8","","-12.6","","74","","","","25","","9","","40.2","","100.95","","","","-13","","Mostly Cloudy"
"-74.04","45.68","MONTREAL MIRABEL INTL A","7034900","2018-12-18 23:00","2018","12","18","23:00","-9.3","","-12.8","","76","","","","24","","14","","40.2","","100.92","","","","-16","","NA"
"-74.04","45.68","MONTREAL MIRABEL INTL A","7034900","2018-12-19 00:00","2018","12","19","00:00","-9.9","","-13.3","","77","","","","25","","12","","40.2","","100.89","","","","-16","","NA"
"-74.04","45.68","MONTREAL MIRABEL INTL A","7034900","2018-12-19 01:00","2018","12","19","01:00","-9.8","","-13.2","","76","","","","25","","12","","40.2","","100.90","","","","-16","","Mostly Cloudy"
"-74.04","45.68","MONTREAL MIRABEL INTL A","7034900","2018-12-19 02:00","2018","12","19","02:00","-10.2","","-13.3","","78","","","","24","","12","","40.2","","100.91","","","","-16","","NA"
"-74.04","45.68","MONTREAL MIRABEL INTL A","7034900","2018-12-19 03:00","2018","12","19","03:00","-10.5","","-13.6","","78","","","","25","","9","","40.2","","100.93","","","","-15","","NA"
"-74.04","45.68","MONTREAL MIRABEL INTL A","7034900","2018-12-19 04:00","2018","12","19","04:00","-10.9","","-13.6","","81","","","","24","","6","","40.2","","100.90","","","","-15","","Mainly Clear"
"-74.04","45.68","MONTREAL MIRABEL INTL A","7034900","2018-12-19 05:00","2018","12","19","05:00","-11.6","","-13.8","","84","","","","22","","8","","40.2","","100.91","","","","-16","","NA"
"-74.04","45.68","MONTREAL MIRABEL INTL A","7034900","2018-12-19 06:00","2018","12","19","06:00","-11.8","","-13.9","","84","","","","22","","6","","40.2","","100.85","","","","-16","","NA"
"-74.04","45.68","MONTREAL MIRABEL INTL A","7034900","2018-12-19 07:00","2018","12","19","07:00","-12.4","","-14.2","","87","","","","","","0","","40.2","","100.83","","","","","","Mainly Clear"
"-74.04","45.68","MONTREAL MIRABEL INTL A","7034900","2018-12-19 08:00","2018","12","19","08:00","-12.0","","-13.9","","86","","","","28","","3","","56.3","","100.87","","","","-14","","NA"
"-74.04","45.68","MONTREAL MIRABEL INTL A","7034900","2018-12-19 09:00","2018","12","19","09:00","-11.1","","-13.5","","82","","","","19","","4","","72.4","","100.85","","","","-14","","NA"
"-74.04","45.68","MONTREAL MIRABEL INTL A","7034900","2018-12-19 10:00","2018","12","19","10:00","-9.5","","-13.0","","75","","","","","","0","","40.2","","100.82","","","","","","Mostly Cloudy"
"-74.04","45.68","MONTREAL MIRABEL INTL A","7034900","2018-12-19 11:00","2018","12","19","11:00","-8.4","","-12.0","","76","","","","19","","7","","16.1","","100.73","","","","-12","","Snow"
"-74.04","45.68","MONTREAL MIRABEL INTL A","7034900","2018-12-19 12:00","2018","12","19","12:00","-7.4","","-10.8","","77","","","","18","","7","","24.1","","100.67","","","","-11","","NA"
"-74.04","45.68","MONTREAL MIRABEL INTL A","7034900","2018-12-19 13:00","2018","12","19","13:00","-6.6","","-10.3","","75","","","","17","","5","","24.1","","100.62","","","","-9","","Cloudy"
"-74.04","45.68","MONTREAL MIRABEL INTL A","7034900","2018-12-19 14:00","2018","12","19","14:00","-5.7","","-9.3","","76","","","","17","","7","","24.1","","100.62","","","","-9","","NA"
"-74.04","45.68","MONTREAL MIRABEL INTL A","7034900","2018-12-19 15:00","2018","12","19","15:00","-5.3","","-8.5","","78","","","","21","","4","","32.2","","100.62","","","","-7","","NA"
"-74.04","45.68","MONTREAL MIRABEL INTL A","7034900","2018-12-19 16:00","2018","12","19","16:00","-5.0","","-7.8","","81","","","","","","0","","19.3","","100.64","","","","","","Snow"
"-74.04","45.68","MONTREAL MIRABEL INTL A","7034900","2018-12-19 17:00","2018","12","19","17:00","-4.9","","-7.1","","85","","","","","","0","","24.1","","100.65","","","","","","Snow"
"-74.04","45.68","MONTREAL MIRABEL INTL A","7034900","2018-12-19 18:00","2018","12","19","18:00","-4.8","","-6.8","","86","","","","","","0","","24.1","","100.65","","","","","","NA"
"-74.04","45.68","MONTREAL MIRABEL INTL A","7034900","2018-12-19 19:00","2018","12","19","19:00","-5.8","","-7.4","","88","","","","4","","5","","24.1","","100.67","","","","-8","","Cloudy"
"-74.04","45.68","MONTREAL MIRABEL INTL A","7034900","2018-12-19 20:00","2018","12","19","20:00","-5.7","","-7.5","","88","","","","4","","7","","40.2","","100.67","","","","-9","","NA"
"-74.04","45.68","MONTREAL MIRABEL INTL A","7034900","2018-12-19 21:00","2018","12","19","21:00","-5.2","","-7.7","","83","","","","6","","4","","40.2","","100.68","","","","-7","","NA"
"-74.04","45.68","MONTREAL MIRABEL INTL A","7034900","2018-12-19 22:00","2018","12","19","22:00","-5.1","","-7.3","","85","","","","5","","4","","40.2","","100.64","","","","-7","","Cloudy"
"-74.04","45.68","MONTREAL MIRABEL INTL A","7034900","2018-12-19 23:00","2018","12","19","23:00","-5.4","","-7.6","","85","","","","4","","7","","40.2","","100.60","","","","-9","","NA"
"-74.04","45.68","MONTREAL MIRABEL INTL A","7034900","2018-12-20 00:00","2018","12","20","00:00","-6.8","","-8.1","","90","","","","4","","6","","40.2","","100.60","","","","-10","","NA"
"-74.04","45.68","MONTREAL MIRABEL INTL A","7034900","2018-12-20 01:00","2018","12","20","01:00","-6.9","","-8.0","","92","","","","2","","4","","40.2","","100.62","","","","-9","","Mainly Clear"
"-74.04","45.68","MONTREAL MIRABEL INTL A","7034900","2018-12-20 02:00","2018","12","20","02:00","-7.6","","-8.4","","94","","","","4","","5","","40.2","","100.63","","","","-10","","NA"
"-74.04","45.68","MONTREAL MIRABEL INTL A","7034900","2018-12-20 03:00","2018","12","20","03:00","-8.4","","-9.1","","95","","","","","","0","","40.2","","100.65","","","","","","NA"
"-74.04","45.68","MONTREAL MIRABEL INTL A","7034900","2018-12-20 04:00","2018","12","20","04:00","-8.9","","-9.7","","95","","","","3","","4","","40.2","","100.64","","","","-11","","Mainly Clear"
"-74.04","45.68","MONTREAL MIRABEL INTL A","7034900","2018-12-20 05:00","2018","12","20","05:00","-8.8","","-9.7","","94","","","","7","","5","","40.2","","100.61","","","","-12","","NA"
"-74.04","45.68","MONTREAL MIRABEL INTL A","7034900","2018-12-20 06:00","2018","12","20","06:00","-8.6","","-9.7","","92","","","","36","","7","","24.1","","100.69","","","","-12","","NA"
"-74.04","45.68","MONTREAL MIRABEL INTL A","7034900","2018-12-20 07:00","2018","12","20","07:00","-9.3","","-10.2","","93","","","","3","","5","","24.1","","100.71","","","","-12","","Mainly Clear"
"-74.04","45.68","MONTREAL MIRABEL INTL A","7034900","2018-12-20 08:00","2018","12","20","08:00","-9.1","","-10.2","","92","","","","3","","4","","16.1","","100.75","","","","-11","","NA"
"-74.04","45.68","MONTREAL MIRABEL INTL A","7034900","2018-12-20 09:00","2018","12","20","09:00","-7.3","","-8.5","","92","","","","3","","7","","16.1","","100.78","","","","-11","","NA"
"-74.04","45.68","MONTREAL MIRABEL INTL A","7034900","2018-12-20 10:00","2018","12","20","10:00","-5.5","","-7.6","","85","","","","4","","6","","24.1","","100.86","","","","-8","","Mostly Cloudy"
"-74.04","45.68","MONTREAL MIRABEL INTL A","7034900","2018-12-20 11:00","2018","12","20","11:00","-3.7","","-6.9","","79","","","","4","","7","","16.1","","100.75","","","","-7","","NA"
"-74.04","45.68","MONTREAL MIRABEL INTL A","7034900","2018-12-20 12:00","2018","12","20","12:00","-2.7","","-6.3","","76","","","","5","","4","","16.1","","100.65","","","","-4","","NA"
"-74.04","45.68","MONTREAL MIRABEL INTL A","7034900","2018-12-20 13:00","2018","12","20","13:00","-1.5","","-5.7","","73","","","","5","","7","","19.3","","100.59","","","","-4","","Mostly Cloudy"
"-74.04","45.68","MONTREAL MIRABEL INTL A","7034900","2018-12-20 14:00","2018","12","20","14:00","-0.2","","-5.3","","68","","","","4","","5","","16.1","","100.59","","","","-2","","NA"
"-74.04","45.68","MONTREAL MIRABEL INTL A","7034900","2018-12-20 15:00","2018","12","20","15:00","-0.3","","-4.8","","72","","","","1","","6","","16.1","","100.61","","","","-2","","NA"
"-74.04","45.68","MONTREAL MIRABEL INTL A","7034900","2018-12-20 16:00","2018","12","20","16:00","-0.9","","-4.4","","77","","","","5","","7","","16.1","","100.57","","","","-3","","Mostly Cloudy"
"-74.04","45.68","MONTREAL MIRABEL INTL A","7034900","2018-12-20 17:00","2018","12","20","17:00","-1.3","","-4.9","","76","","","","3","","8","","19.3","","100.51","","","","-4","","NA"
"-74.04","45.68","MONTREAL MIRABEL INTL A","7034900","2018-12-20 18:00","2018","12","20","18:00","-1.7","","-4.8","","79","","","","6","","9","","24.1","","100.46","","","","-5","","NA"
"-74.04","45.68","MONTREAL MIRABEL INTL A","7034900","2018-12-20 19:00","2018","12","20","19:00","-1.9","","-5.2","","78","","","","5","","12","","24.1","","100.46","","","","-6","","Cloudy"
"-74.04","45.68","MONTREAL MIRABEL INTL A","7034900","2018-12-20 20:00","2018","12","20","20:00","-2.1","","-5.2","","79","","","","6","","14","","40.2","","100.35","","","","-7","","NA"
"-74.04","45.68","MONTREAL MIRABEL INTL A","7034900","2018-12-20 21:00","2018","12","20","21:00","-1.4","","-5.2","","76","","","","6","","13","","40.2","","100.32","","","","-6","","NA"
"-74.04","45.68","MONTREAL MIRABEL INTL A","7034900","2018-12-20 22:00","2018","12","20","22:00","-1.1","","-4.4","","78","","","","5","","9","","24.1","","100.28","","","","-4","","Freezing Rain"
"-74.04","45.68","MONTREAL MIRABEL INTL A","7034900","2018-12-20 23:00","2018","12","20","23:00","-1.2","","-2.5","","91","","","","4","","7","","12.9","","100.21","","","","-4","","Freezing Rain"
"-74.04","45.68","MONTREAL MIRABEL INTL A","7034900","2018-12-21 00:00","2018","12","21","00:00","-0.9","","-1.6","","95","","","","3","","10","","6.4","","100.10","","","","-4","","Freezing Rain,Fog"
"-74.04","45.68","MONTREAL MIRABEL INTL A","7034900","2018-12-21 01:00","2018","12","21","01:00","-0.6","","-1.0","","97","","","","4","","7","","8.1","","99.97","","","","-3","","Freezing Rain,Fog"
"-74.04","45.68","MONTREAL MIRABEL INTL A","7034900","2018-12-21 02:00","2018","12","21","02:00","-0.1","","-0.5","","97","","","","6","","13","","8.1","","99.91","","","","-4","","Freezing Rain,Fog"
"-74.04","45.68","MONTREAL MIRABEL INTL A","7034900","2018-12-21 03:00","2018","12","21","03:00","0.0","","-0.4","","98","","","","5","","14","","8.1","","99.83","","","","-4","","Rain,Fog"
"-74.04","45.68","MONTREAL MIRABEL INTL A","7034900","2018-12-21 04:00","2018","12","21","04:00","-0.2","","-0.5","","98","","","","7","","14","","8.1","","99.69","","","","-4","","Freezing Rain,Fog"
"-74.04","45.68","MONTREAL MIRABEL INTL A","7034900","2018-12-21 05:00","2018","12","21","05:00","-0.1","","-0.5","","97","","","","5","","14","","8.1","","99.52","","","","-4","","Freezing Rain,Fog"
"-74.04","45.68","MONTREAL MIRABEL INTL A","7034900","2018-12-21 06:00","2018","12","21","06:00","0.1","","-0.1","","98","","","","5","","17","","4.8","","99.26","","","","","","Freezing Rain,Fog"
"-74.04","45.68","MONTREAL MIRABEL INTL A","7034900","2018-12-21 07:00","2018","12","21","07:00","0.7","","0.4","","98","","","","6","","12","","6.4","","99.14","","","","","","Rain,Fog"
"-74.04","45.68","MONTREAL MIRABEL INTL A","7034900","2018-12-21 08:00","2018","12","21","08:00","1.2","","1.0","","98","","","","6","","17","","4.8","","98.95","","","","","","Rain,Fog"
"-74.04","45.68","MONTREAL MIRABEL INTL A","7034900","2018-12-21 09:00","2018","12","21","09:00","1.3","","1.0","","98","","","","7","","14","","4.8","","98.89","","","","","","Rain,Fog"
"-74.04","45.68","MONTREAL MIRABEL INTL A","7034900","2018-12-21 10:00","2018","12","21","10:00","1.7","","1.5","","99","","","","4","","8","","16.1","","98.83","","","","","","Rain"
"-74.04","45.68","MONTREAL MIRABEL INTL A","7034900","2018-12-21 11:00","2018","12","21","11:00","2.0","","1.8","","99","","","","5","","13","","9.7","","98.72","","","","","","Rain,Fog"
"-74.04","45.68","MONTREAL MIRABEL INTL A","7034900","2018-12-21 12:00","2018","12","21","12:00","2.1","","2.0","","99","","","","4","","20","","4.8","","98.60","","","","","","Rain,Fog"
"-74.04","45.68","MONTREAL MIRABEL INTL A","7034900","2018-12-21 13:00","2018","12","21","13:00","2.2","","2.1","","99","","","","6","","11","","2.4","","98.38","","","","","","Rain,Fog"
"-74.04","45.68","MONTREAL MIRABEL INTL A","7034900","2018-12-21 14:00","2018","12","21","14:00","2.5","","2.4","","99","","","","5","","10","","1.6","","98.35","","","","","","Rain,Fog"
"-74.04","45.68","MONTREAL MIRABEL INTL A","7034900","2018-12-21 15:00","2018","12","21","15:00","2.3","","2.3","","100","","","","3","","6","","0.8","","98.28","","","","","","Rain,Fog"
"-74.04","45.68","MONTREAL MIRABEL INTL A","7034900","2018-12-21 16:00","2018","12","21","16:00","2.7","","2.7","","100","","","","5","","9","","0.8","","98.24","","","","","","Rain,Fog"
"-74.04","45.68","MONTREAL MIRABEL INTL A","7034900","2018-12-21 17:00","2018","12","21","17:00","2.8","","2.8","","100","","","","6","","4","","0.8","","98.10","","","","","","Rain,Fog"
"-74.04","45.68","MONTREAL MIRABEL INTL A","7034900","2018-12-21 18:00","2018","12","21","18:00","2.6","","2.6","","100","","","","4","","13","","0.8","","98.14","","","","","","Fog"
"-74.04","45.68","MONTREAL MIRABEL INTL A","7034900","2018-12-21 19:00","2018","12","21","19:00","3.0","","3.0","","100","","","","7","","7","","0.6","","97.98","","","","","","Fog"
"-74.04","45.68","MONTREAL MIRABEL INTL A","7034900","2018-12-21 20:00","2018","12","21","20:00","3.0","","3.0","","100","","","","5","","10","","0.6","","97.81","","","","","","Fog"
"-74.04","45.68","MONTREAL MIRABEL INTL A","7034900","2018-12-21 21:00","2018","12","21","21:00","3.3","","3.3","","100","","","","5","","10","","0.8","","97.82","","","","","","Fog"
"-74.04","45.68","MONTREAL MIRABEL INTL A","7034900","2018-12-21 22:00","2018","12","21","22:00","2.8","","2.8","","100","","","","4","","8","","0.8","","97.75","","","","","","Fog"
"-74.04","45.68","MONTREAL MIRABEL INTL A","7034900","2018-12-21 23:00","2018","12","21","23:00","4.0","","4.0","","100","","","","35","","7","","0.8","","97.72","","","","","","Fog"
"-74.04","45.68","MONTREAL MIRABEL INTL A","7034900","2018-12-22 00:00","2018","12","22","00:00","3.0","","3.0","","100","","","","6","","7","","0.6","","97.60","","","","","","Fog"
"-74.04","45.68","MONTREAL MIRABEL INTL A","7034900","2018-12-22 01:00","2018","12","22","01:00","4.3","","4.3","","100","","","","2","","7","","0.8","","97.58","","","","","","Fog"
"-74.04","45.68","MONTREAL MIRABEL INTL A","7034900","2018-12-22 02:00","2018","12","22","02:00","4.3","","4.3","","100","","","","5","","7","","2.4","","97.54","","","","","","Rain,Fog"
"-74.04","45.68","MONTREAL MIRABEL INTL A","7034900","2018-12-22 03:00","2018","12","22","03:00","4.4","","4.4","","100","","","","23","","13","","1.0","","97.56","","","","","","Drizzle,Fog"
"-74.04","45.68","MONTREAL MIRABEL INTL A","7034900","2018-12-22 04:00","2018","12","22","04:00","2.5","","2.5","","100","","","","23","","18","","1.2","","97.54","","","","","","Drizzle,Fog"
"-74.04","45.68","MONTREAL MIRABEL INTL A","7034900","2018-12-22 05:00","2018","12","22","05:00","2.0","","2.0","","100","","","","22","","16","","1.0","","97.59","","","","","","Drizzle,Fog"
"-74.04","45.68","MONTREAL MIRABEL INTL A","7034900","2018-12-22 06:00","2018","12","22","06:00","2.1","","2.1","","100","","","","23","","19","","4.8","","97.66","","","","","","Rain,Fog"
"-74.04","45.68","MONTREAL MIRABEL INTL A","7034900","2018-12-22 07:00","2018","12","22","07:00","1.3","","1.3","","100","","","","24","","24","","16.1","","97.80","","","","","","Cloudy"
"-74.04","45.68","MONTREAL MIRABEL INTL A","7034900","2018-12-22 08:00","2018","12","22","08:00","0.5","","0.5","","100","","","","24","","23","","8.1","","97.93","","","","","","Drizzle,Fog"
"-74.04","45.68","MONTREAL MIRABEL INTL A","7034900","2018-12-22 09:00","2018","12","22","09:00","-0.1","","-0.4","","97","","","","25","","22","","9.7","","98.08","","","","-6","","Freezing Drizzle,Fog"
"-74.04","45.68","MONTREAL MIRABEL INTL A","7034900","2018-12-22 10:00","2018","12","22","10:00","-0.2","","-1.6","","90","","","","24","","17","","24.1","","98.25","","","","-5","","Snow"
"-74.04","45.68","MONTREAL MIRABEL INTL A","7034900","2018-12-22 11:00","2018","12","22","11:00","-0.5","","-3.7","","79","","","","27","","20","","32.2","","98.40","","","","-6","","Snow"
"-74.04","45.68","MONTREAL MIRABEL INTL A","7034900","2018-12-22 12:00","2018","12","22","12:00","-1.5","","-4.6","","79","","","","27","","15","","9.7","","98.54","","","","-6","","Snow,Fog"
"-74.04","45.68","MONTREAL MIRABEL INTL A","7034900","2018-12-22 13:00","2018","12","22","13:00","-2.0","","-4.2","","85","","","","28","","19","","6.4","","98.69","","","","-8","","Snow,Fog"
"-74.04","45.68","MONTREAL MIRABEL INTL A","7034900","2018-12-22 14:00","2018","12","22","14:00","-1.4","","-5.4","","75","","","","30","","19","","32.2","","98.83","","","","-7","","Snow"
"-74.04","45.68","MONTREAL MIRABEL INTL A","7034900","2018-12-22 15:00","2018","12","22","15:00","-2.0","","-5.1","","80","","","","28","","17","","72.4","","99.01","","","","-7","","NA"
"-74.04","45.68","MONTREAL MIRABEL INTL A","7034900","2018-12-22 16:00","2018","12","22","16:00","-2.3","","-6.0","","76","","","","28","","20","","72.4","","99.20","","","","-8","","Blowing Snow"
"-74.04","45.68","MONTREAL MIRABEL INTL A","7034900","2018-12-22 17:00","2018","12","22","17:00","-2.7","","-6.7","","74","","","","28","","18","","40.2","","99.36","","","","-8","","NA"
"-74.04","45.68","MONTREAL MIRABEL INTL A","7034900","2018-12-22 18:00","2018","12","22","18:00","-3.0","","-6.9","","75","","","","29","","11","","40.2","","99.57","","","","-7","","NA"
"-74.04","45.68","MONTREAL MIRABEL INTL A","7034900","2018-12-22 19:00","2018","12","22","19:00","-3.6","","-7.7","","73","","","","28","","16","","40.2","","99.74","","","","-9","","Cloudy"
"-74.04","45.68","MONTREAL MIRABEL INTL A","7034900","2018-12-22 20:00","2018","12","22","20:00","-4.2","","-9.3","","68","","","","30","","15","","40.2","","99.89","","","","-10","","NA"
"-74.04","45.68","MONTREAL MIRABEL INTL A","7034900","2018-12-22 21:00","2018","12","22","21:00","-5.1","","-10.0","","69","","","","28","","15","","40.2","","100.02","","","","-11","","NA"
"-74.04","45.68","MONTREAL MIRABEL INTL A","7034900","2018-12-22 22:00","2018","12","22","22:00","-5.5","","-10.9","","66","","","","31","","18","","40.2","","100.14","","","","-12","","Mostly Cloudy"
"-74.04","45.68","MONTREAL MIRABEL INTL A","7034900","2018-12-22 23:00","2018","12","22","23:00","-6.4","","-11.5","","67","","","","26","","12","","40.2","","100.25","","","","-12","","NA"
"-74.04","45.68","MONTREAL MIRABEL INTL A","7034900","2018-12-23 00:00","2018","12","23","00:00","-6.3","","-10.8","","70","","","","25","","14","","40.2","","100.34","","","","-12","","NA"
"-74.04","45.68","MONTREAL MIRABEL INTL A","7034900","2018-12-23 01:00","2018","12","23","01:00","-6.3","","-10.6","","71","","","","26","","14","","40.2","","100.41","","","","-12","","Cloudy"
"-74.04","45.68","MONTREAL MIRABEL INTL A","7034900","2018-12-23 02:00","2018","12","23","02:00","-6.7","","-11.5","","69","","","","27","","14","","40.2","","100.54","","","","-12","","NA"
"-74.04","45.68","MONTREAL MIRABEL INTL A","7034900","2018-12-23 03:00","2018","12","23","03:00","-7.0","","-11.7","","70","","","","26","","15","","40.2","","100.65","","","","-13","","NA"
"-74.04","45.68","MONTREAL MIRABEL INTL A","7034900","2018-12-23 04:00","2018","12","23","04:00","-7.8","","-10.8","","79","","","","27","","10","","40.2","","100.71","","","","-13","","Mostly Cloudy"
"-74.04","45.68","MONTREAL MIRABEL INTL A","7034900","2018-12-23 05:00","2018","12","23","05:00","-9.0","","-11.7","","80","","","","25","","16","","40.2","","100.74","","","","-16","","NA"
"-74.04","45.68","MONTREAL MIRABEL INTL A","7034900","2018-12-23 06:00","2018","12","23","06:00","-9.9","","-12.6","","81","","","","25","","11","","40.2","","100.85","","","","-15","","NA"
"-74.04","45.68","MONTREAL MIRABEL INTL A","7034900","2018-12-23 07:00","2018","12","23","07:00","-10.5","","-13.2","","81","","","","25","","14","","40.2","","100.92","","","","-17","","Mainly Clear"
"-74.04","45.68","MONTREAL MIRABEL INTL A","7034900","2018-12-23 08:00","2018","12","23","08:00","-10.8","","-13.4","","81","","","","25","","13","","72.4","","100.96","","","","-17","","NA"
"-74.04","45.68","MONTREAL MIRABEL INTL A","7034900","2018-12-23 09:00","2018","12","23","09:00","-10.1","","-13.2","","78","","","","24","","13","","72.4","","101.06","","","","-16","","Snow"
"-74.04","45.68","MONTREAL MIRABEL INTL A","7034900","2018-12-23 10:00","2018","12","23","10:00","-9.6","","-13.2","","75","","","","24","","12","","72.4","","101.12","","","","-15","","Mainly Clear"
"-74.04","45.68","MONTREAL MIRABEL INTL A","7034900","2018-12-23 11:00","2018","12","23","11:00","-8.6","","-12.8","","72","","","","24","","15","","72.4","","101.08","","","","-15","","NA"
"-74.04","45.68","MONTREAL MIRABEL INTL A","7034900","2018-12-23 12:00","2018","12","23","12:00","-8.3","","-12.6","","71","","","","24","","16","","72.4","","101.03","","","","-15","","NA"
"-74.04","45.68","MONTREAL MIRABEL INTL A","7034900","2018-12-23 13:00","2018","12","23","13:00","-7.9","","-12.6","","69","","","","24","","17","","72.4","","100.99","","","","-15","","Mainly Clear"
"-74.04","45.68","MONTREAL MIRABEL INTL A","7034900","2018-12-23 14:00","2018","12","23","14:00","-7.8","","-12.5","","70","","","","21","","13","","72.4","","100.97","","","","-14","","NA"
"-74.04","45.68","MONTREAL MIRABEL INTL A","7034900","2018-12-23 15:00","2018","12","23","15:00","-7.8","","-12.5","","69","","","","22","","16","","72.4","","101.02","","","","-14","","NA"
"-74.04","45.68","MONTREAL MIRABEL INTL A","7034900","2018-12-23 16:00","2018","12","23","16:00","-8.3","","-12.6","","71","","","","23","","14","","56.3","","101.02","","","","-14","","Mainly Clear"
"-74.04","45.68","MONTREAL MIRABEL INTL A","7034900","2018-12-23 17:00","2018","12","23","17:00","-9.0","","-12.4","","76","","","","23","","9","","40.2","","101.02","","","","-14","","NA"
"-74.04","45.68","MONTREAL MIRABEL INTL A","7034900","2018-12-23 18:00","2018","12","23","18:00","-9.4","","-12.4","","78","","","","24","","10","","40.2","","101.00","","","","-15","","NA"
"-74.04","45.68","MONTREAL MIRABEL INTL A","7034900","2018-12-23 19:00","2018","12","23","19:00","-10.0","","-12.6","","82","","","","26","","6","","40.2","","100.99","","","","-14","","Mainly Clear"
"-74.04","45.68","MONTREAL MIRABEL INTL A","7034900","2018-12-23 20:00","2018","12","23","20:00","-10.6","","-12.7","","85","","","","24","","5","","40.2","","100.95","","","","-14","","NA"
"-74.04","45.68","MONTREAL MIRABEL INTL A","7034900","2018-12-23 21:00","2018","12","23","21:00","-10.7","","-12.7","","85","","","","24","","6","","40.2","","100.98","","","","-14","","NA"
"-74.04","45.68","MONTREAL MIRABEL INTL A","7034900","2018-12-23 22:00","2018","12","23","22:00","-10.8","","-12.5","","87","","","","25","","5","","40.2","","100.95","","","","-14","","Mostly Cloudy"
"-74.04","45.68","MONTREAL MIRABEL INTL A","7034900","2018-12-23 23:00","2018","12","23","23:00","-10.7","","-12.2","","89","","","","","","0","","40.2","","100.96","","","","","","NA"
"-74.04","45.68","MONTREAL MIRABEL INTL A","7034900","2018-12-24 00:00","2018","12","24","00:00","-10.4","","-12.1","","88","","","","25","","3","","40.2","","100.95","","","","-12","","NA"
"-74.04","45.68","MONTREAL MIRABEL INTL A","7034900","2018-12-24 01:00","2018","12","24","01:00","-10.9","","-12.2","","90","","","","31","","4","","40.2","","100.92","","","","-13","","Mostly Cloudy"
"-74.04","45.68","MONTREAL MIRABEL INTL A","7034900","2018-12-24 02:00","2018","12","24","02:00","-12.1","","-13.4","","90","","","","","","0","","40.2","","100.90","","","","","","NA"
"-74.04","45.68","MONTREAL MIRABEL INTL A","7034900","2018-12-24 03:00","2018","12","24","03:00","-12.8","","-13.9","","92","","","","17","","4","","40.2","","100.89","","","","-15","","NA"
"-74.04","45.68","MONTREAL MIRABEL INTL A","7034900","2018-12-24 04:00","2018","12","24","04:00","-12.6","","-13.7","","92","","","","","","0","","40.2","","100.81","","","","","","Mostly Cloudy"
"-74.04","45.68","MONTREAL MIRABEL INTL A","7034900","2018-12-24 05:00","2018","12","24","05:00","-12.3","","-13.7","","90","","","","1","","5","","40.2","","100.79","","","","-16","","NA"
"-74.04","45.68","MONTREAL MIRABEL INTL A","7034900","2018-12-24 06:00","2018","12","24","06:00","-12.6","","-13.9","","90","","","","3","","3","","40.2","","100.80","","","","-15","","NA"
"-74.04","45.68","MONTREAL MIRABEL INTL A","7034900","2018-12-24 07:00","2018","12","24","07:00","-10.6","","-12.8","","84","","","","5","","3","","40.2","","100.81","","","","-12","","Mostly Cloudy"
"-74.04","45.68","MONTREAL MIRABEL INTL A","7034900","2018-12-24 08:00","2018","12","24","08:00","-10.5","","-12.7","","84","","","","7","","4","","40.2","","100.82","","","","-13","","NA"
"-74.04","45.68","MONTREAL MIRABEL INTL A","7034900","2018-12-24 09:00","2018","12","24","09:00","-10.2","","-13.2","","79","","","","6","","8","","40.2","","100.83","","","","-15","","NA"
"-74.04","45.68","MONTREAL MIRABEL INTL A","7034900","2018-12-24 10:00","2018","12","24","10:00","-9.8","","-12.7","","80","","","","5","","6","","40.2","","100.81","","","","-13","","Cloudy"
"-74.04","45.68","MONTREAL MIRABEL INTL A","7034900","2018-12-24 11:00","2018","12","24","11:00","-9.2","","-12.0","","80","","","","7","","5","","32.2","","100.76","","","","-12","","NA"
"-74.04","45.68","MONTREAL MIRABEL INTL A","7034900","2018-12-24 12:00","2018","12","24","12:00","-9.1","","-11.9","","80","","","","5","","7","","40.2","","100.68","","","","-13","","NA"
"-74.04","45.68","MONTREAL MIRABEL INTL A","7034900","2018-12-24 13:00","2018","12","24","13:00","-8.5","","-11.7","","78","","","","6","","4","","32.2","","100.64","","","","-11","","Mostly Cloudy"
"-74.04","45.68","MONTREAL MIRABEL INTL A","7034900","2018-12-24 14:00","2018","12","24","14:00","-8.1","","-11.9","","75","","","","12","","4","","40.2","","100.65","","","","-10","","NA"
"-74.04","45.68","MONTREAL MIRABEL INTL A","7034900","2018-12-24 15:00","2018","12","24","15:00","-7.8","","-11.7","","74","","","","24","","3","","32.2","","100.70","","","","-9","","NA"
"-74.04","45.68","MONTREAL MIRABEL INTL A","7034900","2018-12-24 16:00","2018","12","24","16:00","-7.6","","-11.2","","76","","","","21","","5","","32.2","","100.70","","","","-10","","Cloudy"
"-74.04","45.68","MONTREAL MIRABEL INTL A","7034900","2018-12-24 17:00","2018","12","24","17:00","-7.6","","-10.7","","78","","","","21","","5","","40.2","","100.74","","","","-10","","NA"
"-74.04","45.68","MONTREAL MIRABEL INTL A","7034900","2018-12-24 18:00","2018","12","24","18:00","-7.4","","-10.2","","81","","","","","","0","","40.2","","100.72","","","","","","NA"
"-74.04","45.68","MONTREAL MIRABEL INTL A","7034900","2018-12-24 19:00","2018","12","24","19:00","-8.2","","-10.3","","85","","","","7","","3","","40.2","","100.81","","","","-10","","Mainly Clear"
"-74.04","45.68","MONTREAL MIRABEL INTL A","7034900","2018-12-24 20:00","2018","12","24","20:00","-8.6","","-10.6","","86","","","","3","","4","","40.2","","100.87","","","","-11","","NA"
"-74.04","45.68","MONTREAL MIRABEL INTL A","7034900","2018-12-24 21:00","2018","12","24","21:00","-9.8","","-11.5","","88","","","","36","","4","","40.2","","100.91","","","","-12","","NA"
"-74.04","45.68","MONTREAL MIRABEL INTL A","7034900","2018-12-24 22:00","2018","12","24","22:00","-10.4","","-12.9","","82","","","","33","","8","","40.2","","100.95","","","","-15","","Mostly Cloudy"
"-74.04","45.68","MONTREAL MIRABEL INTL A","7034900","2018-12-24 23:00","2018","12","24","23:00","-11.1","","-13.9","","80","","","","30","","5","","40.2","","101.00","","","","-14","","NA"
"-74.04","45.68","MONTREAL MIRABEL INTL A","7034900","2018-12-25 00:00","2018","12","25","00:00","-11.7","","-14.7","","79","","","","30","","4","","40.2","","101.04","","","","-14","","NA"
"-74.04","45.68","MONTREAL MIRABEL INTL A","7034900","2018-12-25 01:00","2018","12","25","01:00","-13.0","","-15.1","","85","","","","26","","5","","40.2","","101.10","","","","-16","","Mainly Clear"
"-74.04","45.68","MONTREAL MIRABEL INTL A","7034900","2018-12-25 02:00","2018","12","25","02:00","-13.9","","-15.7","","87","","","","26","","4","","40.2","","101.20","","","","-17","","NA"
"-74.04","45.68","MONTREAL MIRABEL INTL A","7034900","2018-12-25 03:00","2018","12","25","03:00","-14.1","","-16.0","","86","","","","25","","5","","40.2","","101.27","","","","-18","","NA"
"-74.04","45.68","MONTREAL MIRABEL INTL A","7034900","2018-12-25 04:00","2018","12","25","04:00","-14.7","","-16.6","","85","","","","27","","7","","40.2","","101.30","","","","-19","","Mainly Clear"
"-74.04","45.68","MONTREAL MIRABEL INTL A","7034900","2018-12-25 05:00","2018","12","25","05:00","-15.2","","-16.9","","87","","","","27","","8","","40.2","","101.33","","","","-21","","NA"
"-74.04","45.68","MONTREAL MIRABEL INTL A","7034900","2018-12-25 06:00","2018","12","25","06:00","-15.2","","-17.4","","83","","","","27","","3","","40.2","","101.42","","","","-17","","NA"
"-74.04","45.68","MONTREAL MIRABEL INTL A","7034900","2018-12-25 07:00","2018","12","25","07:00","-15.8","","-18.3","","82","","","","27","","5","","72.4","","101.43","","","","-20","","Clear"
"-74.04","45.68","MONTREAL MIRABEL INTL A","7034900","2018-12-25 08:00","2018","12","25","08:00","-16.0","","-18.4","","82","","","","27","","6","","72.4","","101.53","","","","-20","","NA"
"-74.04","45.68","MONTREAL MIRABEL INTL A","7034900","2018-12-25 09:00","2018","12","25","09:00","-14.9","","-18.0","","78","","","","24","","9","","72.4","","101.62","","","","-21","","NA"
"-74.04","45.68","MONTREAL MIRABEL INTL A","7034900","2018-12-25 10:00","2018","12","25","10:00","-13.8","","-17.8","","72","","","","25","","8","","72.4","","101.66","","","","-19","","Clear"
"-74.04","45.68","MONTREAL MIRABEL INTL A","7034900","2018-12-25 11:00","2018","12","25","11:00","-12.8","","-17.6","","67","","","","22","","14","","72.4","","101.65","","","","-20","","NA"
"-74.04","45.68","MONTREAL MIRABEL INTL A","7034900","2018-12-25 12:00","2018","12","25","12:00","-11.9","","-17.2","","65","","","","23","","14","","72.4","","101.56","","","","-19","","NA"
"-74.04","45.68","MONTREAL MIRABEL INTL A","7034900","2018-12-25 13:00","2018","12","25","13:00","-10.7","","-16.2","","64","","","","22","","13","","72.4","","101.55","","","","-17","","Clear"
"-74.04","45.68","MONTREAL MIRABEL INTL A","7034900","2018-12-25 14:00","2018","12","25","14:00","-10.0","","-15.8","","62","","","","24","","10","","72.4","","101.57","","","","-15","","NA"
"-74.04","45.68","MONTREAL MIRABEL INTL A","7034900","2018-12-25 15:00","2018","12","25","15:00","-9.7","","-15.8","","61","","","","24","","16","","72.4","","101.60","","","","-17","","NA"
"-74.04","45.68","MONTREAL MIRABEL INTL A","7034900","2018-12-25 16:00","2018","12","25","16:00","-10.2","","-15.3","","67","","","","23","","11","","72.4","","101.60","","","","-16","","Clear"
"-74.04","45.68","MONTREAL MIRABEL INTL A","7034900","2018-12-25 17:00","2018","12","25","17:00","-11.0","","-15.5","","69","","","","24","","11","","40.2","","101.63","","","","-17","","NA"
"-74.04","45.68","MONTREAL MIRABEL INTL A","7034900","2018-12-25 18:00","2018","12","25","18:00","-11.6","","-15.4","","74","","","","24","","14","","40.2","","101.66","","","","-18","","NA"
"-74.04","45.68","MONTREAL MIRABEL INTL A","7034900","2018-12-25 19:00","2018","12","25","19:00","-12.2","","-15.5","","76","","","","24","","11","","40.2","","101.68","","","","-18","","Clear"
"-74.04","45.68","MONTREAL MIRABEL INTL A","7034900","2018-12-25 20:00","2018","12","25","20:00","-12.6","","-15.7","","78","","","","23","","10","","40.2","","101.69","","","","-18","","NA"
"-74.04","45.68","MONTREAL MIRABEL INTL A","7034900","2018-12-25 21:00","2018","12","25","21:00","-12.9","","-16.1","","77","","","","24","","12","","40.2","","101.71","","","","-19","","NA"
"-74.04","45.68","MONTREAL MIRABEL INTL A","7034900","2018-12-25 22:00","2018","12","25","22:00","-13.2","","-16.2","","79","","","","25","","11","","40.2","","101.72","","","","-19","","Mainly Clear"
"-74.04","45.68","MONTREAL MIRABEL INTL A","7034900","2018-12-25 23:00","2018","12","25","23:00","-13.3","","-16.0","","80","","","","25","","9","","40.2","","101.70","","","","-19","","NA"
"-74.04","45.68","MONTREAL MIRABEL INTL A","7034900","2018-12-26 00:00","2018","12","26","00:00","-13.0","","-15.6","","81","","","","24","","9","","40.2","","101.68","","","","-18","","NA"
"-74.04","45.68","MONTREAL MIRABEL INTL A","7034900","2018-12-26 01:00","2018","12","26","01:00","-12.9","","-15.3","","82","","","","24","","9","","40.2","","101.70","","","","-18","","Cloudy"
"-74.04","45.68","MONTREAL MIRABEL INTL A","7034900","2018-12-26 02:00","2018","12","26","02:00","-13.0","","-15.5","","82","","","","25","","11","","40.2","","101.73","","","","-19","","NA"
"-74.04","45.68","MONTREAL MIRABEL INTL A","7034900","2018-12-26 03:00","2018","12","26","03:00","-13.4","","-15.9","","82","","","","26","","10","","40.2","","101.75","","","","-19","","NA"
"-74.04","45.68","MONTREAL MIRABEL INTL A","7034900","2018-12-26 04:00","2018","12","26","04:00","-13.8","","-16.2","","83","","","","25","","8","","40.2","","101.77","","","","-19","","Clear"
"-74.04","45.68","MONTREAL MIRABEL INTL A","7034900","2018-12-26 05:00","2018","12","26","05:00","-14.4","","-16.1","","87","","","","25","","9","","40.2","","101.84","","","","-20","","NA"
"-74.04","45.68","MONTREAL MIRABEL INTL A","7034900","2018-12-26 06:00","2018","12","26","06:00","-14.6","","-16.2","","87","","","","25","","8","","40.2","","101.86","","","","-20","","NA"
"-74.04","45.68","MONTREAL MIRABEL INTL A","7034900","2018-12-26 07:00","2018","12","26","07:00","-13.8","","-15.7","","86","","","","25","","7","","40.2","","101.88","","","","-18","","Mostly Cloudy"
"-74.04","45.68","MONTREAL MIRABEL INTL A","7034900","2018-12-26 08:00","2018","12","26","08:00","-13.2","","-15.2","","85","","","","22","","9","","72.4","","101.93","","","","-19","","NA"
"-74.04","45.68","MONTREAL MIRABEL INTL A","7034900","2018-12-26 09:00","2018","12","26","09:00","-11.7","","-14.1","","82","","","","25","","10","","72.4","","101.98","","","","-17","","Snow"
"-74.04","45.68","MONTREAL MIRABEL INTL A","7034900","2018-12-26 10:00","2018","12","26","10:00","-10.2","","-13.1","","80","","","","24","","10","","72.4","","101.97","","","","-15","","Mostly Cloudy"
"-74.04","45.68","MONTREAL MIRABEL INTL A","7034900","2018-12-26 11:00","2018","12","26","11:00","-9.1","","-12.2","","78","","","","25","","7","","72.4","","101.94","","","","-13","","NA"
"-74.04","45.68","MONTREAL MIRABEL INTL A","7034900","2018-12-26 12:00","2018","12","26","12:00","-7.5","","-11.5","","73","","","","22","","10","","40.2","","101.83","","","","-12","","Snow"
"-74.04","45.68","MONTREAL MIRABEL INTL A","7034900","2018-12-26 13:00","2018","12","26","13:00","-6.5","","-11.0","","71","","","","24","","11","","40.2","","101.80","","","","-11","","Snow"
"-74.04","45.68","MONTREAL MIRABEL INTL A","7034900","2018-12-26 14:00","2018","12","26","14:00","-5.9","","-10.5","","70","","","","24","","13","","24.1","","101.83","","","","-11","","Snow"
"-74.04","45.68","MONTREAL MIRABEL INTL A","7034900","2018-12-26 15:00","2018","12","26","15:00","-5.8","","-10.8","","68","","","","25","","12","","40.2","","101.84","","","","-11","","Snow"
"-74.04","45.68","MONTREAL MIRABEL INTL A","7034900","2018-12-26 16:00","2018","12","26","16:00","-5.8","","-10.1","","72","","","","23","","7","","32.2","","101.85","","","","-9","","Snow"
"-74.04","45.68","MONTREAL MIRABEL INTL A","7034900","2018-12-26 17:00","2018","12","26","17:00","-6.3","","-8.0","","87","","","","25","","7","","40.2","","101.87","","","","-10","","Snow"
"-74.04","45.68","MONTREAL MIRABEL INTL A","7034900","2018-12-26 18:00","2018","12","26","18:00","-6.1","","-7.7","","88","","","","25","","7","","40.2","","101.91","","","","-9","","Snow"
"-74.04","45.68","MONTREAL MIRABEL INTL A","7034900","2018-12-26 19:00","2018","12","26","19:00","-5.8","","-8.0","","85","","","","26","","8","","40.2","","101.97","","","","-10","","Cloudy"
"-74.04","45.68","MONTREAL MIRABEL INTL A","7034900","2018-12-26 20:00","2018","12","26","20:00","-5.9","","-10.4","","71","","","","32","","11","","40.2","","102.07","","","","-11","","NA"
"-74.04","45.68","MONTREAL MIRABEL INTL A","7034900","2018-12-26 21:00","2018","12","26","21:00","-7.2","","-12.2","","68","","","","32","","12","","40.2","","102.15","","","","-13","","NA"
"-74.04","45.68","MONTREAL MIRABEL INTL A","7034900","2018-12-26 22:00","2018","12","26","22:00","-8.2","","-12.7","","71","","","","32","","9","","40.2","","102.21","","","","-13","","Mainly Clear"
"-74.04","45.68","MONTREAL MIRABEL INTL A","7034900","2018-12-26 23:00","2018","12","26","23:00","-9.6","","-13.6","","73","","","","35","","4","","40.2","","102.33","","","","-12","","NA"
"-74.04","45.68","MONTREAL MIRABEL INTL A","7034900","2018-12-27 00:00","2018","12","27","00:00","-11.0","","-14.3","","77","","","","28","","5","","40.2","","102.43","","","","-14","","NA"
"-74.04","45.68","MONTREAL MIRABEL INTL A","7034900","2018-12-27 01:00","2018","12","27","01:00","-11.6","","-14.3","","81","","","","31","","4","","40.2","","102.53","","","","-14","","Mainly Clear"
"-74.04","45.68","MONTREAL MIRABEL INTL A","7034900","2018-12-27 02:00","2018","12","27","02:00","-13.2","","-14.8","","88","","","","","","0","","40.2","","102.60","","","","","","NA"
"-74.04","45.68","MONTREAL MIRABEL INTL A","7034900","2018-12-27 03:00","2018","12","27","03:00","-13.7","","-15.5","","87","","","","34","","3","","40.2","","102.66","","","","-16","","NA"
"-74.04","45.68","MONTREAL MIRABEL INTL A","7034900","2018-12-27 04:00","2018","12","27","04:00","-14.0","","-16.5","","82","","","","1","","4","","40.2","","102.67","","","","-17","","Mainly Clear"
"-74.04","45.68","MONTREAL MIRABEL INTL A","7034900","2018-12-27 05:00","2018","12","27","05:00","-14.7","","-17.6","","78","","","","8","","4","","40.2","","102.72","","","","-18","","NA"
"-74.04","45.68","MONTREAL MIRABEL INTL A","7034900","2018-12-27 06:00","2018","12","27","06:00","-15.1","","-17.6","","81","","","","17","","4","","40.2","","102.90","","","","-18","","NA"
"-74.04","45.68","MONTREAL MIRABEL INTL A","7034900","2018-12-27 07:00","2018","12","27","07:00","-16.6","","-18.3","","86","","","","","","0","","40.2","","102.99","","","","","","Clear"
"-74.04","45.68","MONTREAL MIRABEL INTL A","7034900","2018-12-27 08:00","2018","12","27","08:00","-16.3","","-17.9","","87","","","","20","","4","","72.4","","102.99","","","","-19","","NA"
"-74.04","45.68","MONTREAL MIRABEL INTL A","7034900","2018-12-27 09:00","2018","12","27","09:00","-14.6","","-16.9","","83","","","","","","0","","72.4","","103.06","","","","","","NA"
"-74.04","45.68","MONTREAL MIRABEL INTL A","7034900","2018-12-27 10:00","2018","12","27","10:00","-13.2","","-16.9","","74","","","","1","","4","","72.4","","103.04","","","","-16","","Mostly Cloudy"
"-74.04","45.68","MONTREAL MIRABEL INTL A","7034900","2018-12-27 11:00","2018","12","27","11:00","-12.0","","-16.6","","69","","","","2","","4","","40.2","","102.95","","","","-15","","NA"
"-74.04","45.68","MONTREAL MIRABEL INTL A","7034900","2018-12-27 12:00","2018","12","27","12:00","-10.6","","-15.8","","66","","","","7","","5","","40.2","","102.88","","","","-14","","NA"
"-74.04","45.68","MONTREAL MIRABEL INTL A","7034900","2018-12-27 13:00","2018","12","27","13:00","-9.8","","-15.2","","65","","","","8","","9","","56.3","","102.79","","","","-15","","Mostly Cloudy"
"-74.04","45.68","MONTREAL MIRABEL INTL A","7034900","2018-12-27 14:00","2018","12","27","14:00","-9.1","","-15.6","","60","","","","8","","7","","32.2","","102.79","","","","-13","","NA"
"-74.04","45.68","MONTREAL MIRABEL INTL A","7034900","2018-12-27 15:00","2018","12","27","15:00","-9.3","","-15.0","","64","","","","8","","11","","48.3","","102.80","","","","-15","","NA"
"-74.04","45.68","MONTREAL MIRABEL INTL A","7034900","2018-12-27 16:00","2018","12","27","16:00","-9.9","","-15.0","","66","","","","6","","8","","64.4","","102.80","","","","-14","","Mostly Cloudy"
"-74.04","45.68","MONTREAL MIRABEL INTL A","7034900","2018-12-27 17:00","2018","12","27","17:00","-10.1","","-14.8","","69","","","","6","","9","","40.2","","102.73","","","","-15","","NA"
"-74.04","45.68","MONTREAL MIRABEL INTL A","7034900","2018-12-27 18:00","2018","12","27","18:00","-10.3","","-14.7","","71","","","","6","","8","","40.2","","102.71","","","","-15","","NA"
"-74.04","45.68","MONTREAL MIRABEL INTL A","7034900","2018-12-27 19:00","2018","12","27","19:00","-10.7","","-15.0","","71","","","","7","","12","","40.2","","102.58","","","","-17","","Cloudy"
"-74.04","45.68","MONTREAL MIRABEL INTL A","7034900","2018-12-27 20:00","2018","12","27","20:00","-11.3","","-15.3","","72","","","","6","","14","","40.2","","102.44","","","","-18","","NA"
"-74.04","45.68","MONTREAL MIRABEL INTL A","7034900","2018-12-27 21:00","2018","12","27","21:00","-11.7","","-15.8","","72","","","","6","","16","","40.2","","102.21","","","","-19","","NA"
"-74.04","45.68","MONTREAL MIRABEL INTL A","7034900","2018-12-27 22:00","2018","12","27","22:00","-11.7","","-15.5","","74","","","","6","","18","","40.2","","102.03","","","","-20","","Cloudy"
"-74.04","45.68","MONTREAL MIRABEL INTL A","7034900","2018-12-27 23:00","2018","12","27","23:00","-11.6","","-14.7","","78","","","","6","","18","","40.2","","101.89","","","","-19","","NA"
"-74.04","45.68","MONTREAL MIRABEL INTL A","7034900","2018-12-28 00:00","2018","12","28","00:00","-11.2","","-14.5","","77","","","","6","","17","","40.2","","101.76","","","","-19","","NA"
"-74.04","45.68","MONTREAL MIRABEL INTL A","7034900","2018-12-28 01:00","2018","12","28","01:00","-11.0","","-14.2","","77","","","","5","","19","","40.2","","101.60","","","","-19","","Cloudy"
"-74.04","45.68","MONTREAL MIRABEL INTL A","7034900","2018-12-28 02:00","2018","12","28","02:00","-11.1","","-12.7","","88","","","","6","","15","","1.6","","101.48","","","","-18","","Snow,Blowing Snow"
"-74.04","45.68","MONTREAL MIRABEL INTL A","7034900","2018-12-28 03:00","2018","12","28","03:00","-10.8","","-12.4","","89","","","","5","","17","","1.6","","101.26","","","","-18","","Snow,Blowing Snow"
"-74.04","45.68","MONTREAL MIRABEL INTL A","7034900","2018-12-28 04:00","2018","12","28","04:00","-10.8","","-12.2","","90","","","","3","","11","","2.0","","101.07","","","","-17","","Snow,Blowing Snow"
"-74.04","45.68","MONTREAL MIRABEL INTL A","7034900","2018-12-28 05:00","2018","12","28","05:00","-9.6","","-11.0","","89","","","","5","","16","","9.7","","100.86","","","","-16","","Freezing Rain,Snow,Ice Pellets,Blowing Snow"
"-74.04","45.68","MONTREAL MIRABEL INTL A","7034900","2018-12-28 06:00","2018","12","28","06:00","-8.7","","-9.6","","93","","","","4","","9","","1.6","","100.72","","","","-13","","Freezing Drizzle,Snow,Ice Pellets"
"-74.04","45.68","MONTREAL MIRABEL INTL A","7034900","2018-12-28 07:00","2018","12","28","07:00","-6.2","","-6.9","","95","","","","6","","15","","1.6","","100.63","","","","-12","","Freezing Drizzle,Snow,Ice Pellets"
"-74.04","45.68","MONTREAL MIRABEL INTL A","7034900","2018-12-28 08:00","2018","12","28","08:00","-5.5","","-6.1","","96","","","","4","","12","","3.2","","100.56","","","","-10","","Freezing Drizzle,Fog"
"-74.04","45.68","MONTREAL MIRABEL INTL A","7034900","2018-12-28 09:00","2018","12","28","09:00","-4.5","","-5.0","","97","","","","4","","11","","3.2","","100.45","","","","-9","","Freezing Drizzle,Fog"
"-74.04","45.68","MONTREAL MIRABEL INTL A","7034900","2018-12-28 10:00","2018","12","28","10:00","-3.5","","-3.9","","97","","","","3","","5","","1.6","","100.35","","","","-6","","Freezing Drizzle,Fog"
"-74.04","45.68","MONTREAL MIRABEL INTL A","7034900","2018-12-28 11:00","2018","12","28","11:00","-2.7","","-3.0","","98","","","","4","","8","","3.2","","100.20","","","","-6","","Freezing Drizzle,Fog"
"-74.04","45.68","MONTREAL MIRABEL INTL A","7034900","2018-12-28 12:00","2018","12","28","12:00","-1.9","","-2.2","","98","","","","2","","7","","1.6","","100.02","","","","-5","","Freezing Drizzle,Fog"
"-74.04","45.68","MONTREAL MIRABEL INTL A","7034900","2018-12-28 13:00","2018","12","28","13:00","-1.4","","-1.6","","98","","","","4","","9","","1.6","","99.92","","","","-5","","Freezing Drizzle,Fog"
"-74.04","45.68","MONTREAL MIRABEL INTL A","7034900","2018-12-28 14:00","2018","12","28","14:00","-0.8","","-1.0","","98","","","","4","","10","","2.0","","99.82","","","","-4","","Freezing Drizzle,Fog"
"-74.04","45.68","MONTREAL MIRABEL INTL A","7034900","2018-12-28 15:00","2018","12","28","15:00","-0.4","","-0.6","","99","","","","2","","8","","2.0","","99.81","","","","-3","","Freezing Drizzle,Fog"
"-74.04","45.68","MONTREAL MIRABEL INTL A","7034900","2018-12-28 16:00","2018","12","28","16:00","-0.3","","-0.5","","99","","","","5","","8","","1.6","","99.73","","","","-3","","Freezing Drizzle,Fog"
"-74.04","45.68","MONTREAL MIRABEL INTL A","7034900","2018-12-28 17:00","2018","12","28","17:00","-0.1","","-0.2","","99","","","","2","","7","","1.6","","99.63","","","","-3","","Freezing Drizzle,Fog"
"-74.04","45.68","MONTREAL MIRABEL INTL A","7034900","2018-12-28 18:00","2018","12","28","18:00","0.0","","-0.1","","100","","","","3","","4","","1.6","","99.60","","","","-1","","Freezing Drizzle,Fog"
"-74.04","45.68","MONTREAL MIRABEL INTL A","7034900","2018-12-28 19:00","2018","12","28","19:00","0.0","","0.0","","100","","","","2","","5","","2.4","","99.56","","","","-2","","Freezing Drizzle,Fog"
"-74.04","45.68","MONTREAL MIRABEL INTL A","7034900","2018-12-28 20:00","2018","12","28","20:00","0.1","","0.1","","100","","","","","","0","","3.2","","99.51","","","","","","Freezing Drizzle,Fog"
"-74.04","45.68","MONTREAL MIRABEL INTL A","7034900","2018-12-28 21:00","2018","12","28","21:00","0.0","","0.0","","100","","","","3","","4","","2.4","","99.44","","","","-1","","Rain,Fog"
"-74.04","45.68","MONTREAL MIRABEL INTL A","7034900","2018-12-28 22:00","2018","12","28","22:00","0.0","","0.0","","100","","","","","","0","","1.6","","99.39","","","","","","Drizzle,Fog"
"-74.04","45.68","MONTREAL MIRABEL INTL A","7034900","2018-12-28 23:00","2018","12","28","23:00","0.0","","0.0","","100","","","","35","","3","","1.0","","99.36","","","","-1","","Fog"
"-74.04","45.68","MONTREAL MIRABEL INTL A","7034900","2018-12-29 00:00","2018","12","29","00:00","0.2","","0.2","","100","","","","","","0","","0.6","","99.31","","","","","","Fog"
"-74.04","45.68","MONTREAL MIRABEL INTL A","7034900","2018-12-29 01:00","2018","12","29","01:00","0.0","","0.0","","100","","","","","","0","","0.4","","99.25","","","","","","Fog"
"-74.04","45.68","MONTREAL MIRABEL INTL A","7034900","2018-12-29 02:00","2018","12","29","02:00","0.2","","0.2","","100","","","","","","0","","0.6","","99.24","","","","","","Fog"
"-74.04","45.68","MONTREAL MIRABEL INTL A","7034900","2018-12-29 03:00","2018","12","29","03:00","0.2","","0.2","","100","","","","19","","3","","0.6","","99.19","","","","","","Fog"
"-74.04","45.68","MONTREAL MIRABEL INTL A","7034900","2018-12-29 04:00","2018","12","29","04:00","1.0","","1.0","","100","","","","24","","8","","1.2","","99.22","","","","","","Rain,Fog"
"-74.04","45.68","MONTREAL MIRABEL INTL A","7034900","2018-12-29 05:00","2018","12","29","05:00","2.8","","2.8","","100","","","","26","","14","","24.1","","99.38","","","","","","Rain"
"-74.04","45.68","MONTREAL MIRABEL INTL A","7034900","2018-12-29 06:00","2018","12","29","06:00","1.6","","0.1","","90","","","","27","","16","","40.2","","99.67","","","","","","NA"
"-74.04","45.68","MONTREAL MIRABEL INTL A","7034900","2018-12-29 07:00","2018","12","29","07:00","-0.3","","-3.1","","81","","","","29","","16","","40.2","","99.99","","","","-5","","Cloudy"
"-74.04","45.68","MONTREAL MIRABEL INTL A","7034900","2018-12-29 08:00","2018","12","29","08:00","-2.2","","-5.2","","80","","","","28","","13","","40.2","","100.19","","","","-7","","NA"
"-74.04","45.68","MONTREAL MIRABEL INTL A","7034900","2018-12-29 09:00","2018","12","29","09:00","-3.3","","-7.2","","74","","","","30","","17","","40.2","","100.40","","","","-9","","NA"
"-74.04","45.68","MONTREAL MIRABEL INTL A","7034900","2018-12-29 10:00","2018","12","29","10:00","-4.7","","-9.0","","72","","","","30","","12","","40.2","","100.58","","","","-9","","Cloudy"
"-74.04","45.68","MONTREAL MIRABEL INTL A","7034900","2018-12-29 11:00","2018","12","29","11:00","-5.8","","-10.6","","69","","","","30","","10","","40.2","","100.63","","","","-10","","NA"
"-74.04","45.68","MONTREAL MIRABEL INTL A","7034900","2018-12-29 12:00","2018","12","29","12:00","-5.9","","-11.7","","64","","","","31","","22","","40.2","","100.70","","","","-13","","NA"
"-74.04","45.68","MONTREAL MIRABEL INTL A","7034900","2018-12-29 13:00","2018","12","29","13:00","-6.3","","-12.8","","60","","","","30","","10","","72.4","","100.79","","","","-11","","Mainly Clear"
"-74.04","45.68","MONTREAL MIRABEL INTL A","7034900","2018-12-29 14:00","2018","12","29","14:00","-6.8","","-13.3","","60","","","","30","","16","","40.2","","100.91","","","","-13","","NA"
"-74.04","45.68","MONTREAL MIRABEL INTL A","7034900","2018-12-29 15:00","2018","12","29","15:00","-7.0","","-13.6","","60","","","","33","","15","","40.2","","101.01","","","","-13","","NA"
"-74.04","45.68","MONTREAL MIRABEL INTL A","7034900","2018-12-29 16:00","2018","12","29","16:00","-8.7","","-14.3","","64","","","","30","","14","","40.2","","101.12","","","","-15","","Mostly Cloudy"
"-74.04","45.68","MONTREAL MIRABEL INTL A","7034900","2018-12-29 17:00","2018","12","29","17:00","-10.0","","-14.9","","68","","","","30","","8","","40.2","","101.24","","","","-14","","NA"
"-74.04","45.68","MONTREAL MIRABEL INTL A","7034900","2018-12-29 18:00","2018","12","29","18:00","-11.0","","-15.1","","72","","","","31","","10","","40.2","","101.36","","","","-16","","NA"
"-74.04","45.68","MONTREAL MIRABEL INTL A","7034900","2018-12-29 19:00","2018","12","29","19:00","-11.9","","-16.2","","71","","","","28","","7","","40.2","","101.40","","","","-16","","Mainly Clear"
"-74.04","45.68","MONTREAL MIRABEL INTL A","7034900","2018-12-29 20:00","2018","12","29","20:00","-12.6","","-16.8","","71","","","","28","","12","","40.2","","101.48","","","","-19","","NA"
"-74.04","45.68","MONTREAL MIRABEL INTL A","7034900","2018-12-29 21:00","2018","12","29","21:00","-13.3","","-17.1","","73","","","","23","","6","","40.2","","101.49","","","","-17","","NA"
"-74.04","45.68","MONTREAL MIRABEL INTL A","7034900","2018-12-29 22:00","2018","12","29","22:00","-14.0","","-17.1","","77","","","","29","","7","","40.2","","101.48","","","","-19","","Clear"
"-74.04","45.68","MONTREAL MIRABEL INTL A","7034900","2018-12-29 23:00","2018","12","29","23:00","-15.3","","-17.5","","84","","","","","","0","","40.2","","101.47","","","","","","NA"
"-74.04","45.68","MONTREAL MIRABEL INTL A","7034900","2018-12-30 00:00","2018","12","30","00:00","-16.0","","-17.6","","87","","","","","","0","","40.2","","101.42","","","","","","NA"
"-74.04","45.68","MONTREAL MIRABEL INTL A","7034900","2018-12-30 01:00","2018","12","30","01:00","-16.6","","-18.2","","87","","","","5","","3","","40.2","","101.40","","","","-19","","Clear"
"-74.04","45.68","MONTREAL MIRABEL INTL A","7034900","2018-12-30 02:00","2018","12","30","02:00","-16.0","","-17.9","","86","","","","1","","4","","40.2","","101.46","","","","-19","","NA"
"-74.04","45.68","MONTREAL MIRABEL INTL A","7034900","2018-12-30 03:00","2018","12","30","03:00","-17.0","","-18.6","","87","","","","6","","3","","40.2","","101.49","","","","-19","","NA"
"-74.04","45.68","MONTREAL MIRABEL INTL A","7034900","2018-12-30 04:00","2018","12","30","04:00","-16.6","","-18.5","","85","","","","5","","4","","40.2","","101.43","","","","-20","","Mostly Cloudy"
"-74.04","45.68","MONTREAL MIRABEL INTL A","7034900","2018-12-30 05:00","2018","12","30","05:00","-16.5","","-18.3","","86","","","","3","","5","","40.2","","101.40","","","","-20","","NA"
"-74.04","45.68","MONTREAL MIRABEL INTL A","7034900","2018-12-30 06:00","2018","12","30","06:00","-16.2","","-18.4","","83","","","","6","","6","","40.2","","101.40","","","","-21","","NA"
"-74.04","45.68","MONTREAL MIRABEL INTL A","7034900","2018-12-30 07:00","2018","12","30","07:00","-16.2","","-18.6","","82","","","","3","","7","","40.2","","101.42","","","","-21","","Mostly Cloudy"
"-74.04","45.68","MONTREAL MIRABEL INTL A","7034900","2018-12-30 08:00","2018","12","30","08:00","-16.3","","-19.0","","80","","","","5","","7","","32.2","","101.40","","","","-21","","NA"
"-74.04","45.68","MONTREAL MIRABEL INTL A","7034900","2018-12-30 09:00","2018","12","30","09:00","-15.9","","-19.1","","77","","","","2","","9","","40.2","","101.44","","","","-22","","NA"
"-74.04","45.68","MONTREAL MIRABEL INTL A","7034900","2018-12-30 10:00","2018","12","30","10:00","-14.8","","-18.6","","73","","","","4","","12","","40.2","","101.37","","","","-22","","Mainly Clear"
"-74.04","45.68","MONTREAL MIRABEL INTL A","7034900","2018-12-30 11:00","2018","12","30","11:00","-13.8","","-17.7","","73","","","","2","","7","","40.2","","101.31","","","","-18","","NA"
"-74.04","45.68","MONTREAL MIRABEL INTL A","7034900","2018-12-30 12:00","2018","12","30","12:00","-12.7","","-16.5","","73","","","","3","","8","","40.2","","101.22","","","","-18","","NA"
"-74.04","45.68","MONTREAL MIRABEL INTL A","7034900","2018-12-30 13:00","2018","12","30","13:00","-11.5","","-15.3","","74","","","","9","","6","","32.2","","101.12","","","","-15","","Mostly Cloudy"
"-74.04","45.68","MONTREAL MIRABEL INTL A","7034900","2018-12-30 14:00","2018","12","30","14:00","-11.1","","-14.7","","75","","","","2","","7","","40.2","","101.16","","","","-15","","NA"
"-74.04","45.68","MONTREAL MIRABEL INTL A","7034900","2018-12-30 15:00","2018","12","30","15:00","-11.2","","-14.6","","76","","","","5","","8","","24.1","","101.17","","","","-16","","NA"
"-74.04","45.68","MONTREAL MIRABEL INTL A","7034900","2018-12-30 16:00","2018","12","30","16:00","-11.2","","-14.3","","78","","","","5","","9","","16.1","","101.17","","","","-16","","Snow"
"-74.04","45.68","MONTREAL MIRABEL INTL A","7034900","2018-12-30 17:00","2018","12","30","17:00","-11.2","","-13.7","","83","","","","6","","7","","4.8","","101.18","","","","-15","","Snow"
"-74.04","45.68","MONTREAL MIRABEL INTL A","7034900","2018-12-30 18:00","2018","12","30","18:00","-11.1","","-13.3","","84","","","","5","","8","","9.7","","101.21","","","","-16","","Snow"
"-74.04","45.68","MONTREAL MIRABEL INTL A","7034900","2018-12-30 19:00","2018","12","30","19:00","-10.8","","-12.8","","85","","","","4","","5","","8.1","","101.27","","","","-14","","Snow"
"-74.04","45.68","MONTREAL MIRABEL INTL A","7034900","2018-12-30 20:00","2018","12","30","20:00","-10.7","","-12.8","","85","","","","4","","5","","24.1","","101.23","","","","-14","","Snow"
"-74.04","45.68","MONTREAL MIRABEL INTL A","7034900","2018-12-30 21:00","2018","12","30","21:00","-10.4","","-12.5","","85","","","","4","","9","","24.1","","101.25","","","","-15","","Snow"
"-74.04","45.68","MONTREAL MIRABEL INTL A","7034900","2018-12-30 22:00","2018","12","30","22:00","-10.1","","-12.1","","85","","","","5","","10","","24.1","","101.27","","","","-15","","Snow"
"-74.04","45.68","MONTREAL MIRABEL INTL A","7034900","2018-12-30 23:00","2018","12","30","23:00","-9.8","","-11.7","","86","","","","4","","8","","16.1","","101.32","","","","-14","","Snow"
"-74.04","45.68","MONTREAL MIRABEL INTL A","7034900","2018-12-31 00:00","2018","12","31","00:00","-9.5","","-11.6","","85","","","","5","","9","","24.1","","101.33","","","","-14","","Snow"
"-74.04","45.68","MONTREAL MIRABEL INTL A","7034900","2018-12-31 01:00","2018","12","31","01:00","-9.4","","-11.5","","85","","","","6","","9","","32.2","","101.33","","","","-14","","Snow"
"-74.04","45.68","MONTREAL MIRABEL INTL A","7034900","2018-12-31 02:00","2018","12","31","02:00","-9.3","","-11.2","","86","","","","3","","5","","32.2","","101.42","","","","-12","","NA"
"-74.04","45.68","MONTREAL MIRABEL INTL A","7034900","2018-12-31 03:00","2018","12","31","03:00","-9.2","","-11.2","","86","","","","5","","5","","40.2","","101.44","","","","-12","","NA"
"-74.04","45.68","MONTREAL MIRABEL INTL A","7034900","2018-12-31 04:00","2018","12","31","04:00","-9.1","","-11.1","","86","","","","4","","8","","40.2","","101.39","","","","-13","","Cloudy"
"-74.04","45.68","MONTREAL MIRABEL INTL A","7034900","2018-12-31 05:00","2018","12","31","05:00","-9.0","","-11.0","","86","","","","4","","8","","32.2","","101.43","","","","-13","","NA"
"-74.04","45.68","MONTREAL MIRABEL INTL A","7034900","2018-12-31 06:00","2018","12","31","06:00","-8.8","","-10.7","","86","","","","6","","8","","32.2","","101.46","","","","-13","","NA"
"-74.04","45.68","MONTREAL MIRABEL INTL A","7034900","2018-12-31 07:00","2018","12","31","07:00","-8.8","","-10.4","","88","","","","5","","11","","32.2","","101.47","","","","-14","","Cloudy"
"-74.04","45.68","MONTREAL MIRABEL INTL A","7034900","2018-12-31 08:00","2018","12","31","08:00","-8.6","","-10.0","","89","","","","5","","9","","9.7","","101.52","","","","-13","","Snow"
"-74.04","45.68","MONTREAL MIRABEL INTL A","7034900","2018-12-31 09:00","2018","12","31","09:00","-8.1","","-9.6","","89","","","","4","","8","","12.9","","101.60","","","","-12","","Snow"
"-74.04","45.68","MONTREAL MIRABEL INTL A","7034900","2018-12-31 10:00","2018","12","31","10:00","-7.7","","-9.2","","89","","","","4","","8","","12.9","","101.57","","","","-12","","Snow"
"-74.04","45.68","MONTREAL MIRABEL INTL A","7034900","2018-12-31 11:00","2018","12","31","11:00","-7.2","","-9.0","","87","","","","6","","11","","12.9","","101.39","","","","-12","","NA"
"-74.04","45.68","MONTREAL MIRABEL INTL A","7034900","2018-12-31 12:00","2018","12","31","12:00","-6.7","","-8.6","","86","","","","4","","7","","11.3","","101.35","","","","-10","","NA"
"-74.04","45.68","MONTREAL MIRABEL INTL A","7034900","2018-12-31 13:00","2018","12","31","13:00","-6.0","","-8.1","","85","","","","5","","10","","12.9","","101.25","","","","-10","","Cloudy"
"-74.04","45.68","MONTREAL MIRABEL INTL A","7034900","2018-12-31 14:00","2018","12","31","14:00","-5.5","","-7.5","","86","","","","6","","9","","12.9","","101.22","","","","-10","","NA"
"-74.04","45.68","MONTREAL MIRABEL INTL A","7034900","2018-12-31 15:00","2018","12","31","15:00","-5.5","","-7.2","","88","","","","5","","10","","12.9","","101.05","","","","-10","","NA"
"-74.04","45.68","MONTREAL MIRABEL INTL A","7034900","2018-12-31 16:00","2018","12","31","16:00","-5.7","","-7.0","","90","","","","5","","7","","9.7","","101.06","","","","-9","","Fog"
"-74.04","45.68","MONTREAL MIRABEL INTL A","7034900","2018-12-31 17:00","2018","12","31","17:00","-5.8","","-7.0","","91","","","","6","","7","","16.1","","101.00","","","","-9","","NA"
"-74.04","45.68","MONTREAL MIRABEL INTL A","7034900","2018-12-31 18:00","2018","12","31","18:00","-5.9","","-7.0","","92","","","","3","","8","","16.1","","100.90","","","","-10","","NA"
"-74.04","45.68","MONTREAL MIRABEL INTL A","7034900","2018-12-31 19:00","2018","12","31","19:00","-5.7","","-6.7","","93","","","","5","","13","","24.1","","100.72","","","","-11","","Cloudy"
"-74.04","45.68","MONTREAL MIRABEL INTL A","7034900","2018-12-31 20:00","2018","12","31","20:00","-5.3","","-6.3","","93","","","","5","","10","","16.1","","100.51","","","","-10","","NA"
"-74.04","45.68","MONTREAL MIRABEL INTL A","7034900","2018-12-31 21:00","2018","12","31","21:00","-4.9","","-5.8","","93","","","","5","","9","","16.1","","100.25","","","","-9","","NA"
"-74.04","45.68","MONTREAL MIRABEL INTL A","7034900","2018-12-31 22:00","2018","12","31","22:00","-4.2","","-5.1","","93","","","","5","","15","","24.1","","100.00","","","","-10","","Snow"
"-74.04","45.68","MONTREAL MIRABEL INTL A","7034900","2018-12-31 23:00","2018","12","31","23:00","-4.0","","-4.7","","95","","","","6","","16","","3.2","","99.77","","","","-10","","Snow"
