"Longitude (x)","Latitude (y)","Station Name","Climate ID","Date/Time (LST)","Year","Month","Day","Time (LST)","Temp (°C)","Temp Flag","Dew Point Temp (°C)","Dew Point Temp Flag","Rel Hum (%)","Rel Hum Flag","Precip. Amount (mm)","Precip. Amount Flag","Wind Dir (10s deg)","Wind Dir Flag","Wind Spd (km/h)","Wind Spd Flag","Visibility (km)","Visibility Flag","Stn Press (kPa)","Stn Press Flag","Hmdx","Hmdx Flag","Wind Chill","Wind Chill Flag","Weather"
"-73.74","45.47","MONTREAL/PIERRE ELLIOTT TRUDEAU INTL","702S006","2020-03-01 00:00","2020","03","01","00:00","-10.4","","-14.3","","73","","0.0","","25","","14","","","","101.19","","","","-17","","NA"
"-73.74","45.47","MONTREAL/PIERRE ELLIOTT TRUDEAU INTL","702S006","2020-03-01 01:00","2020","03","01","01:00","-11.0","","-14.9","","73","","0.0","","25","","16","","","","101.23","","","","-18","","NA"
"-73.74","45.47","MONTREAL/PIERRE ELLIOTT TRUDEAU INTL","702S006","2020-03-01 02:00","2020","03","01","02:00","-11.4","","-15.3","","73","","0.0","","26","","11","","","","101.24","","","","-17","","NA"
"-73.74","45.47","MONTREAL/PIERRE ELLIOTT TRUDEAU INTL","702S006","2020-03-01 03:00","2020","03","01","03:00","-12.1","","-15.4","","77","","0.0","","26","","8","","","","101.24","","","","-17","","NA"
"-73.74","45.47","MONTREAL/PIERRE ELLIOTT TRUDEAU INTL","702S006","2020-03-01 04:00","2020","03","01","04:00","-12.3","","-15.2","","79","","0.0","","26","","12","","","","101.27","","","","-19","","NA"
"-73.74","45.47","MONTREAL/PIERRE ELLIOTT TRUDEAU INTL","702S006","2020-03-01 05:00","2020","03","01","05:00","-13.5","","-16.0","","82","","0.0","","29","","12","","","","101.34","","","","-20","","NA"
"-73.74","45.47","MONTREAL/PIERRE ELLIOTT TRUDEAU INTL","702S006","2020-03-01 06:00","2020","03","01","06:00","-13.2","","-15.8","","81","","0.0","","27","","12","","","","101.40","","","","-20","","NA"
"-73.74","45.47","MONTREAL/PIERRE ELLIOTT TRUDEAU INTL","702S006","2020-03-01 07:00","2020","03","01","07:00","-13.2","","-16.2","","79","","0.0","","28","","13","","","","101.45","","","","-20","","NA"
"-73.74","45.47","MONTREAL/PIERRE ELLIOTT TRUDEAU INTL","702S006","2020-03-01 08:00","2020","03","01","08:00","-12.2","","-15.8","","74","","0.0","","27","","13","","","","101.52","","","","-19","","NA"
"-73.74","45.47","MONTREAL/PIERRE ELLIOTT TRUDEAU INTL","702S006","2020-03-01 09:00","2020","03","01","09:00","-10.8","","-15.3","","69","","0.0","","27","","14","","","","101.57","","","","-17","","NA"
"-73.74","45.47","MONTREAL/PIERRE ELLIOTT TRUDEAU INTL","702S006","2020-03-01 10:00","2020","03","01","10:00","-9.0","","-15.1","","61","","0.0","","27","","16","","","","101.57","","","","-16","","NA"
"-73.74","45.47","MONTREAL/PIERRE ELLIOTT TRUDEAU INTL","702S006","2020-03-01 11:00","2020","03","01","11:00","-8.3","","-15.7","","55","","0.0","","27","","17","","","","101.56","","","","-15","","NA"
"-73.74","45.47","MONTREAL/PIERRE ELLIOTT TRUDEAU INTL","702S006","2020-03-01 12:00","2020","03","01","12:00","-7.6","","-15.3","","54","","0.0","","27","","17","","","","101.56","","","","-14","","NA"
"-73.74","45.47","MONTREAL/PIERRE ELLIOTT TRUDEAU INTL","702S006","2020-03-01 13:00","2020","03","01","13:00","-6.8","","-14.7","","53","","0.0","","28","","15","","","","101.52","","","","-13","","NA"
"-73.74","45.47","MONTREAL/PIERRE ELLIOTT TRUDEAU INTL","702S006","2020-03-01 14:00","2020","03","01","14:00","-6.1","","-14.5","","52","","0.0","","25","","16","","","","101.50","","","","-12","","NA"
"-73.74","45.47","MONTREAL/PIERRE ELLIOTT TRUDEAU INTL","702S006","2020-03-01 15:00","2020","03","01","15:00","-5.3","","-13.6","","52","","0.0","","27","","13","","","","101.52","","","","-10","","NA"
"-73.74","45.47","MONTREAL/PIERRE ELLIOTT TRUDEAU INTL","702S006","2020-03-01 16:00","2020","03","01","16:00","-5.2","","-13.4","","52","","0.0","","24","","12","","","","101.52","","","","-10","","NA"
"-73.74","45.47","MONTREAL/PIERRE ELLIOTT TRUDEAU INTL","702S006","2020-03-01 17:00","2020","03","01","17:00","-5.2","","-13.3","","53","","0.0","","24","","13","","","","101.54","","","","-10","","NA"
"-73.74","45.47","MONTREAL/PIERRE ELLIOTT TRUDEAU INTL","702S006","2020-03-01 18:00","2020","03","01","18:00","-6.0","","-12.7","","59","","0.0","","25","","9","","","","101.57","","","","-10","","NA"
"-73.74","45.47","MONTREAL/PIERRE ELLIOTT TRUDEAU INTL","702S006","2020-03-01 19:00","2020","03","01","19:00","-6.6","","-12.7","","62","","0.0","","26","","8","","","","101.61","","","","-10","","NA"
"-73.74","45.47","MONTREAL/PIERRE ELLIOTT TRUDEAU INTL","702S006","2020-03-01 20:00","2020","03","01","20:00","-7.8","","-13.0","","66","","0.0","","28","","5","","","","101.59","","","","-10","","NA"
"-73.74","45.47","MONTREAL/PIERRE ELLIOTT TRUDEAU INTL","702S006","2020-03-01 21:00","2020","03","01","21:00","-7.4","","-13.0","","64","","0.0","","15","","9","","","","101.55","","","","-12","","NA"
"-73.74","45.47","MONTREAL/PIERRE ELLIOTT TRUDEAU INTL","702S006","2020-03-01 22:00","2020","03","01","22:00","-7.9","","-12.1","","72","","0.0","","15","","11","","","","101.53","","","","-13","","NA"
"-73.74","45.47","MONTREAL/PIERRE ELLIOTT TRUDEAU INTL","702S006","2020-03-01 23:00","2020","03","01","23:00","-7.8","","-12.6","","68","","0.0","","13","","14","","","","101.45","","","","-14","","NA"
"-73.74","45.47","MONTREAL/PIERRE ELLIOTT TRUDEAU INTL","702S006","2020-03-02 00:00","2020","03","02","00:00","-6.9","","-12.0","","67","","0.0","","12","","16","","","","101.38","","","","-13","","NA"
"-73.74","45.47","MONTREAL/PIERRE ELLIOTT TRUDEAU INTL","702S006","2020-03-02 01:00","2020","03","02","01:00","-6.7","","-11.9","","67","","0.0","","12","","14","","","","101.36","","","","-12","","NA"
"-73.74","45.47","MONTREAL/PIERRE ELLIOTT TRUDEAU INTL","702S006","2020-03-02 02:00","2020","03","02","02:00","-6.7","","-11.2","","70","","0.0","","13","","14","","","","101.31","","","","-12","","NA"
"-73.74","45.47","MONTREAL/PIERRE ELLIOTT TRUDEAU INTL","702S006","2020-03-02 03:00","2020","03","02","03:00","-6.9","","-9.7","","80","","0.0","","12","","13","","","","101.20","","","","-12","","NA"
"-73.74","45.47","MONTREAL/PIERRE ELLIOTT TRUDEAU INTL","702S006","2020-03-02 04:00","2020","03","02","04:00","-6.3","","-8.3","","86","","0.0","","12","","17","","","","101.06","","","","-13","","NA"
"-73.74","45.47","MONTREAL/PIERRE ELLIOTT TRUDEAU INTL","702S006","2020-03-02 05:00","2020","03","02","05:00","-5.2","","-7.7","","83","","0.0","","12","","19","","","","100.88","","","","-12","","NA"
"-73.74","45.47","MONTREAL/PIERRE ELLIOTT TRUDEAU INTL","702S006","2020-03-02 06:00","2020","03","02","06:00","-4.2","","-6.7","","83","","0.0","","13","","20","","","","100.73","","","","-11","","NA"
"-73.74","45.47","MONTREAL/PIERRE ELLIOTT TRUDEAU INTL","702S006","2020-03-02 07:00","2020","03","02","07:00","-3.4","","-5.8","","83","","0.0","","11","","16","","","","100.64","","","","-9","","NA"
"-73.74","45.47","MONTREAL/PIERRE ELLIOTT TRUDEAU INTL","702S006","2020-03-02 08:00","2020","03","02","08:00","-2.0","","-4.8","","81","","0.0","","12","","14","","","","100.55","","","","-7","","NA"
"-73.74","45.47","MONTREAL/PIERRE ELLIOTT TRUDEAU INTL","702S006","2020-03-02 09:00","2020","03","02","09:00","-1.0","","-4.6","","76","","0.0","","10","","8","","","","100.47","","","","-4","","NA"
"-73.74","45.47","MONTREAL/PIERRE ELLIOTT TRUDEAU INTL","702S006","2020-03-02 10:00","2020","03","02","10:00","-4.6","","-7.4","","80","","0.0","","2","","16","","","","100.41","","","","-10","","NA"
"-73.74","45.47","MONTREAL/PIERRE ELLIOTT TRUDEAU INTL","702S006","2020-03-02 11:00","2020","03","02","11:00","-4.7","","-7.7","","80","","0.0","","2","","14","","","","100.32","","","","-10","","NA"
"-73.74","45.47","MONTREAL/PIERRE ELLIOTT TRUDEAU INTL","702S006","2020-03-02 12:00","2020","03","02","12:00","-2.3","","-6.0","","76","","0.0","","1","","10","","","","100.19","","","","-6","","NA"
"-73.74","45.47","MONTREAL/PIERRE ELLIOTT TRUDEAU INTL","702S006","2020-03-02 13:00","2020","03","02","13:00","-0.7","","-5.0","","73","","0.8","","2","","9","","","","100.08","","","","-4","","NA"
"-73.74","45.47","MONTREAL/PIERRE ELLIOTT TRUDEAU INTL","702S006","2020-03-02 14:00","2020","03","02","14:00","-0.8","","-4.4","","76","","0.0","","1","","9","","","","99.96","","","","-4","","NA"
"-73.74","45.47","MONTREAL/PIERRE ELLIOTT TRUDEAU INTL","702S006","2020-03-02 15:00","2020","03","02","15:00","-0.7","","-2.6","","87","","0.8","","34","","6","","","","99.88","","","","-3","","NA"
"-73.74","45.47","MONTREAL/PIERRE ELLIOTT TRUDEAU INTL","702S006","2020-03-02 16:00","2020","03","02","16:00","-0.3","","-1.2","","93","","3.3","","35","","4","","","","99.90","","","","-2","","NA"
"-73.74","45.47","MONTREAL/PIERRE ELLIOTT TRUDEAU INTL","702S006","2020-03-02 17:00","2020","03","02","17:00","-0.2","","-0.8","","96","","2.3","","35","","3","","","","99.93","","","","-1","","NA"
"-73.74","45.47","MONTREAL/PIERRE ELLIOTT TRUDEAU INTL","702S006","2020-03-02 18:00","2020","03","02","18:00","0.2","","-0.3","","96","","2.4","","","","0","","","","99.91","","","","","","NA"
"-73.74","45.47","MONTREAL/PIERRE ELLIOTT TRUDEAU INTL","702S006","2020-03-02 19:00","2020","03","02","19:00","2.5","","2.1","","98","","3.6","","17","","14","","","","99.89","","","","","","NA"
"-73.74","45.47","MONTREAL/PIERRE ELLIOTT TRUDEAU INTL","702S006","2020-03-02 20:00","2020","03","02","20:00","4.0","","3.0","","94","","0.0","","24","","10","","","","99.88","","","","","","NA"
"-73.74","45.47","MONTREAL/PIERRE ELLIOTT TRUDEAU INTL","702S006","2020-03-02 21:00","2020","03","02","21:00","4.6","","3.6","","93","","0.0","","21","","8","","","","99.90","","","","","","NA"
"-73.74","45.47","MONTREAL/PIERRE ELLIOTT TRUDEAU INTL","702S006","2020-03-02 22:00","2020","03","02","22:00","3.8","","3.3","","96","","0.0","","22","","5","","","","99.92","","","","","","NA"
"-73.74","45.47","MONTREAL/PIERRE ELLIOTT TRUDEAU INTL","702S006","2020-03-02 23:00","2020","03","02","23:00","4.2","","3.7","","97","","0.0","","23","","8","","","","99.92","","","","","","NA"
"-73.74","45.47","MONTREAL/PIERRE ELLIOTT TRUDEAU INTL","702S006","2020-03-03 00:00","2020","03","03","00:00","3.1","","2.7","","97","","0.0","","25","","6","","","","99.96","","","","","","NA"
"-73.74","45.47","MONTREAL/PIERRE ELLIOTT TRUDEAU INTL","702S006","2020-03-03 01:00","2020","03","03","01:00","3.4","","2.8","","96","","0.0","","21","","10","","","","100.00","","","","","","NA"
"-73.74","45.47","MONTREAL/PIERRE ELLIOTT TRUDEAU INTL","702S006","2020-03-03 02:00","2020","03","03","02:00","3.2","","2.5","","95","","0.0","","21","","9","","","","100.02","","","","","","NA"
"-73.74","45.47","MONTREAL/PIERRE ELLIOTT TRUDEAU INTL","702S006","2020-03-03 03:00","2020","03","03","03:00","2.7","","1.9","","95","","0.0","","23","","9","","","","100.06","","","","","","NA"
"-73.74","45.47","MONTREAL/PIERRE ELLIOTT TRUDEAU INTL","702S006","2020-03-03 04:00","2020","03","03","04:00","2.5","","1.9","","96","","0.0","","23","","9","","","","100.11","","","","","","NA"
"-73.74","45.47","MONTREAL/PIERRE ELLIOTT TRUDEAU INTL","702S006","2020-03-03 05:00","2020","03","03","05:00","1.7","","1.0","","96","","0.0","","24","","10","","","","100.13","","","","","","NA"
"-73.74","45.47","MONTREAL/PIERRE ELLIOTT TRUDEAU INTL","702S006","2020-03-03 06:00","2020","03","03","06:00","1.6","","0.8","","95","","0.2","","23","","11","","","","100.14","","","","","","NA"
"-73.74","45.47","MONTREAL/PIERRE ELLIOTT TRUDEAU INTL","702S006","2020-03-03 07:00","2020","03","03","07:00","0.7","","0.2","","96","","0.0","","24","","7","","","","100.13","","","","","","NA"
"-73.74","45.47","MONTREAL/PIERRE ELLIOTT TRUDEAU INTL","702S006","2020-03-03 08:00","2020","03","03","08:00","0.4","","-0.6","","93","","0.0","","25","","11","","","","100.20","","","","","","NA"
"-73.74","45.47","MONTREAL/PIERRE ELLIOTT TRUDEAU INTL","702S006","2020-03-03 09:00","2020","03","03","09:00","1.2","","-1.3","","84","","0.0","","28","","9","","","","100.19","","","","","","NA"
"-73.74","45.47","MONTREAL/PIERRE ELLIOTT TRUDEAU INTL","702S006","2020-03-03 10:00","2020","03","03","10:00","2.3","","-1.6","","76","","0.0","","26","","8","","","","100.22","","","","","","NA"
"-73.74","45.47","MONTREAL/PIERRE ELLIOTT TRUDEAU INTL","702S006","2020-03-03 11:00","2020","03","03","11:00","2.9","","-1.9","","70","","0.0","","28","","4","","","","100.15","","","","","","NA"
"-73.74","45.47","MONTREAL/PIERRE ELLIOTT TRUDEAU INTL","702S006","2020-03-03 12:00","2020","03","03","12:00","3.7","","-1.4","","69","","0.0","","15","","5","","","","100.05","","","","","","NA"
"-73.74","45.47","MONTREAL/PIERRE ELLIOTT TRUDEAU INTL","702S006","2020-03-03 13:00","2020","03","03","13:00","4.7","","-2.5","","60","","0.0","","16","","3","","","","99.96","","","","","","NA"
"-73.74","45.47","MONTREAL/PIERRE ELLIOTT TRUDEAU INTL","702S006","2020-03-03 14:00","2020","03","03","14:00","5.6","","-2.0","","58","","0.0","","","","0","","","","99.88","","","","","","NA"
"-73.74","45.47","MONTREAL/PIERRE ELLIOTT TRUDEAU INTL","702S006","2020-03-03 15:00","2020","03","03","15:00","5.8","","-0.4","","64","","0.0","","5","","7","","","","99.74","","","","","","NA"
"-73.74","45.47","MONTREAL/PIERRE ELLIOTT TRUDEAU INTL","702S006","2020-03-03 16:00","2020","03","03","16:00","5.8","","-0.2","","66","","0.0","","3","","13","","","","99.56","","","","","","NA"
"-73.74","45.47","MONTREAL/PIERRE ELLIOTT TRUDEAU INTL","702S006","2020-03-03 17:00","2020","03","03","17:00","4.9","","-0.8","","67","","0.0","","4","","17","","","","99.44","","","","","","NA"
"-73.74","45.47","MONTREAL/PIERRE ELLIOTT TRUDEAU INTL","702S006","2020-03-03 18:00","2020","03","03","18:00","3.8","","-0.1","","76","","0.0","","4","","13","","","","99.35","","","","","","NA"
"-73.74","45.47","MONTREAL/PIERRE ELLIOTT TRUDEAU INTL","702S006","2020-03-03 19:00","2020","03","03","19:00","2.7","","0.5","","86","","1.9","","3","","17","","","","99.25","","","","","","NA"
"-73.74","45.47","MONTREAL/PIERRE ELLIOTT TRUDEAU INTL","702S006","2020-03-03 20:00","2020","03","03","20:00","1.8","","0.4","","90","","3.3","","4","","22","","","","99.09","","","","","","NA"
"-73.74","45.47","MONTREAL/PIERRE ELLIOTT TRUDEAU INTL","702S006","2020-03-03 21:00","2020","03","03","21:00","1.7","","0.7","","92","","2.0","","4","","19","","","","98.90","","","","","","NA"
"-73.74","45.47","MONTREAL/PIERRE ELLIOTT TRUDEAU INTL","702S006","2020-03-03 22:00","2020","03","03","22:00","1.8","","0.9","","93","","1.1","","4","","20","","","","98.73","","","","","","NA"
"-73.74","45.47","MONTREAL/PIERRE ELLIOTT TRUDEAU INTL","702S006","2020-03-03 23:00","2020","03","03","23:00","2.0","","1.2","","95","","0.9","","4","","12","","","","98.60","","","","","","NA"
"-73.74","45.47","MONTREAL/PIERRE ELLIOTT TRUDEAU INTL","702S006","2020-03-04 00:00","2020","03","04","00:00","1.7","","1.3","","97","","1.4","","3","","4","","","","98.55","","","","","","NA"
"-73.74","45.47","MONTREAL/PIERRE ELLIOTT TRUDEAU INTL","702S006","2020-03-04 01:00","2020","03","04","01:00","2.7","","1.6","","92","","0.5","","24","","27","","","","98.61","","","","","","NA"
"-73.74","45.47","MONTREAL/PIERRE ELLIOTT TRUDEAU INTL","702S006","2020-03-04 02:00","2020","03","04","02:00","1.7","","0.7","","93","","0.0","","24","","28","","","","98.66","","","","","","NA"
"-73.74","45.47","MONTREAL/PIERRE ELLIOTT TRUDEAU INTL","702S006","2020-03-04 03:00","2020","03","04","03:00","2.0","","0.3","","88","","0.0","","25","","30","","","","98.68","","","","","","NA"
"-73.74","45.47","MONTREAL/PIERRE ELLIOTT TRUDEAU INTL","702S006","2020-03-04 04:00","2020","03","04","04:00","2.2","","0.2","","86","","0.0","","26","","32","","","","98.76","","","","","","NA"
"-73.74","45.47","MONTREAL/PIERRE ELLIOTT TRUDEAU INTL","702S006","2020-03-04 05:00","2020","03","04","05:00","2.5","","0.0","","84","","0.0","","26","","30","","","","98.89","","","","","","NA"
"-73.74","45.47","MONTREAL/PIERRE ELLIOTT TRUDEAU INTL","702S006","2020-03-04 06:00","2020","03","04","06:00","2.4","","-0.2","","83","","0.0","","26","","28","","","","99.04","","","","","","NA"
"-73.74","45.47","MONTREAL/PIERRE ELLIOTT TRUDEAU INTL","702S006","2020-03-04 07:00","2020","03","04","07:00","2.3","","-0.5","","82","","0.0","","26","","27","","","","99.21","","","","","","NA"
"-73.74","45.47","MONTREAL/PIERRE ELLIOTT TRUDEAU INTL","702S006","2020-03-04 08:00","2020","03","04","08:00","2.2","","-0.6","","82","","0.0","","27","","25","","","","99.32","","","","","","NA"
"-73.74","45.47","MONTREAL/PIERRE ELLIOTT TRUDEAU INTL","702S006","2020-03-04 09:00","2020","03","04","09:00","1.9","","-0.4","","85","","0.0","","27","","24","","","","99.38","","","","","","NA"
"-73.74","45.47","MONTREAL/PIERRE ELLIOTT TRUDEAU INTL","702S006","2020-03-04 10:00","2020","03","04","10:00","2.6","","-1.7","","73","","0.0","","26","","29","","","","99.41","","","","","","NA"
"-73.74","45.47","MONTREAL/PIERRE ELLIOTT TRUDEAU INTL","702S006","2020-03-04 11:00","2020","03","04","11:00","2.8","","-2.6","","68","","0.0","","27","","29","","","","99.47","","","","","","NA"
"-73.74","45.47","MONTREAL/PIERRE ELLIOTT TRUDEAU INTL","702S006","2020-03-04 12:00","2020","03","04","12:00","2.7","","-3.4","","64","","0.0","","26","","27","","","","99.55","","","","","","NA"
"-73.74","45.47","MONTREAL/PIERRE ELLIOTT TRUDEAU INTL","702S006","2020-03-04 13:00","2020","03","04","13:00","2.9","","-3.9","","61","","0.0","","27","","31","","","","99.57","","","","","","NA"
"-73.74","45.47","MONTREAL/PIERRE ELLIOTT TRUDEAU INTL","702S006","2020-03-04 14:00","2020","03","04","14:00","3.1","","-2.9","","65","","0.0","","27","","30","","","","99.62","","","","","","NA"
"-73.74","45.47","MONTREAL/PIERRE ELLIOTT TRUDEAU INTL","702S006","2020-03-04 15:00","2020","03","04","15:00","3.1","","-2.9","","65","","0.0","","28","","34","","","","99.71","","","","","","NA"
"-73.74","45.47","MONTREAL/PIERRE ELLIOTT TRUDEAU INTL","702S006","2020-03-04 16:00","2020","03","04","16:00","3.4","","-2.3","","66","","0.0","","27","","29","","","","99.81","","","","","","NA"
"-73.74","45.47","MONTREAL/PIERRE ELLIOTT TRUDEAU INTL","702S006","2020-03-04 17:00","2020","03","04","17:00","3.2","","-2.1","","68","","0.0","","27","","23","","","","99.93","","","","","","NA"
"-73.74","45.47","MONTREAL/PIERRE ELLIOTT TRUDEAU INTL","702S006","2020-03-04 18:00","2020","03","04","18:00","2.9","","-2.6","","67","","0.0","","26","","17","","","","100.03","","","","","","NA"
"-73.74","45.47","MONTREAL/PIERRE ELLIOTT TRUDEAU INTL","702S006","2020-03-04 19:00","2020","03","04","19:00","2.8","","-2.7","","67","","0.0","","26","","18","","","","100.15","","","","","","NA"
"-73.74","45.47","MONTREAL/PIERRE ELLIOTT TRUDEAU INTL","702S006","2020-03-04 20:00","2020","03","04","20:00","2.1","","-2.8","","70","","0.0","","27","","12","","","","100.21","","","","","","NA"
"-73.74","45.47","MONTREAL/PIERRE ELLIOTT TRUDEAU INTL","702S006","2020-03-04 21:00","2020","03","04","21:00","1.8","","-2.9","","71","","0.0","","25","","17","","","","100.25","","","","","","NA"
"-73.74","45.47","MONTREAL/PIERRE ELLIOTT TRUDEAU INTL","702S006","2020-03-04 22:00","2020","03","04","22:00","1.5","","-3.0","","72","","0.0","","28","","14","","","","100.31","","","","","","NA"
"-73.74","45.47","MONTREAL/PIERRE ELLIOTT TRUDEAU INTL","702S006","2020-03-04 23:00","2020","03","04","23:00","1.2","","-2.9","","74","","0.0","","27","","13","","","","100.37","","","","","","NA"
"-73.74","45.47","MONTREAL/PIERRE ELLIOTT TRUDEAU INTL","702S006","2020-03-05 00:00","2020","03","05","00:00","0.7","","-3.1","","76","","0.0","","26","","10","","","","100.43","","","","","","NA"
"-73.74","45.47","MONTREAL/PIERRE ELLIOTT TRUDEAU INTL","702S006","2020-03-05 01:00","2020","03","05","01:00","0.3","","-3.2","","77","","0.0","","27","","14","","","","100.58","","","","","","NA"
"-73.74","45.47","MONTREAL/PIERRE ELLIOTT TRUDEAU INTL","702S006","2020-03-05 02:00","2020","03","05","02:00","0.1","","-3.2","","78","","0.0","","28","","16","","","","100.71","","","","","","NA"
"-73.74","45.47","MONTREAL/PIERRE ELLIOTT TRUDEAU INTL","702S006","2020-03-05 03:00","2020","03","05","03:00","-0.6","","-3.3","","82","","0.0","","28","","14","","","","100.79","","","","-5","","NA"
"-73.74","45.47","MONTREAL/PIERRE ELLIOTT TRUDEAU INTL","702S006","2020-03-05 04:00","2020","03","05","04:00","-1.4","","-3.8","","84","","0.0","","29","","10","","","","100.87","","","","-5","","NA"
"-73.74","45.47","MONTREAL/PIERRE ELLIOTT TRUDEAU INTL","702S006","2020-03-05 05:00","2020","03","05","05:00","-1.8","","-3.9","","85","","0.0","","29","","11","","","","100.97","","","","-6","","NA"
"-73.74","45.47","MONTREAL/PIERRE ELLIOTT TRUDEAU INTL","702S006","2020-03-05 06:00","2020","03","05","06:00","-1.9","","-3.9","","86","","0.0","","26","","10","","","","101.10","","","","-6","","NA"
"-73.74","45.47","MONTREAL/PIERRE ELLIOTT TRUDEAU INTL","702S006","2020-03-05 07:00","2020","03","05","07:00","-1.4","","-3.8","","84","","0.0","","25","","10","","","","101.18","","","","-5","","NA"
"-73.74","45.47","MONTREAL/PIERRE ELLIOTT TRUDEAU INTL","702S006","2020-03-05 08:00","2020","03","05","08:00","-0.5","","-3.3","","81","","0.0","","24","","9","","","","101.27","","","","-4","","NA"
"-73.74","45.47","MONTREAL/PIERRE ELLIOTT TRUDEAU INTL","702S006","2020-03-05 09:00","2020","03","05","09:00","0.8","","-3.0","","76","","0.0","","26","","16","","","","101.35","","","","","","NA"
"-73.74","45.47","MONTREAL/PIERRE ELLIOTT TRUDEAU INTL","702S006","2020-03-05 10:00","2020","03","05","10:00","1.5","","-2.8","","73","","0.0","","25","","16","","","","101.36","","","","","","NA"
"-73.74","45.47","MONTREAL/PIERRE ELLIOTT TRUDEAU INTL","702S006","2020-03-05 11:00","2020","03","05","11:00","1.9","","-2.5","","72","","0.0","","21","","16","","","","101.37","","","","","","NA"
"-73.74","45.47","MONTREAL/PIERRE ELLIOTT TRUDEAU INTL","702S006","2020-03-05 12:00","2020","03","05","12:00","2.5","","-2.5","","70","","0.0","","23","","19","","","","101.38","","","","","","NA"
"-73.74","45.47","MONTREAL/PIERRE ELLIOTT TRUDEAU INTL","702S006","2020-03-05 13:00","2020","03","05","13:00","2.2","","-2.3","","72","","0.0","","22","","21","","","","101.36","","","","","","NA"
"-73.74","45.47","MONTREAL/PIERRE ELLIOTT TRUDEAU INTL","702S006","2020-03-05 14:00","2020","03","05","14:00","2.7","","-1.9","","72","","0.0","","24","","19","","","","101.41","","","","","","NA"
"-73.74","45.47","MONTREAL/PIERRE ELLIOTT TRUDEAU INTL","702S006","2020-03-05 15:00","2020","03","05","15:00","2.6","","-2.3","","70","","0.0","","25","","17","","","","101.41","","","","","","NA"
"-73.74","45.47","MONTREAL/PIERRE ELLIOTT TRUDEAU INTL","702S006","2020-03-05 16:00","2020","03","05","16:00","2.7","","-2.3","","69","","0.0","","24","","19","","","","101.44","","","","","","NA"
"-73.74","45.47","MONTREAL/PIERRE ELLIOTT TRUDEAU INTL","702S006","2020-03-05 17:00","2020","03","05","17:00","2.5","","-2.6","","69","","0.0","","24","","18","","","","101.53","","","","","","NA"
"-73.74","45.47","MONTREAL/PIERRE ELLIOTT TRUDEAU INTL","702S006","2020-03-05 18:00","2020","03","05","18:00","2.1","","-2.8","","70","","0.0","","25","","16","","","","101.53","","","","","","NA"
"-73.74","45.47","MONTREAL/PIERRE ELLIOTT TRUDEAU INTL","702S006","2020-03-05 19:00","2020","03","05","19:00","1.6","","-2.7","","73","","0.0","","26","","7","","","","101.58","","","","","","NA"
"-73.74","45.47","MONTREAL/PIERRE ELLIOTT TRUDEAU INTL","702S006","2020-03-05 20:00","2020","03","05","20:00","1.2","","-2.7","","75","","0.0","","27","","5","","","","101.56","","","","","","NA"
"-73.74","45.47","MONTREAL/PIERRE ELLIOTT TRUDEAU INTL","702S006","2020-03-05 21:00","2020","03","05","21:00","0.1","","-3.1","","79","","0.0","","29","","3","","","","101.55","","","","","","NA"
"-73.74","45.47","MONTREAL/PIERRE ELLIOTT TRUDEAU INTL","702S006","2020-03-05 22:00","2020","03","05","22:00","0.0","","-3.1","","79","","0.0","","","","0","","","","101.54","","","","","","NA"
"-73.74","45.47","MONTREAL/PIERRE ELLIOTT TRUDEAU INTL","702S006","2020-03-05 23:00","2020","03","05","23:00","-1.0","","-3.0","","86","","0.0","","","","0","","","","101.55","","","","","","NA"
"-73.74","45.47","MONTREAL/PIERRE ELLIOTT TRUDEAU INTL","702S006","2020-03-06 00:00","2020","03","06","00:00","-0.3","","-1.8","","89","","0.0","","15","","3","","","","101.54","","","","-1","","NA"
"-73.74","45.47","MONTREAL/PIERRE ELLIOTT TRUDEAU INTL","702S006","2020-03-06 01:00","2020","03","06","01:00","-1.3","","-2.6","","91","","0.0","","","","0","","","","101.49","","","","","","NA"
"-73.74","45.47","MONTREAL/PIERRE ELLIOTT TRUDEAU INTL","702S006","2020-03-06 02:00","2020","03","06","02:00","-0.5","","-2.2","","88","","0.0","","","","0","","","","101.44","","","","","","NA"
"-73.74","45.47","MONTREAL/PIERRE ELLIOTT TRUDEAU INTL","702S006","2020-03-06 03:00","2020","03","06","03:00","0.0","","-2.3","","84","","0.0","","11","","7","","","","101.39","","","","-2","","NA"
"-73.74","45.47","MONTREAL/PIERRE ELLIOTT TRUDEAU INTL","702S006","2020-03-06 04:00","2020","03","06","04:00","0.1","","-2.3","","84","","0.0","","11","","5","","","","101.39","","","","","","NA"
"-73.74","45.47","MONTREAL/PIERRE ELLIOTT TRUDEAU INTL","702S006","2020-03-06 05:00","2020","03","06","05:00","-0.1","","-2.5","","84","","0.0","","11","","7","","","","101.42","","","","-3","","NA"
"-73.74","45.47","MONTREAL/PIERRE ELLIOTT TRUDEAU INTL","702S006","2020-03-06 06:00","2020","03","06","06:00","-0.3","","-1.8","","89","","0.0","","6","","7","","","","101.44","","","","-3","","NA"
"-73.74","45.47","MONTREAL/PIERRE ELLIOTT TRUDEAU INTL","702S006","2020-03-06 07:00","2020","03","06","07:00","-0.4","","-1.9","","90","","0.2","","4","","15","","","","101.41","","","","-5","","NA"
"-73.74","45.47","MONTREAL/PIERRE ELLIOTT TRUDEAU INTL","702S006","2020-03-06 08:00","2020","03","06","08:00","-1.0","","-3.0","","87","","0.0","","4","","20","","","","101.46","","","","-7","","NA"
"-73.74","45.47","MONTREAL/PIERRE ELLIOTT TRUDEAU INTL","702S006","2020-03-06 09:00","2020","03","06","09:00","-1.0","","-2.2","","92","","0.5","","3","","21","","","","101.51","","","","-7","","NA"
"-73.74","45.47","MONTREAL/PIERRE ELLIOTT TRUDEAU INTL","702S006","2020-03-06 10:00","2020","03","06","10:00","-1.6","","-2.9","","91","","0.0","","3","","25","","","","101.51","","","","-8","","NA"
"-73.74","45.47","MONTREAL/PIERRE ELLIOTT TRUDEAU INTL","702S006","2020-03-06 11:00","2020","03","06","11:00","-1.6","","-3.4","","87","","0.2","","3","","27","","","","101.53","","","","-8","","NA"
"-73.74","45.47","MONTREAL/PIERRE ELLIOTT TRUDEAU INTL","702S006","2020-03-06 12:00","2020","03","06","12:00","-1.4","","-3.5","","86","","0.2","","3","","28","","","","101.49","","","","-8","","NA"
"-73.74","45.47","MONTREAL/PIERRE ELLIOTT TRUDEAU INTL","702S006","2020-03-06 13:00","2020","03","06","13:00","-0.8","","-3.9","","79","","0.0","","4","","25","","","","101.46","","","","-7","","NA"
"-73.74","45.47","MONTREAL/PIERRE ELLIOTT TRUDEAU INTL","702S006","2020-03-06 14:00","2020","03","06","14:00","-0.5","","-4.5","","74","","0.0","","4","","30","","","","101.44","","","","-7","","NA"
"-73.74","45.47","MONTREAL/PIERRE ELLIOTT TRUDEAU INTL","702S006","2020-03-06 15:00","2020","03","06","15:00","0.3","","-5.0","","68","","0.0","","4","","28","","","","101.40","","","","","","NA"
"-73.74","45.47","MONTREAL/PIERRE ELLIOTT TRUDEAU INTL","702S006","2020-03-06 16:00","2020","03","06","16:00","0.6","","-6.8","","58","","0.0","","4","","25","","","","101.51","","","","","","NA"
"-73.74","45.47","MONTREAL/PIERRE ELLIOTT TRUDEAU INTL","702S006","2020-03-06 17:00","2020","03","06","17:00","0.7","","-7.7","","54","","0.0","","3","","23","","","","101.56","","","","","","NA"
"-73.74","45.47","MONTREAL/PIERRE ELLIOTT TRUDEAU INTL","702S006","2020-03-06 18:00","2020","03","06","18:00","0.2","","-8.9","","50","","0.0","","3","","22","","","","101.65","","","","","","NA"
"-73.74","45.47","MONTREAL/PIERRE ELLIOTT TRUDEAU INTL","702S006","2020-03-06 19:00","2020","03","06","19:00","-0.5","","-9.5","","51","","0.0","","2","","26","","","","101.64","","","","-7","","NA"
"-73.74","45.47","MONTREAL/PIERRE ELLIOTT TRUDEAU INTL","702S006","2020-03-06 20:00","2020","03","06","20:00","-1.3","","-10.3","","51","","0.0","","2","","29","","","","101.78","","","","-8","","NA"
"-73.74","45.47","MONTREAL/PIERRE ELLIOTT TRUDEAU INTL","702S006","2020-03-06 21:00","2020","03","06","21:00","-2.6","","-11.0","","52","","0.0","","2","","31","","","","101.86","","","","-10","","NA"
"-73.74","45.47","MONTREAL/PIERRE ELLIOTT TRUDEAU INTL","702S006","2020-03-06 22:00","2020","03","06","22:00","-3.5","","-11.8","","53","","0.0","","2","","32","","","","101.95","","","","-11","","NA"
"-73.74","45.47","MONTREAL/PIERRE ELLIOTT TRUDEAU INTL","702S006","2020-03-06 23:00","2020","03","06","23:00","-4.3","","-12.3","","54","","0.0","","2","","29","","","","101.98","","","","-12","","NA"
"-73.74","45.47","MONTREAL/PIERRE ELLIOTT TRUDEAU INTL","702S006","2020-03-07 00:00","2020","03","07","00:00","-5.0","","-12.9","","54","","0.0","","2","","26","","","","102.04","","","","-12","","NA"
"-73.74","45.47","MONTREAL/PIERRE ELLIOTT TRUDEAU INTL","702S006","2020-03-07 01:00","2020","03","07","01:00","-5.6","","-13.2","","55","","0.0","","3","","22","","","","102.08","","","","-13","","NA"
"-73.74","45.47","MONTREAL/PIERRE ELLIOTT TRUDEAU INTL","702S006","2020-03-07 02:00","2020","03","07","02:00","-6.1","","-13.6","","55","","0.0","","2","","22","","","","102.10","","","","-13","","NA"
"-73.74","45.47","MONTREAL/PIERRE ELLIOTT TRUDEAU INTL","702S006","2020-03-07 03:00","2020","03","07","03:00","-6.6","","-13.7","","57","","0.0","","1","","17","","","","102.12","","","","-13","","NA"
"-73.74","45.47","MONTREAL/PIERRE ELLIOTT TRUDEAU INTL","702S006","2020-03-07 04:00","2020","03","07","04:00","-7.2","","-14.2","","57","","0.0","","1","","18","","","","102.14","","","","-14","","NA"
"-73.74","45.47","MONTREAL/PIERRE ELLIOTT TRUDEAU INTL","702S006","2020-03-07 05:00","2020","03","07","05:00","-7.8","","-14.8","","57","","0.0","","1","","12","","","","102.23","","","","-13","","NA"
"-73.74","45.47","MONTREAL/PIERRE ELLIOTT TRUDEAU INTL","702S006","2020-03-07 06:00","2020","03","07","06:00","-8.1","","-15.4","","56","","0.0","","2","","10","","","","102.33","","","","-13","","NA"
"-73.74","45.47","MONTREAL/PIERRE ELLIOTT TRUDEAU INTL","702S006","2020-03-07 07:00","2020","03","07","07:00","-9.8","","-15.3","","64","","0.0","","34","","9","","","","102.44","","","","-15","","NA"
"-73.74","45.47","MONTREAL/PIERRE ELLIOTT TRUDEAU INTL","702S006","2020-03-07 08:00","2020","03","07","08:00","-7.9","","-15.1","","56","","0.2","","35","","14","","","","102.50","","","","-14","","NA"
"-73.74","45.47","MONTREAL/PIERRE ELLIOTT TRUDEAU INTL","702S006","2020-03-07 09:00","2020","03","07","09:00","-6.9","","-16.4","","47","","0.0","","1","","12","","","","102.53","","","","-12","","NA"
"-73.74","45.47","MONTREAL/PIERRE ELLIOTT TRUDEAU INTL","702S006","2020-03-07 10:00","2020","03","07","10:00","-6.0","","-16.5","","43","","0.0","","32","","13","","","","102.58","","","","-11","","NA"
"-73.74","45.47","MONTREAL/PIERRE ELLIOTT TRUDEAU INTL","702S006","2020-03-07 11:00","2020","03","07","11:00","-4.7","","-16.5","","39","","0.0","","32","","7","","","","102.54","","","","-8","","NA"
"-73.74","45.47","MONTREAL/PIERRE ELLIOTT TRUDEAU INTL","702S006","2020-03-07 12:00","2020","03","07","12:00","-3.3","","-17.2","","33","","0.0","","26","","7","","","","102.49","","","","-6","","NA"
"-73.74","45.47","MONTREAL/PIERRE ELLIOTT TRUDEAU INTL","702S006","2020-03-07 13:00","2020","03","07","13:00","-2.1","","-17.1","","31","","0.0","","26","","14","","","","102.42","","","","-7","","NA"
"-73.74","45.47","MONTREAL/PIERRE ELLIOTT TRUDEAU INTL","702S006","2020-03-07 14:00","2020","03","07","14:00","-1.1","","-15.9","","32","","0.0","","26","","14","","","","102.39","","","","-6","","NA"
"-73.74","45.47","MONTREAL/PIERRE ELLIOTT TRUDEAU INTL","702S006","2020-03-07 15:00","2020","03","07","15:00","-0.9","","-13.7","","37","","0.0","","22","","16","","","","102.33","","","","-6","","NA"
"-73.74","45.47","MONTREAL/PIERRE ELLIOTT TRUDEAU INTL","702S006","2020-03-07 16:00","2020","03","07","16:00","-0.6","","-15.0","","33","","0.0","","24","","18","","","","102.30","","","","-6","","NA"
"-73.74","45.47","MONTREAL/PIERRE ELLIOTT TRUDEAU INTL","702S006","2020-03-07 17:00","2020","03","07","17:00","-0.9","","-14.4","","35","","0.0","","25","","21","","","","102.28","","","","-7","","NA"
"-73.74","45.47","MONTREAL/PIERRE ELLIOTT TRUDEAU INTL","702S006","2020-03-07 18:00","2020","03","07","18:00","-1.6","","-12.7","","42","","0.0","","25","","18","","","","102.29","","","","-7","","NA"
"-73.74","45.47","MONTREAL/PIERRE ELLIOTT TRUDEAU INTL","702S006","2020-03-07 19:00","2020","03","07","19:00","-2.1","","-15.6","","35","","0.0","","25","","19","","","","102.30","","","","-8","","NA"
"-73.74","45.47","MONTREAL/PIERRE ELLIOTT TRUDEAU INTL","702S006","2020-03-07 20:00","2020","03","07","20:00","-2.8","","-15.5","","37","","0.0","","25","","16","","","","102.29","","","","-8","","NA"
"-73.74","45.47","MONTREAL/PIERRE ELLIOTT TRUDEAU INTL","702S006","2020-03-07 21:00","2020","03","07","21:00","-2.6","","-14.5","","39","","0.0","","25","","18","","","","102.28","","","","-8","","NA"
"-73.74","45.47","MONTREAL/PIERRE ELLIOTT TRUDEAU INTL","702S006","2020-03-07 22:00","2020","03","07","22:00","-1.9","","-12.9","","43","","0.0","","25","","13","","","","102.24","","","","-6","","NA"
"-73.74","45.47","MONTREAL/PIERRE ELLIOTT TRUDEAU INTL","702S006","2020-03-07 23:00","2020","03","07","23:00","-1.7","","-10.2","","52","","0.0","","24","","15","","","","102.17","","","","-7","","NA"
"-73.74","45.47","MONTREAL/PIERRE ELLIOTT TRUDEAU INTL","702S006","2020-03-08 00:00","2020","03","08","00:00","-1.3","","-7.9","","61","","0.0","","24","","18","","","","102.13","","","","-7","","NA"
"-73.74","45.47","MONTREAL/PIERRE ELLIOTT TRUDEAU INTL","702S006","2020-03-08 01:00","2020","03","08","01:00","-0.9","","-8.3","","57","","0.0","","24","","19","","","","102.12","","","","-6","","NA"
"-73.74","45.47","MONTREAL/PIERRE ELLIOTT TRUDEAU INTL","702S006","2020-03-08 02:00","2020","03","08","02:00","-1.0","","-7.7","","60","","0.0","","24","","21","","","","102.08","","","","-7","","NA"
"-73.74","45.47","MONTREAL/PIERRE ELLIOTT TRUDEAU INTL","702S006","2020-03-08 03:00","2020","03","08","03:00","-0.5","","-7.2","","60","","0.0","","25","","22","","","","102.05","","","","-6","","NA"
"-73.74","45.47","MONTREAL/PIERRE ELLIOTT TRUDEAU INTL","702S006","2020-03-08 04:00","2020","03","08","04:00","-0.5","","-6.3","","65","","0.0","","25","","20","","","","102.09","","","","-6","","NA"
"-73.74","45.47","MONTREAL/PIERRE ELLIOTT TRUDEAU INTL","702S006","2020-03-08 05:00","2020","03","08","05:00","-0.8","","-6.2","","67","","0.0","","25","","14","","","","102.14","","","","-5","","NA"
"-73.74","45.47","MONTREAL/PIERRE ELLIOTT TRUDEAU INTL","702S006","2020-03-08 06:00","2020","03","08","06:00","-0.9","","-5.9","","69","","0.0","","25","","11","","","","102.20","","","","-5","","NA"
"-73.74","45.47","MONTREAL/PIERRE ELLIOTT TRUDEAU INTL","702S006","2020-03-08 07:00","2020","03","08","07:00","-1.0","","-4.6","","76","","0.0","","27","","11","","","","102.25","","","","-5","","NA"
"-73.74","45.47","MONTREAL/PIERRE ELLIOTT TRUDEAU INTL","702S006","2020-03-08 08:00","2020","03","08","08:00","0.0","","-3.5","","77","","0.0","","25","","17","","","","102.29","","","","-5","","NA"
"-73.74","45.47","MONTREAL/PIERRE ELLIOTT TRUDEAU INTL","702S006","2020-03-08 09:00","2020","03","08","09:00","1.1","","-3.4","","72","","0.0","","25","","16","","","","102.28","","","","","","NA"
"-73.74","45.47","MONTREAL/PIERRE ELLIOTT TRUDEAU INTL","702S006","2020-03-08 10:00","2020","03","08","10:00","2.0","","-3.9","","65","","0.0","","26","","16","","","","102.29","","","","","","NA"
"-73.74","45.47","MONTREAL/PIERRE ELLIOTT TRUDEAU INTL","702S006","2020-03-08 11:00","2020","03","08","11:00","2.5","","-4.5","","60","","0.0","","27","","10","","","","102.24","","","","","","NA"
"-73.74","45.47","MONTREAL/PIERRE ELLIOTT TRUDEAU INTL","702S006","2020-03-08 12:00","2020","03","08","12:00","3.5","","-3.7","","59","","0.0","","23","","11","","","","102.17","","","","","","NA"
"-73.74","45.47","MONTREAL/PIERRE ELLIOTT TRUDEAU INTL","702S006","2020-03-08 13:00","2020","03","08","13:00","3.9","","-5.2","","51","","0.0","","21","","16","","","","102.10","","","","","","NA"
"-73.74","45.47","MONTREAL/PIERRE ELLIOTT TRUDEAU INTL","702S006","2020-03-08 14:00","2020","03","08","14:00","4.5","","-4.8","","51","","0.0","","23","","13","","","","102.01","","","","","","NA"
"-73.74","45.47","MONTREAL/PIERRE ELLIOTT TRUDEAU INTL","702S006","2020-03-08 15:00","2020","03","08","15:00","5.5","","-4.2","","50","","0.0","","23","","13","","","","101.97","","","","","","NA"
"-73.74","45.47","MONTREAL/PIERRE ELLIOTT TRUDEAU INTL","702S006","2020-03-08 16:00","2020","03","08","16:00","5.4","","-3.4","","53","","0.0","","22","","11","","","","101.90","","","","","","NA"
"-73.74","45.47","MONTREAL/PIERRE ELLIOTT TRUDEAU INTL","702S006","2020-03-08 17:00","2020","03","08","17:00","4.9","","-2.8","","58","","0.0","","20","","8","","","","101.86","","","","","","NA"
"-73.74","45.47","MONTREAL/PIERRE ELLIOTT TRUDEAU INTL","702S006","2020-03-08 18:00","2020","03","08","18:00","4.5","","-2.5","","60","","0.0","","17","","13","","","","101.83","","","","","","NA"
"-73.74","45.47","MONTREAL/PIERRE ELLIOTT TRUDEAU INTL","702S006","2020-03-08 19:00","2020","03","08","19:00","2.7","","-2.2","","70","","0.0","","15","","10","","","","101.81","","","","","","NA"
"-73.74","45.47","MONTREAL/PIERRE ELLIOTT TRUDEAU INTL","702S006","2020-03-08 20:00","2020","03","08","20:00","3.1","","-2.9","","64","","0.0","","14","","10","","","","101.75","","","","","","NA"
"-73.74","45.47","MONTREAL/PIERRE ELLIOTT TRUDEAU INTL","702S006","2020-03-08 21:00","2020","03","08","21:00","2.5","","-2.4","","70","","0.0","","15","","12","","","","101.69","","","","","","NA"
"-73.74","45.47","MONTREAL/PIERRE ELLIOTT TRUDEAU INTL","702S006","2020-03-08 22:00","2020","03","08","22:00","3.5","","-2.3","","66","","0.0","","16","","12","","","","101.61","","","","","","NA"
"-73.74","45.47","MONTREAL/PIERRE ELLIOTT TRUDEAU INTL","702S006","2020-03-08 23:00","2020","03","08","23:00","3.7","","-2.8","","63","","0.0","","19","","11","","","","101.57","","","","","","NA"
"-73.74","45.47","MONTREAL/PIERRE ELLIOTT TRUDEAU INTL","702S006","2020-03-09 00:00","2020","03","09","00:00","3.3","","-2.1","","68","","0.0","","19","","7","","","","101.55","","","","","","NA"
"-73.74","45.47","MONTREAL/PIERRE ELLIOTT TRUDEAU INTL","702S006","2020-03-09 01:00","2020","03","09","01:00","5.1","","-3.5","","54","","0.0","","25","","5","","","","101.56","","","","","","NA"
"-73.74","45.47","MONTREAL/PIERRE ELLIOTT TRUDEAU INTL","702S006","2020-03-09 02:00","2020","03","09","02:00","5.3","","-4.1","","50","","0.0","","24","","5","","","","101.58","","","","","","NA"
"-73.74","45.47","MONTREAL/PIERRE ELLIOTT TRUDEAU INTL","702S006","2020-03-09 03:00","2020","03","09","03:00","4.2","","-3.1","","59","","0.0","","18","","4","","","","101.55","","","","","","NA"
"-73.74","45.47","MONTREAL/PIERRE ELLIOTT TRUDEAU INTL","702S006","2020-03-09 04:00","2020","03","09","04:00","5.0","","-3.2","","55","","0.0","","19","","12","","","","101.52","","","","","","NA"
"-73.74","45.47","MONTREAL/PIERRE ELLIOTT TRUDEAU INTL","702S006","2020-03-09 05:00","2020","03","09","05:00","5.6","","-3.1","","54","","0.0","","23","","8","","","","101.49","","","","","","NA"
"-73.74","45.47","MONTREAL/PIERRE ELLIOTT TRUDEAU INTL","702S006","2020-03-09 06:00","2020","03","09","06:00","6.8","","-3.1","","49","","0.0","","23","","14","","","","101.50","","","","","","NA"
"-73.74","45.47","MONTREAL/PIERRE ELLIOTT TRUDEAU INTL","702S006","2020-03-09 07:00","2020","03","09","07:00","7.3","","-3.0","","48","","0.0","","25","","13","","","","101.52","","","","","","NA"
"-73.74","45.47","MONTREAL/PIERRE ELLIOTT TRUDEAU INTL","702S006","2020-03-09 08:00","2020","03","09","08:00","7.3","","-2.7","","49","","0.0","","27","","8","","","","101.52","","","","","","NA"
"-73.74","45.47","MONTREAL/PIERRE ELLIOTT TRUDEAU INTL","702S006","2020-03-09 09:00","2020","03","09","09:00","9.0","","-3.2","","42","","0.0","","26","","13","","","","101.54","","","","","","NA"
"-73.74","45.47","MONTREAL/PIERRE ELLIOTT TRUDEAU INTL","702S006","2020-03-09 10:00","2020","03","09","10:00","9.6","","-2.8","","41","","0.0","","26","","15","","","","101.56","","","","","","NA"
"-73.74","45.47","MONTREAL/PIERRE ELLIOTT TRUDEAU INTL","702S006","2020-03-09 11:00","2020","03","09","11:00","10.8","","-2.4","","40","","0.0","","26","","14","","","","101.55","","","","","","NA"
"-73.74","45.47","MONTREAL/PIERRE ELLIOTT TRUDEAU INTL","702S006","2020-03-09 12:00","2020","03","09","12:00","11.4","","-1.6","","41","","0.0","","26","","12","","","","101.55","","","","","","NA"
"-73.74","45.47","MONTREAL/PIERRE ELLIOTT TRUDEAU INTL","702S006","2020-03-09 13:00","2020","03","09","13:00","6.9","","-1.2","","56","","0.0","","3","","21","","","","101.55","","","","","","NA"
"-73.74","45.47","MONTREAL/PIERRE ELLIOTT TRUDEAU INTL","702S006","2020-03-09 14:00","2020","03","09","14:00","5.7","","-1.9","","58","","0.0","","2","","18","","","","101.54","","","","","","NA"
"-73.74","45.47","MONTREAL/PIERRE ELLIOTT TRUDEAU INTL","702S006","2020-03-09 15:00","2020","03","09","15:00","5.9","","-2.1","","57","","0.0","","4","","15","","","","101.49","","","","","","NA"
"-73.74","45.47","MONTREAL/PIERRE ELLIOTT TRUDEAU INTL","702S006","2020-03-09 16:00","2020","03","09","16:00","4.9","","-2.0","","61","","0.0","","4","","14","","","","101.52","","","","","","NA"
"-73.74","45.47","MONTREAL/PIERRE ELLIOTT TRUDEAU INTL","702S006","2020-03-09 17:00","2020","03","09","17:00","2.3","","-2.5","","71","","0.0","","2","","20","","","","101.60","","","","","","NA"
"-73.74","45.47","MONTREAL/PIERRE ELLIOTT TRUDEAU INTL","702S006","2020-03-09 18:00","2020","03","09","18:00","0.2","","-3.9","","74","","0.0","","2","","25","","","","101.69","","","","","","NA"
"-73.74","45.47","MONTREAL/PIERRE ELLIOTT TRUDEAU INTL","702S006","2020-03-09 19:00","2020","03","09","19:00","0.7","","-2.9","","77","","0.0","","4","","13","","","","101.68","","","","","","NA"
"-73.74","45.47","MONTREAL/PIERRE ELLIOTT TRUDEAU INTL","702S006","2020-03-09 20:00","2020","03","09","20:00","-0.3","","-2.4","","85","","0.0","","5","","10","","","","101.66","","","","-4","","NA"
"-73.74","45.47","MONTREAL/PIERRE ELLIOTT TRUDEAU INTL","702S006","2020-03-09 21:00","2020","03","09","21:00","-0.7","","-2.8","","86","","0.0","","3","","13","","","","101.71","","","","-5","","NA"
"-73.74","45.47","MONTREAL/PIERRE ELLIOTT TRUDEAU INTL","702S006","2020-03-09 22:00","2020","03","09","22:00","-0.8","","-2.5","","88","","0.0","","3","","11","","","","101.70","","","","-5","","NA"
"-73.74","45.47","MONTREAL/PIERRE ELLIOTT TRUDEAU INTL","702S006","2020-03-09 23:00","2020","03","09","23:00","-0.9","","-2.4","","89","","0.0","","4","","11","","","","101.57","","","","-5","","NA"
"-73.74","45.47","MONTREAL/PIERRE ELLIOTT TRUDEAU INTL","702S006","2020-03-10 00:00","2020","03","10","00:00","-0.9","","-2.2","","91","","0.0","","3","","10","","","","101.60","","","","-4","","NA"
"-73.74","45.47","MONTREAL/PIERRE ELLIOTT TRUDEAU INTL","702S006","2020-03-10 01:00","2020","03","10","01:00","-0.8","","-2.3","","90","","0.0","","4","","9","","","","101.50","","","","-4","","NA"
"-73.74","45.47","MONTREAL/PIERRE ELLIOTT TRUDEAU INTL","702S006","2020-03-10 02:00","2020","03","10","02:00","-0.5","","-1.8","","91","","0.0","","4","","4","","","","101.42","","","","-2","","NA"
"-73.74","45.47","MONTREAL/PIERRE ELLIOTT TRUDEAU INTL","702S006","2020-03-10 03:00","2020","03","10","03:00","-0.5","","-1.5","","93","","0.0","","3","","3","","","","101.34","","","","-1","","NA"
"-73.74","45.47","MONTREAL/PIERRE ELLIOTT TRUDEAU INTL","702S006","2020-03-10 04:00","2020","03","10","04:00","-0.3","","-1.3","","93","","0.3","","10","","6","","","","101.29","","","","-2","","NA"
"-73.74","45.47","MONTREAL/PIERRE ELLIOTT TRUDEAU INTL","702S006","2020-03-10 05:00","2020","03","10","05:00","-0.1","","-0.9","","94","","0.6","","11","","7","","","","101.17","","","","-3","","NA"
"-73.74","45.47","MONTREAL/PIERRE ELLIOTT TRUDEAU INTL","702S006","2020-03-10 06:00","2020","03","10","06:00","0.3","","-0.3","","95","","0.2","","9","","5","","","","101.04","","","","","","NA"
"-73.74","45.47","MONTREAL/PIERRE ELLIOTT TRUDEAU INTL","702S006","2020-03-10 07:00","2020","03","10","07:00","1.4","","0.8","","96","","0.9","","7","","4","","","","100.94","","","","","","NA"
"-73.74","45.47","MONTREAL/PIERRE ELLIOTT TRUDEAU INTL","702S006","2020-03-10 08:00","2020","03","10","08:00","0.6","","0.0","","96","","1.4","","1","","10","","","","100.86","","","","","","NA"
"-73.74","45.47","MONTREAL/PIERRE ELLIOTT TRUDEAU INTL","702S006","2020-03-10 09:00","2020","03","10","09:00","1.6","","0.9","","95","","0.2","","3","","7","","","","100.72","","","","","","NA"
"-73.74","45.47","MONTREAL/PIERRE ELLIOTT TRUDEAU INTL","702S006","2020-03-10 10:00","2020","03","10","10:00","1.6","","0.9","","95","","0.0","","2","","12","","","","100.57","","","","","","NA"
"-73.74","45.47","MONTREAL/PIERRE ELLIOTT TRUDEAU INTL","702S006","2020-03-10 11:00","2020","03","10","11:00","1.7","","1.0","","96","","0.8","","2","","9","","","","100.46","","","","","","NA"
"-73.74","45.47","MONTREAL/PIERRE ELLIOTT TRUDEAU INTL","702S006","2020-03-10 12:00","2020","03","10","12:00","2.1","","1.5","","96","","1.2","","1","","10","","","","100.33","","","","","","NA"
"-73.74","45.47","MONTREAL/PIERRE ELLIOTT TRUDEAU INTL","702S006","2020-03-10 13:00","2020","03","10","13:00","2.3","","1.7","","96","","0.5","","36","","8","","","","100.23","","","","","","NA"
"-73.74","45.47","MONTREAL/PIERRE ELLIOTT TRUDEAU INTL","702S006","2020-03-10 14:00","2020","03","10","14:00","2.1","","1.8","","98","","1.3","","35","","6","","","","100.20","","","","","","NA"
"-73.74","45.47","MONTREAL/PIERRE ELLIOTT TRUDEAU INTL","702S006","2020-03-10 15:00","2020","03","10","15:00","2.2","","1.9","","98","","1.3","","34","","6","","","","100.22","","","","","","NA"
"-73.74","45.47","MONTREAL/PIERRE ELLIOTT TRUDEAU INTL","702S006","2020-03-10 16:00","2020","03","10","16:00","2.8","","2.4","","98","","0.5","","30","","3","","","","100.26","","","","","","NA"
"-73.74","45.47","MONTREAL/PIERRE ELLIOTT TRUDEAU INTL","702S006","2020-03-10 17:00","2020","03","10","17:00","3.8","","3.4","","97","","0.3","","25","","5","","","","100.34","","","","","","NA"
"-73.74","45.47","MONTREAL/PIERRE ELLIOTT TRUDEAU INTL","702S006","2020-03-10 18:00","2020","03","10","18:00","4.2","","3.8","","97","","0.7","","25","","7","","","","100.43","","","","","","NA"
"-73.74","45.47","MONTREAL/PIERRE ELLIOTT TRUDEAU INTL","702S006","2020-03-10 19:00","2020","03","10","19:00","4.1","","2.5","","89","","0.0","","30","","23","","","","100.60","","","","","","NA"
"-73.74","45.47","MONTREAL/PIERRE ELLIOTT TRUDEAU INTL","702S006","2020-03-10 20:00","2020","03","10","20:00","3.4","","1.5","","87","","0.0","","30","","23","","","","100.79","","","","","","NA"
"-73.74","45.47","MONTREAL/PIERRE ELLIOTT TRUDEAU INTL","702S006","2020-03-10 21:00","2020","03","10","21:00","2.7","","0.5","","85","","0.0","","28","","19","","","","101.02","","","","","","NA"
"-73.74","45.47","MONTREAL/PIERRE ELLIOTT TRUDEAU INTL","702S006","2020-03-10 22:00","2020","03","10","22:00","1.9","","-1.0","","81","","0.0","","28","","24","","","","101.19","","","","","","NA"
"-73.74","45.47","MONTREAL/PIERRE ELLIOTT TRUDEAU INTL","702S006","2020-03-10 23:00","2020","03","10","23:00","1.2","","-2.6","","76","","0.0","","28","","21","","","","101.34","","","","","","NA"
"-73.74","45.47","MONTREAL/PIERRE ELLIOTT TRUDEAU INTL","702S006","2020-03-11 00:00","2020","03","11","00:00","-0.1","","-4.2","","74","","0.0","","28","","19","","","","101.42","","","","-5","","NA"
"-73.74","45.47","MONTREAL/PIERRE ELLIOTT TRUDEAU INTL","702S006","2020-03-11 01:00","2020","03","11","01:00","-1.0","","-5.4","","72","","0.0","","28","","16","","","","101.53","","","","-6","","NA"
"-73.74","45.47","MONTREAL/PIERRE ELLIOTT TRUDEAU INTL","702S006","2020-03-11 02:00","2020","03","11","02:00","-1.7","","-6.7","","69","","0.0","","28","","18","","","","101.61","","","","-7","","NA"
"-73.74","45.47","MONTREAL/PIERRE ELLIOTT TRUDEAU INTL","702S006","2020-03-11 03:00","2020","03","11","03:00","-2.8","","-7.5","","70","","0.0","","29","","18","","","","101.62","","","","-8","","NA"
"-73.74","45.47","MONTREAL/PIERRE ELLIOTT TRUDEAU INTL","702S006","2020-03-11 04:00","2020","03","11","04:00","-3.6","","-8.7","","68","","0.0","","30","","18","","","","101.72","","","","-9","","NA"
"-73.74","45.47","MONTREAL/PIERRE ELLIOTT TRUDEAU INTL","702S006","2020-03-11 05:00","2020","03","11","05:00","-4.4","","-9.5","","68","","0.0","","31","","17","","","","101.81","","","","-10","","NA"
"-73.74","45.47","MONTREAL/PIERRE ELLIOTT TRUDEAU INTL","702S006","2020-03-11 06:00","2020","03","11","06:00","-5.3","","-11.8","","61","","0.0","","32","","17","","","","101.86","","","","-11","","NA"
"-73.74","45.47","MONTREAL/PIERRE ELLIOTT TRUDEAU INTL","702S006","2020-03-11 07:00","2020","03","11","07:00","-5.5","","-12.1","","60","","0.2","","32","","14","","","","101.92","","","","-11","","NA"
"-73.74","45.47","MONTREAL/PIERRE ELLIOTT TRUDEAU INTL","702S006","2020-03-11 08:00","2020","03","11","08:00","-5.0","","-11.8","","59","","0.0","","31","","15","","","","102.00","","","","-11","","NA"
"-73.74","45.47","MONTREAL/PIERRE ELLIOTT TRUDEAU INTL","702S006","2020-03-11 09:00","2020","03","11","09:00","-4.5","","-11.3","","59","","0.0","","30","","14","","","","102.05","","","","-10","","NA"
"-73.74","45.47","MONTREAL/PIERRE ELLIOTT TRUDEAU INTL","702S006","2020-03-11 10:00","2020","03","11","10:00","-3.9","","-12.2","","52","","0.0","","31","","6","","","","102.03","","","","-7","","NA"
"-73.74","45.47","MONTREAL/PIERRE ELLIOTT TRUDEAU INTL","702S006","2020-03-11 11:00","2020","03","11","11:00","-3.3","","-13.3","","46","","0.0","","27","","10","","","","102.01","","","","-7","","NA"
"-73.74","45.47","MONTREAL/PIERRE ELLIOTT TRUDEAU INTL","702S006","2020-03-11 12:00","2020","03","11","12:00","-2.4","","-11.3","","50","","0.0","","27","","8","","","","101.97","","","","-6","","NA"
"-73.74","45.47","MONTREAL/PIERRE ELLIOTT TRUDEAU INTL","702S006","2020-03-11 13:00","2020","03","11","13:00","-2.2","","-10.5","","53","","0.0","","24","","12","","","","101.90","","","","-6","","NA"
"-73.74","45.47","MONTREAL/PIERRE ELLIOTT TRUDEAU INTL","702S006","2020-03-11 14:00","2020","03","11","14:00","-2.1","","-10.9","","51","","0.0","","28","","6","","","","101.81","","","","-4","","NA"
"-73.74","45.47","MONTREAL/PIERRE ELLIOTT TRUDEAU INTL","702S006","2020-03-11 15:00","2020","03","11","15:00","-1.6","","-10.0","","53","","0.0","","22","","13","","","","101.81","","","","-6","","NA"
"-73.74","45.47","MONTREAL/PIERRE ELLIOTT TRUDEAU INTL","702S006","2020-03-11 16:00","2020","03","11","16:00","-1.5","","-9.5","","54","","0.0","","22","","13","","","","101.78","","","","-6","","NA"
"-73.74","45.47","MONTREAL/PIERRE ELLIOTT TRUDEAU INTL","702S006","2020-03-11 17:00","2020","03","11","17:00","-1.7","","-10.3","","52","","0.0","","22","","12","","","","101.81","","","","-6","","NA"
"-73.74","45.47","MONTREAL/PIERRE ELLIOTT TRUDEAU INTL","702S006","2020-03-11 18:00","2020","03","11","18:00","-1.6","","-9.4","","56","","0.0","","22","","12","","","","101.83","","","","-6","","NA"
"-73.74","45.47","MONTREAL/PIERRE ELLIOTT TRUDEAU INTL","702S006","2020-03-11 19:00","2020","03","11","19:00","-1.6","","-9.6","","55","","0.0","","23","","10","","","","101.83","","","","-5","","NA"
"-73.74","45.47","MONTREAL/PIERRE ELLIOTT TRUDEAU INTL","702S006","2020-03-11 20:00","2020","03","11","20:00","-2.4","","-9.1","","60","","0.0","","26","","6","","","","101.82","","","","-5","","NA"
"-73.74","45.47","MONTREAL/PIERRE ELLIOTT TRUDEAU INTL","702S006","2020-03-11 21:00","2020","03","11","21:00","-3.4","","-8.9","","66","","0.0","","29","","5","","","","101.82","","","","-5","","NA"
"-73.74","45.47","MONTREAL/PIERRE ELLIOTT TRUDEAU INTL","702S006","2020-03-11 22:00","2020","03","11","22:00","-3.7","","-8.6","","69","","0.0","","33","","5","","","","101.80","","","","-6","","NA"
"-73.74","45.47","MONTREAL/PIERRE ELLIOTT TRUDEAU INTL","702S006","2020-03-11 23:00","2020","03","11","23:00","-2.6","","-9.9","","57","","0.0","","6","","3","","","","101.78","","","","-4","","NA"
"-73.74","45.47","MONTREAL/PIERRE ELLIOTT TRUDEAU INTL","702S006","2020-03-12 00:00","2020","03","12","00:00","-2.6","","-9.9","","57","","0.0","","2","","6","","","","101.78","","","","-5","","NA"
"-73.74","45.47","MONTREAL/PIERRE ELLIOTT TRUDEAU INTL","702S006","2020-03-12 01:00","2020","03","12","01:00","-2.8","","-9.0","","62","","0.0","","2","","10","","","","101.79","","","","-7","","NA"
"-73.74","45.47","MONTREAL/PIERRE ELLIOTT TRUDEAU INTL","702S006","2020-03-12 02:00","2020","03","12","02:00","-2.4","","-9.0","","60","","0.0","","5","","8","","","","101.77","","","","-6","","NA"
"-73.74","45.47","MONTREAL/PIERRE ELLIOTT TRUDEAU INTL","702S006","2020-03-12 03:00","2020","03","12","03:00","-2.3","","-8.6","","62","","0.0","","4","","9","","","","101.76","","","","-6","","NA"
"-73.74","45.47","MONTREAL/PIERRE ELLIOTT TRUDEAU INTL","702S006","2020-03-12 04:00","2020","03","12","04:00","-2.8","","-8.9","","63","","0.0","","4","","12","","","","101.81","","","","-7","","NA"
"-73.74","45.47","MONTREAL/PIERRE ELLIOTT TRUDEAU INTL","702S006","2020-03-12 05:00","2020","03","12","05:00","-3.2","","-7.6","","72","","0.0","","4","","14","","","","101.81","","","","-8","","NA"
"-73.74","45.47","MONTREAL/PIERRE ELLIOTT TRUDEAU INTL","702S006","2020-03-12 06:00","2020","03","12","06:00","-3.2","","-7.7","","71","","0.0","","4","","13","","","","101.86","","","","-8","","NA"
"-73.74","45.47","MONTREAL/PIERRE ELLIOTT TRUDEAU INTL","702S006","2020-03-12 07:00","2020","03","12","07:00","-3.1","","-7.8","","70","","0.0","","4","","14","","","","101.89","","","","-8","","NA"
"-73.74","45.47","MONTREAL/PIERRE ELLIOTT TRUDEAU INTL","702S006","2020-03-12 08:00","2020","03","12","08:00","-3.0","","-8.1","","68","","0.0","","4","","14","","","","101.94","","","","-8","","NA"
"-73.74","45.47","MONTREAL/PIERRE ELLIOTT TRUDEAU INTL","702S006","2020-03-12 09:00","2020","03","12","09:00","-2.6","","-8.2","","65","","0.0","","4","","15","","","","101.88","","","","-8","","NA"
"-73.74","45.47","MONTREAL/PIERRE ELLIOTT TRUDEAU INTL","702S006","2020-03-12 10:00","2020","03","12","10:00","-1.8","","-8.5","","60","","0.0","","4","","18","","","","101.85","","","","-7","","NA"
"-73.74","45.47","MONTREAL/PIERRE ELLIOTT TRUDEAU INTL","702S006","2020-03-12 11:00","2020","03","12","11:00","-0.7","","-8.0","","58","","0.0","","4","","18","","","","101.80","","","","-6","","NA"
"-73.74","45.47","MONTREAL/PIERRE ELLIOTT TRUDEAU INTL","702S006","2020-03-12 12:00","2020","03","12","12:00","-0.1","","-8.1","","55","","0.0","","3","","20","","","","101.80","","","","-5","","NA"
"-73.74","45.47","MONTREAL/PIERRE ELLIOTT TRUDEAU INTL","702S006","2020-03-12 13:00","2020","03","12","13:00","0.4","","-7.7","","55","","0.0","","4","","19","","","","101.73","","","","","","NA"
"-73.74","45.47","MONTREAL/PIERRE ELLIOTT TRUDEAU INTL","702S006","2020-03-12 14:00","2020","03","12","14:00","1.2","","-6.9","","55","","0.0","","4","","15","","","","101.72","","","","","","NA"
"-73.74","45.47","MONTREAL/PIERRE ELLIOTT TRUDEAU INTL","702S006","2020-03-12 15:00","2020","03","12","15:00","1.5","","-6.7","","54","","0.0","","4","","17","","","","101.67","","","","","","NA"
"-73.74","45.47","MONTREAL/PIERRE ELLIOTT TRUDEAU INTL","702S006","2020-03-12 16:00","2020","03","12","16:00","2.3","","-6.2","","53","","0.0","","3","","15","","","","101.62","","","","","","NA"
"-73.74","45.47","MONTREAL/PIERRE ELLIOTT TRUDEAU INTL","702S006","2020-03-12 17:00","2020","03","12","17:00","1.9","","-5.7","","57","","0.0","","3","","16","","","","101.62","","","","","","NA"
"-73.74","45.47","MONTREAL/PIERRE ELLIOTT TRUDEAU INTL","702S006","2020-03-12 18:00","2020","03","12","18:00","1.5","","-6.1","","57","","0.0","","4","","16","","","","101.60","","","","","","NA"
"-73.74","45.47","MONTREAL/PIERRE ELLIOTT TRUDEAU INTL","702S006","2020-03-12 19:00","2020","03","12","19:00","1.3","","-6.1","","58","","0.0","","4","","20","","","","101.57","","","","","","NA"
"-73.74","45.47","MONTREAL/PIERRE ELLIOTT TRUDEAU INTL","702S006","2020-03-12 20:00","2020","03","12","20:00","0.7","","-5.2","","65","","0.0","","4","","17","","","","101.50","","","","","","NA"
"-73.74","45.47","MONTREAL/PIERRE ELLIOTT TRUDEAU INTL","702S006","2020-03-12 21:00","2020","03","12","21:00","0.3","","-4.5","","70","","0.0","","3","","16","","","","101.47","","","","","","NA"
"-73.74","45.47","MONTREAL/PIERRE ELLIOTT TRUDEAU INTL","702S006","2020-03-12 22:00","2020","03","12","22:00","0.2","","-4.0","","73","","0.0","","4","","15","","","","101.37","","","","","","NA"
"-73.74","45.47","MONTREAL/PIERRE ELLIOTT TRUDEAU INTL","702S006","2020-03-12 23:00","2020","03","12","23:00","0.2","","-3.5","","76","","0.0","","3","","18","","","","101.20","","","","","","NA"
"-73.74","45.47","MONTREAL/PIERRE ELLIOTT TRUDEAU INTL","702S006","2020-03-13 00:00","2020","03","13","00:00","0.4","","-3.1","","77","","0.0","","2","","16","","","","101.15","","","","","","NA"
"-73.74","45.47","MONTREAL/PIERRE ELLIOTT TRUDEAU INTL","702S006","2020-03-13 01:00","2020","03","13","01:00","0.7","","-2.9","","77","","0.0","","3","","16","","","","101.05","","","","","","NA"
"-73.74","45.47","MONTREAL/PIERRE ELLIOTT TRUDEAU INTL","702S006","2020-03-13 02:00","2020","03","13","02:00","2.0","","-2.1","","74","","0.0","","4","","13","","","","100.86","","","","","","NA"
"-73.74","45.47","MONTREAL/PIERRE ELLIOTT TRUDEAU INTL","702S006","2020-03-13 03:00","2020","03","13","03:00","3.4","","-1.1","","72","","0.0","","6","","9","","","","100.75","","","","","","NA"
"-73.74","45.47","MONTREAL/PIERRE ELLIOTT TRUDEAU INTL","702S006","2020-03-13 04:00","2020","03","13","04:00","4.1","","0.4","","77","","0.0","","12","","23","","","","100.56","","","","","","NA"
"-73.74","45.47","MONTREAL/PIERRE ELLIOTT TRUDEAU INTL","702S006","2020-03-13 05:00","2020","03","13","05:00","4.6","","0.9","","77","","0.0","","13","","29","","","","100.43","","","","","","NA"
"-73.74","45.47","MONTREAL/PIERRE ELLIOTT TRUDEAU INTL","702S006","2020-03-13 06:00","2020","03","13","06:00","4.5","","1.4","","80","","0.0","","13","","29","","","","100.18","","","","","","NA"
"-73.74","45.47","MONTREAL/PIERRE ELLIOTT TRUDEAU INTL","702S006","2020-03-13 07:00","2020","03","13","07:00","4.0","","2.5","","90","","1.8","","14","","40","","","","99.88","","","","","","NA"
"-73.74","45.47","MONTREAL/PIERRE ELLIOTT TRUDEAU INTL","702S006","2020-03-13 08:00","2020","03","13","08:00","4.2","","2.7","","90","","2.6","","14","","44","","","","99.64","","","","","","NA"
"-73.74","45.47","MONTREAL/PIERRE ELLIOTT TRUDEAU INTL","702S006","2020-03-13 09:00","2020","03","13","09:00","5.0","","3.3","","88","","1.0","","15","","46","","","","99.42","","","","","","NA"
"-73.74","45.47","MONTREAL/PIERRE ELLIOTT TRUDEAU INTL","702S006","2020-03-13 10:00","2020","03","13","10:00","6.1","","4.4","","89","","1.7","","16","","41","","","","99.32","","","","","","NA"
"-73.74","45.47","MONTREAL/PIERRE ELLIOTT TRUDEAU INTL","702S006","2020-03-13 11:00","2020","03","13","11:00","5.8","","4.8","","93","","2.1","","17","","34","","","","99.36","","","","","","NA"
"-73.74","45.47","MONTREAL/PIERRE ELLIOTT TRUDEAU INTL","702S006","2020-03-13 12:00","2020","03","13","12:00","7.7","","6.4","","92","","1.2","","22","","24","","","","99.50","","","","","","NA"
"-73.74","45.47","MONTREAL/PIERRE ELLIOTT TRUDEAU INTL","702S006","2020-03-13 13:00","2020","03","13","13:00","9.0","","3.7","","69","","0.0","","25","","48","","","","99.59","","","","","","NA"
"-73.74","45.47","MONTREAL/PIERRE ELLIOTT TRUDEAU INTL","702S006","2020-03-13 14:00","2020","03","13","14:00","7.8","","0.7","","61","","0.0","","25","","36","","","","99.82","","","","","","NA"
"-73.74","45.47","MONTREAL/PIERRE ELLIOTT TRUDEAU INTL","702S006","2020-03-13 15:00","2020","03","13","15:00","8.0","","-0.5","","55","","0.0","","25","","34","","","","99.94","","","","","","NA"
"-73.74","45.47","MONTREAL/PIERRE ELLIOTT TRUDEAU INTL","702S006","2020-03-13 16:00","2020","03","13","16:00","7.2","","-1.6","","53","","0.0","","24","","40","","","","100.06","","","","","","NA"
"-73.74","45.47","MONTREAL/PIERRE ELLIOTT TRUDEAU INTL","702S006","2020-03-13 17:00","2020","03","13","17:00","5.9","","-2.7","","54","","0.0","","25","","36","","","","100.19","","","","","","NA"
"-73.74","45.47","MONTREAL/PIERRE ELLIOTT TRUDEAU INTL","702S006","2020-03-13 18:00","2020","03","13","18:00","5.2","","-3.0","","56","","0.0","","25","","39","","","","100.27","","","","","","NA"
"-73.74","45.47","MONTREAL/PIERRE ELLIOTT TRUDEAU INTL","702S006","2020-03-13 19:00","2020","03","13","19:00","4.7","","-3.4","","56","","0.0","","25","","43","","","","100.37","","","","","","NA"
"-73.74","45.47","MONTREAL/PIERRE ELLIOTT TRUDEAU INTL","702S006","2020-03-13 20:00","2020","03","13","20:00","4.5","","-3.6","","55","","0.0","","25","","46","","","","100.45","","","","","","NA"
"-73.74","45.47","MONTREAL/PIERRE ELLIOTT TRUDEAU INTL","702S006","2020-03-13 21:00","2020","03","13","21:00","4.2","","-3.8","","56","","0.0","","25","","42","","","","100.53","","","","","","NA"
"-73.74","45.47","MONTREAL/PIERRE ELLIOTT TRUDEAU INTL","702S006","2020-03-13 22:00","2020","03","13","22:00","4.0","","-4.0","","56","","0.0","","25","","39","","","","100.59","","","","","","NA"
"-73.74","45.47","MONTREAL/PIERRE ELLIOTT TRUDEAU INTL","702S006","2020-03-13 23:00","2020","03","13","23:00","3.6","","-4.3","","56","","0.0","","25","","39","","","","100.63","","","","","","NA"
"-73.74","45.47","MONTREAL/PIERRE ELLIOTT TRUDEAU INTL","702S006","2020-03-14 00:00","2020","03","14","00:00","3.4","","-4.4","","57","","0.0","","25","","37","","","","100.69","","","","","","NA"
"-73.74","45.47","MONTREAL/PIERRE ELLIOTT TRUDEAU INTL","702S006","2020-03-14 01:00","2020","03","14","01:00","3.2","","-4.3","","58","","0.0","","25","","33","","","","100.78","","","","","","NA"
"-73.74","45.47","MONTREAL/PIERRE ELLIOTT TRUDEAU INTL","702S006","2020-03-14 02:00","2020","03","14","02:00","3.0","","-4.1","","60","","0.0","","26","","38","","","","100.85","","","","","","NA"
"-73.74","45.47","MONTREAL/PIERRE ELLIOTT TRUDEAU INTL","702S006","2020-03-14 03:00","2020","03","14","03:00","2.5","","-4.8","","59","","0.0","","26","","37","","","","100.93","","","","","","NA"
"-73.74","45.47","MONTREAL/PIERRE ELLIOTT TRUDEAU INTL","702S006","2020-03-14 04:00","2020","03","14","04:00","2.1","","-5.1","","59","","0.0","","26","","34","","","","101.09","","","","","","NA"
"-73.74","45.47","MONTREAL/PIERRE ELLIOTT TRUDEAU INTL","702S006","2020-03-14 05:00","2020","03","14","05:00","1.9","","-5.3","","59","","0.0","","26","","36","","","","101.17","","","","","","NA"
"-73.74","45.47","MONTREAL/PIERRE ELLIOTT TRUDEAU INTL","702S006","2020-03-14 06:00","2020","03","14","06:00","1.7","","-4.9","","61","","0.0","","27","","33","","","","101.33","","","","","","NA"
"-73.74","45.47","MONTREAL/PIERRE ELLIOTT TRUDEAU INTL","702S006","2020-03-14 07:00","2020","03","14","07:00","1.6","","-4.6","","63","","0.0","","27","","34","","","","101.49","","","","","","NA"
"-73.74","45.47","MONTREAL/PIERRE ELLIOTT TRUDEAU INTL","702S006","2020-03-14 08:00","2020","03","14","08:00","2.0","","-5.4","","58","","0.0","","28","","36","","","","101.59","","","","","","NA"
"-73.74","45.47","MONTREAL/PIERRE ELLIOTT TRUDEAU INTL","702S006","2020-03-14 09:00","2020","03","14","09:00","2.6","","-5.6","","55","","0.0","","28","","40","","","","101.67","","","","","","NA"
"-73.74","45.47","MONTREAL/PIERRE ELLIOTT TRUDEAU INTL","702S006","2020-03-14 10:00","2020","03","14","10:00","2.3","","-6.0","","54","","0.0","","29","","43","","","","101.75","","","","","","NA"
"-73.74","45.47","MONTREAL/PIERRE ELLIOTT TRUDEAU INTL","702S006","2020-03-14 11:00","2020","03","14","11:00","2.9","","-4.8","","57","","0.0","","29","","29","","","","101.87","","","","","","NA"
"-73.74","45.47","MONTREAL/PIERRE ELLIOTT TRUDEAU INTL","702S006","2020-03-14 12:00","2020","03","14","12:00","4.2","","-5.2","","50","","0.0","","28","","24","","","","101.91","","","","","","NA"
"-73.74","45.47","MONTREAL/PIERRE ELLIOTT TRUDEAU INTL","702S006","2020-03-14 13:00","2020","03","14","13:00","4.9","","-6.8","","43","","0.0","","26","","27","","","","101.90","","","","","","NA"
"-73.74","45.47","MONTREAL/PIERRE ELLIOTT TRUDEAU INTL","702S006","2020-03-14 14:00","2020","03","14","14:00","5.3","","-6.8","","41","","0.0","","28","","28","","","","101.92","","","","","","NA"
"-73.74","45.47","MONTREAL/PIERRE ELLIOTT TRUDEAU INTL","702S006","2020-03-14 15:00","2020","03","14","15:00","5.3","","-7.4","","39","","0.0","","29","","28","","","","101.98","","","","","","NA"
"-73.74","45.47","MONTREAL/PIERRE ELLIOTT TRUDEAU INTL","702S006","2020-03-14 16:00","2020","03","14","16:00","5.3","","-8.2","","37","","0.0","","29","","26","","","","102.07","","","","","","NA"
"-73.74","45.47","MONTREAL/PIERRE ELLIOTT TRUDEAU INTL","702S006","2020-03-14 17:00","2020","03","14","17:00","4.7","","-8.1","","39","","0.0","","29","","21","","","","102.16","","","","","","NA"
"-73.74","45.47","MONTREAL/PIERRE ELLIOTT TRUDEAU INTL","702S006","2020-03-14 18:00","2020","03","14","18:00","3.3","","-9.1","","40","","0.0","","30","","16","","","","102.26","","","","","","NA"
"-73.74","45.47","MONTREAL/PIERRE ELLIOTT TRUDEAU INTL","702S006","2020-03-14 19:00","2020","03","14","19:00","2.1","","-11.3","","36","","0.0","","32","","27","","","","102.37","","","","","","NA"
"-73.74","45.47","MONTREAL/PIERRE ELLIOTT TRUDEAU INTL","702S006","2020-03-14 20:00","2020","03","14","20:00","1.0","","-10.1","","43","","0.0","","32","","17","","","","102.48","","","","","","NA"
"-73.74","45.47","MONTREAL/PIERRE ELLIOTT TRUDEAU INTL","702S006","2020-03-14 21:00","2020","03","14","21:00","0.6","","-10.4","","44","","0.0","","32","","17","","","","102.51","","","","","","NA"
"-73.74","45.47","MONTREAL/PIERRE ELLIOTT TRUDEAU INTL","702S006","2020-03-14 22:00","2020","03","14","22:00","-1.1","","-9.4","","53","","0.0","","33","","9","","","","102.60","","","","-4","","NA"
"-73.74","45.47","MONTREAL/PIERRE ELLIOTT TRUDEAU INTL","702S006","2020-03-14 23:00","2020","03","14","23:00","-1.2","","-10.6","","49","","0.0","","33","","16","","","","102.63","","","","-6","","NA"
"-73.74","45.47","MONTREAL/PIERRE ELLIOTT TRUDEAU INTL","702S006","2020-03-15 00:00","2020","03","15","00:00","-2.3","","-10.2","","55","","0.0","","34","","14","","","","102.67","","","","-7","","NA"
"-73.74","45.47","MONTREAL/PIERRE ELLIOTT TRUDEAU INTL","702S006","2020-03-15 01:00","2020","03","15","01:00","-3.1","","-11.3","","53","","0.0","","34","","11","","","","102.77","","","","-7","","NA"
"-73.74","45.47","MONTREAL/PIERRE ELLIOTT TRUDEAU INTL","702S006","2020-03-15 02:00","2020","03","15","02:00","-3.7","","-11.4","","55","","0.0","","34","","22","","","","102.79","","","","-10","","NA"
"-73.74","45.47","MONTREAL/PIERRE ELLIOTT TRUDEAU INTL","702S006","2020-03-15 03:00","2020","03","15","03:00","-5.1","","-11.7","","60","","0.2","","1","","18","","","","102.86","","","","-11","","NA"
"-73.74","45.47","MONTREAL/PIERRE ELLIOTT TRUDEAU INTL","702S006","2020-03-15 04:00","2020","03","15","04:00","-6.1","","-12.2","","62","","0.0","","2","","18","","","","102.99","","","","-13","","NA"
"-73.74","45.47","MONTREAL/PIERRE ELLIOTT TRUDEAU INTL","702S006","2020-03-15 05:00","2020","03","15","05:00","-6.6","","-12.5","","63","","0.0","","2","","12","","","","103.12","","","","-12","","NA"
"-73.74","45.47","MONTREAL/PIERRE ELLIOTT TRUDEAU INTL","702S006","2020-03-15 06:00","2020","03","15","06:00","-7.2","","-12.8","","64","","0.0","","1","","15","","","","103.17","","","","-13","","NA"
"-73.74","45.47","MONTREAL/PIERRE ELLIOTT TRUDEAU INTL","702S006","2020-03-15 07:00","2020","03","15","07:00","-7.2","","-13.0","","63","","0.0","","3","","15","","","","103.25","","","","-13","","NA"
"-73.74","45.47","MONTREAL/PIERRE ELLIOTT TRUDEAU INTL","702S006","2020-03-15 08:00","2020","03","15","08:00","-7.5","","-13.7","","61","","0.0","","2","","18","","","","103.33","","","","-14","","NA"
"-73.74","45.47","MONTREAL/PIERRE ELLIOTT TRUDEAU INTL","702S006","2020-03-15 09:00","2020","03","15","09:00","-7.1","","-13.9","","59","","0.3","","4","","11","","","","103.38","","","","-12","","NA"
"-73.74","45.47","MONTREAL/PIERRE ELLIOTT TRUDEAU INTL","702S006","2020-03-15 10:00","2020","03","15","10:00","-6.4","","-13.8","","56","","0.0","","1","","8","","","","103.41","","","","-10","","NA"
"-73.74","45.47","MONTREAL/PIERRE ELLIOTT TRUDEAU INTL","702S006","2020-03-15 11:00","2020","03","15","11:00","-5.0","","-12.3","","57","","0.0","","30","","5","","","","103.39","","","","-7","","NA"
"-73.74","45.47","MONTREAL/PIERRE ELLIOTT TRUDEAU INTL","702S006","2020-03-15 12:00","2020","03","15","12:00","-4.5","","-13.5","","49","","0.0","","30","","12","","","","103.41","","","","-9","","NA"
"-73.74","45.47","MONTREAL/PIERRE ELLIOTT TRUDEAU INTL","702S006","2020-03-15 13:00","2020","03","15","13:00","-3.7","","-14.1","","44","","0.0","","30","","10","","","","103.33","","","","-8","","NA"
"-73.74","45.47","MONTREAL/PIERRE ELLIOTT TRUDEAU INTL","702S006","2020-03-15 14:00","2020","03","15","14:00","-2.6","","-14.3","","40","","0.0","","28","","9","","","","103.30","","","","-6","","NA"
"-73.74","45.47","MONTREAL/PIERRE ELLIOTT TRUDEAU INTL","702S006","2020-03-15 15:00","2020","03","15","15:00","-1.7","","-13.1","","42","","0.0","","27","","10","","","","103.28","","","","-5","","NA"
"-73.74","45.47","MONTREAL/PIERRE ELLIOTT TRUDEAU INTL","702S006","2020-03-15 16:00","2020","03","15","16:00","-2.0","","-12.4","","45","","0.0","","22","","12","","","","103.27","","","","-6","","NA"
"-73.74","45.47","MONTREAL/PIERRE ELLIOTT TRUDEAU INTL","702S006","2020-03-15 17:00","2020","03","15","17:00","-1.6","","-12.4","","44","","0.0","","21","","15","","","","103.25","","","","-6","","NA"
"-73.74","45.47","MONTREAL/PIERRE ELLIOTT TRUDEAU INTL","702S006","2020-03-15 18:00","2020","03","15","18:00","-2.2","","-13.8","","41","","0.0","","23","","14","","","","103.29","","","","-7","","NA"
"-73.74","45.47","MONTREAL/PIERRE ELLIOTT TRUDEAU INTL","702S006","2020-03-15 19:00","2020","03","15","19:00","-2.3","","-13.5","","42","","0.0","","24","","11","","","","103.31","","","","-6","","NA"
"-73.74","45.47","MONTREAL/PIERRE ELLIOTT TRUDEAU INTL","702S006","2020-03-15 20:00","2020","03","15","20:00","-4.3","","-12.1","","55","","0.0","","29","","5","","","","103.33","","","","-6","","NA"
"-73.74","45.47","MONTREAL/PIERRE ELLIOTT TRUDEAU INTL","702S006","2020-03-15 21:00","2020","03","15","21:00","-5.3","","-11.9","","60","","0.0","","33","","6","","","","103.38","","","","-8","","NA"
"-73.74","45.47","MONTREAL/PIERRE ELLIOTT TRUDEAU INTL","702S006","2020-03-15 22:00","2020","03","15","22:00","-3.8","","-17.2","","34","","0.0","","3","","17","","","","103.46","","","","-10","","NA"
"-73.74","45.47","MONTREAL/PIERRE ELLIOTT TRUDEAU INTL","702S006","2020-03-15 23:00","2020","03","15","23:00","-5.0","","-17.3","","38","","0.0","","2","","17","","","","103.47","","","","-11","","NA"
"-73.74","45.47","MONTREAL/PIERRE ELLIOTT TRUDEAU INTL","702S006","2020-03-16 00:00","2020","03","16","00:00","-6.0","","-17.0","","41","","0.0","","2","","17","","","","103.52","","","","-12","","NA"
"-73.74","45.47","MONTREAL/PIERRE ELLIOTT TRUDEAU INTL","702S006","2020-03-16 01:00","2020","03","16","01:00","-6.7","","-17.4","","42","","0.0","","3","","13","","","","103.54","","","","-12","","NA"
"-73.74","45.47","MONTREAL/PIERRE ELLIOTT TRUDEAU INTL","702S006","2020-03-16 02:00","2020","03","16","02:00","-7.4","","-17.0","","46","","0.0","","2","","14","","","","103.51","","","","-13","","NA"
"-73.74","45.47","MONTREAL/PIERRE ELLIOTT TRUDEAU INTL","702S006","2020-03-16 03:00","2020","03","16","03:00","-8.0","","-16.3","","51","","0.0","","4","","13","","","","103.53","","","","-14","","NA"
"-73.74","45.47","MONTREAL/PIERRE ELLIOTT TRUDEAU INTL","702S006","2020-03-16 04:00","2020","03","16","04:00","-8.9","","-16.0","","56","","0.0","","2","","10","","","","103.54","","","","-14","","NA"
"-73.74","45.47","MONTREAL/PIERRE ELLIOTT TRUDEAU INTL","702S006","2020-03-16 05:00","2020","03","16","05:00","-9.4","","-16.3","","57","","0.0","","2","","12","","","","103.54","","","","-15","","NA"
"-73.74","45.47","MONTREAL/PIERRE ELLIOTT TRUDEAU INTL","702S006","2020-03-16 06:00","2020","03","16","06:00","-9.9","","-16.3","","60","","0.0","","1","","12","","","","103.55","","","","-16","","NA"
"-73.74","45.47","MONTREAL/PIERRE ELLIOTT TRUDEAU INTL","702S006","2020-03-16 07:00","2020","03","16","07:00","-8.9","","-15.5","","59","","0.0","","3","","10","","","","103.56","","","","-14","","NA"
"-73.74","45.47","MONTREAL/PIERRE ELLIOTT TRUDEAU INTL","702S006","2020-03-16 08:00","2020","03","16","08:00","-7.9","","-16.6","","50","","0.0","","5","","9","","","","103.53","","","","-12","","NA"
"-73.74","45.47","MONTREAL/PIERRE ELLIOTT TRUDEAU INTL","702S006","2020-03-16 09:00","2020","03","16","09:00","-7.0","","-16.2","","48","","0.0","","3","","11","","","","103.47","","","","-12","","NA"
"-73.74","45.47","MONTREAL/PIERRE ELLIOTT TRUDEAU INTL","702S006","2020-03-16 10:00","2020","03","16","10:00","-5.6","","-15.8","","45","","0.0","","4","","6","","","","103.42","","","","-8","","NA"
"-73.74","45.47","MONTREAL/PIERRE ELLIOTT TRUDEAU INTL","702S006","2020-03-16 11:00","2020","03","16","11:00","-3.4","","-13.7","","45","","0.0","","3","","9","","","","103.29","","","","-7","","NA"
"-73.74","45.47","MONTREAL/PIERRE ELLIOTT TRUDEAU INTL","702S006","2020-03-16 12:00","2020","03","16","12:00","-3.0","","-15.5","","37","","0.0","","9","","8","","","","103.21","","","","-6","","NA"
"-73.74","45.47","MONTREAL/PIERRE ELLIOTT TRUDEAU INTL","702S006","2020-03-16 13:00","2020","03","16","13:00","-2.2","","-15.6","","35","","0.0","","10","","10","","","","103.04","","","","-6","","NA"
"-73.74","45.47","MONTREAL/PIERRE ELLIOTT TRUDEAU INTL","702S006","2020-03-16 14:00","2020","03","16","14:00","-1.2","","-15.9","","32","","0.0","","11","","12","","","","102.88","","","","-5","","NA"
"-73.74","45.47","MONTREAL/PIERRE ELLIOTT TRUDEAU INTL","702S006","2020-03-16 15:00","2020","03","16","15:00","-0.2","","-13.1","","37","","0.0","","11","","14","","","","102.71","","","","-4","","NA"
"-73.74","45.47","MONTREAL/PIERRE ELLIOTT TRUDEAU INTL","702S006","2020-03-16 16:00","2020","03","16","16:00","-0.2","","-13.1","","37","","0.0","","6","","9","","","","102.63","","","","-3","","NA"
"-73.74","45.47","MONTREAL/PIERRE ELLIOTT TRUDEAU INTL","702S006","2020-03-16 17:00","2020","03","16","17:00","-1.0","","-11.7","","44","","0.0","","4","","14","","","","102.53","","","","-5","","NA"
"-73.74","45.47","MONTREAL/PIERRE ELLIOTT TRUDEAU INTL","702S006","2020-03-16 18:00","2020","03","16","18:00","-1.4","","-11.4","","46","","0.0","","4","","15","","","","102.41","","","","-6","","NA"
"-73.74","45.47","MONTREAL/PIERRE ELLIOTT TRUDEAU INTL","702S006","2020-03-16 19:00","2020","03","16","19:00","-2.3","","-10.6","","53","","0.0","","4","","13","","","","102.33","","","","-7","","NA"
"-73.74","45.47","MONTREAL/PIERRE ELLIOTT TRUDEAU INTL","702S006","2020-03-16 20:00","2020","03","16","20:00","-2.6","","-10.6","","54","","0.0","","4","","11","","","","102.26","","","","-7","","NA"
"-73.74","45.47","MONTREAL/PIERRE ELLIOTT TRUDEAU INTL","702S006","2020-03-16 21:00","2020","03","16","21:00","-2.8","","-10.4","","56","","0.0","","3","","9","","","","102.16","","","","-6","","NA"
"-73.74","45.47","MONTREAL/PIERRE ELLIOTT TRUDEAU INTL","702S006","2020-03-16 22:00","2020","03","16","22:00","-2.3","","-9.6","","57","","0.0","","3","","6","","","","102.05","","","","-5","","NA"
"-73.74","45.47","MONTREAL/PIERRE ELLIOTT TRUDEAU INTL","702S006","2020-03-16 23:00","2020","03","16","23:00","-2.1","","-9.0","","59","","0.0","","5","","6","","","","101.88","","","","-4","","NA"
"-73.74","45.47","MONTREAL/PIERRE ELLIOTT TRUDEAU INTL","702S006","2020-03-17 00:00","2020","03","17","00:00","0.6","","-7.7","","54","","0.0","","14","","16","","","","101.73","","","","","","NA"
"-73.74","45.47","MONTREAL/PIERRE ELLIOTT TRUDEAU INTL","702S006","2020-03-17 01:00","2020","03","17","01:00","2.2","","-9.1","","43","","0.0","","15","","23","","","","101.62","","","","","","NA"
"-73.74","45.47","MONTREAL/PIERRE ELLIOTT TRUDEAU INTL","702S006","2020-03-17 02:00","2020","03","17","02:00","2.3","","-7.2","","50","","0.0","","16","","28","","","","101.53","","","","","","NA"
"-73.74","45.47","MONTREAL/PIERRE ELLIOTT TRUDEAU INTL","702S006","2020-03-17 03:00","2020","03","17","03:00","2.2","","-5.2","","58","","0.0","","15","","22","","","","101.48","","","","","","NA"
"-73.74","45.47","MONTREAL/PIERRE ELLIOTT TRUDEAU INTL","702S006","2020-03-17 04:00","2020","03","17","04:00","1.5","","-1.7","","79","","0.0","","15","","20","","","","101.41","","","","","","NA"
"-73.74","45.47","MONTREAL/PIERRE ELLIOTT TRUDEAU INTL","702S006","2020-03-17 05:00","2020","03","17","05:00","0.5","","0.0","","97","","0.0","","15","","29","","","","101.29","","","","","","NA"
"-73.74","45.47","MONTREAL/PIERRE ELLIOTT TRUDEAU INTL","702S006","2020-03-17 06:00","2020","03","17","06:00","0.5","","-0.4","","94","","0.0","","16","","29","","","","101.18","","","","","","NA"
"-73.74","45.47","MONTREAL/PIERRE ELLIOTT TRUDEAU INTL","702S006","2020-03-17 07:00","2020","03","17","07:00","0.8","","-0.3","","93","","0.0","","15","","29","","","","101.11","","","","","","NA"
"-73.74","45.47","MONTREAL/PIERRE ELLIOTT TRUDEAU INTL","702S006","2020-03-17 08:00","2020","03","17","08:00","0.6","","0.0","","95","","0.3","","16","","23","","","","101.05","","","","","","NA"
"-73.74","45.47","MONTREAL/PIERRE ELLIOTT TRUDEAU INTL","702S006","2020-03-17 09:00","2020","03","17","09:00","1.0","","0.3","","95","","0.7","","16","","20","","","","100.98","","","","","","NA"
"-73.74","45.47","MONTREAL/PIERRE ELLIOTT TRUDEAU INTL","702S006","2020-03-17 10:00","2020","03","17","10:00","1.3","","0.5","","95","","1.2","","17","","19","","","","100.94","","","","","","NA"
"-73.74","45.47","MONTREAL/PIERRE ELLIOTT TRUDEAU INTL","702S006","2020-03-17 11:00","2020","03","17","11:00","2.7","","1.9","","94","","1.8","","21","","17","","","","100.94","","","","","","NA"
"-73.74","45.47","MONTREAL/PIERRE ELLIOTT TRUDEAU INTL","702S006","2020-03-17 12:00","2020","03","17","12:00","3.1","","1.9","","92","","0.6","","23","","28","","","","100.94","","","","","","NA"
"-73.74","45.47","MONTREAL/PIERRE ELLIOTT TRUDEAU INTL","702S006","2020-03-17 13:00","2020","03","17","13:00","3.4","","2.1","","91","","0.0","","23","","20","","","","100.95","","","","","","NA"
"-73.74","45.47","MONTREAL/PIERRE ELLIOTT TRUDEAU INTL","702S006","2020-03-17 14:00","2020","03","17","14:00","3.9","","2.5","","91","","0.2","","23","","23","","","","100.91","","","","","","NA"
"-73.74","45.47","MONTREAL/PIERRE ELLIOTT TRUDEAU INTL","702S006","2020-03-17 15:00","2020","03","17","15:00","5.7","","1.9","","77","","0.0","","25","","26","","","","100.94","","","","","","NA"
"-73.74","45.47","MONTREAL/PIERRE ELLIOTT TRUDEAU INTL","702S006","2020-03-17 16:00","2020","03","17","16:00","5.8","","1.0","","71","","0.0","","24","","24","","","","100.94","","","","","","NA"
"-73.74","45.47","MONTREAL/PIERRE ELLIOTT TRUDEAU INTL","702S006","2020-03-17 17:00","2020","03","17","17:00","5.3","","0.8","","73","","0.0","","23","","19","","","","100.98","","","","","","NA"
"-73.74","45.47","MONTREAL/PIERRE ELLIOTT TRUDEAU INTL","702S006","2020-03-17 18:00","2020","03","17","18:00","4.8","","0.4","","73","","0.0","","25","","19","","","","101.11","","","","","","NA"
"-73.74","45.47","MONTREAL/PIERRE ELLIOTT TRUDEAU INTL","702S006","2020-03-17 19:00","2020","03","17","19:00","3.5","","-0.9","","73","","0.0","","30","","28","","","","101.30","","","","","","NA"
"-73.74","45.47","MONTREAL/PIERRE ELLIOTT TRUDEAU INTL","702S006","2020-03-17 20:00","2020","03","17","20:00","2.6","","-1.8","","73","","0.0","","28","","12","","","","101.45","","","","","","NA"
"-73.74","45.47","MONTREAL/PIERRE ELLIOTT TRUDEAU INTL","702S006","2020-03-17 21:00","2020","03","17","21:00","2.0","","-2.3","","73","","0.0","","27","","7","","","","101.59","","","","","","NA"
"-73.74","45.47","MONTREAL/PIERRE ELLIOTT TRUDEAU INTL","702S006","2020-03-17 22:00","2020","03","17","22:00","1.6","","-2.4","","75","","0.0","","24","","7","","","","101.68","","","","","","NA"
"-73.74","45.47","MONTREAL/PIERRE ELLIOTT TRUDEAU INTL","702S006","2020-03-17 23:00","2020","03","17","23:00","1.5","","-2.3","","76","","0.0","","25","","9","","","","101.78","","","","","","NA"
"-73.74","45.47","MONTREAL/PIERRE ELLIOTT TRUDEAU INTL","702S006","2020-03-18 00:00","2020","03","18","00:00","1.9","","-2.8","","71","","0.0","","25","","15","","","","101.86","","","","","","NA"
"-73.74","45.47","MONTREAL/PIERRE ELLIOTT TRUDEAU INTL","702S006","2020-03-18 01:00","2020","03","18","01:00","1.4","","-5.3","","61","","0.0","","29","","20","","","","101.97","","","","","","NA"
"-73.74","45.47","MONTREAL/PIERRE ELLIOTT TRUDEAU INTL","702S006","2020-03-18 02:00","2020","03","18","02:00","0.0","","-5.3","","67","","0.0","","32","","17","","","","102.14","","","","-5","","NA"
"-73.74","45.47","MONTREAL/PIERRE ELLIOTT TRUDEAU INTL","702S006","2020-03-18 03:00","2020","03","18","03:00","-2.5","","-6.1","","76","","0.0","","30","","9","","","","102.24","","","","-6","","NA"
"-73.74","45.47","MONTREAL/PIERRE ELLIOTT TRUDEAU INTL","702S006","2020-03-18 04:00","2020","03","18","04:00","-2.8","","-6.5","","76","","0.2","","30","","7","","","","102.38","","","","-6","","NA"
"-73.74","45.47","MONTREAL/PIERRE ELLIOTT TRUDEAU INTL","702S006","2020-03-18 05:00","2020","03","18","05:00","-2.5","","-9.9","","57","","0.0","","32","","15","","","","102.47","","","","-7","","NA"
"-73.74","45.47","MONTREAL/PIERRE ELLIOTT TRUDEAU INTL","702S006","2020-03-18 06:00","2020","03","18","06:00","-2.9","","-9.8","","59","","0.0","","31","","13","","","","102.62","","","","-8","","NA"
"-73.74","45.47","MONTREAL/PIERRE ELLIOTT TRUDEAU INTL","702S006","2020-03-18 07:00","2020","03","18","07:00","-2.4","","-9.3","","59","","0.0","","3","","11","","","","102.69","","","","-6","","NA"
"-73.74","45.47","MONTREAL/PIERRE ELLIOTT TRUDEAU INTL","702S006","2020-03-18 08:00","2020","03","18","08:00","-1.4","","-11.7","","45","","0.0","","1","","12","","","","102.79","","","","-5","","NA"
"-73.74","45.47","MONTREAL/PIERRE ELLIOTT TRUDEAU INTL","702S006","2020-03-18 09:00","2020","03","18","09:00","-0.7","","-15.0","","33","","0.0","","5","","8","","","","102.90","","","","-4","","NA"
"-73.74","45.47","MONTREAL/PIERRE ELLIOTT TRUDEAU INTL","702S006","2020-03-18 10:00","2020","03","18","10:00","0.7","","-12.9","","35","","0.0","","11","","4","","","","102.91","","","","","","NA"
"-73.74","45.47","MONTREAL/PIERRE ELLIOTT TRUDEAU INTL","702S006","2020-03-18 11:00","2020","03","18","11:00","1.3","","-12.6","","34","","0.0","","15","","5","","","","102.86","","","","","","NA"
"-73.74","45.47","MONTREAL/PIERRE ELLIOTT TRUDEAU INTL","702S006","2020-03-18 12:00","2020","03","18","12:00","1.5","","-12.3","","35","","0.0","","16","","7","","","","102.85","","","","","","NA"
"-73.74","45.47","MONTREAL/PIERRE ELLIOTT TRUDEAU INTL","702S006","2020-03-18 13:00","2020","03","18","13:00","2.3","","-10.6","","38","","0.0","","14","","7","","","","102.79","","","","","","NA"
"-73.74","45.47","MONTREAL/PIERRE ELLIOTT TRUDEAU INTL","702S006","2020-03-18 14:00","2020","03","18","14:00","2.8","","-9.9","","39","","0.0","","18","","3","","","","102.75","","","","","","NA"
"-73.74","45.47","MONTREAL/PIERRE ELLIOTT TRUDEAU INTL","702S006","2020-03-18 15:00","2020","03","18","15:00","2.9","","-9.1","","41","","0.0","","14","","11","","","","102.71","","","","","","NA"
"-73.74","45.47","MONTREAL/PIERRE ELLIOTT TRUDEAU INTL","702S006","2020-03-18 16:00","2020","03","18","16:00","2.6","","-8.3","","44","","0.0","","14","","12","","","","102.65","","","","","","NA"
"-73.74","45.47","MONTREAL/PIERRE ELLIOTT TRUDEAU INTL","702S006","2020-03-18 17:00","2020","03","18","17:00","2.6","","-8.9","","42","","0.0","","12","","9","","","","102.61","","","","","","NA"
"-73.74","45.47","MONTREAL/PIERRE ELLIOTT TRUDEAU INTL","702S006","2020-03-18 18:00","2020","03","18","18:00","2.1","","-7.7","","48","","0.0","","1","","7","","","","102.63","","","","","","NA"
"-73.74","45.47","MONTREAL/PIERRE ELLIOTT TRUDEAU INTL","702S006","2020-03-18 19:00","2020","03","18","19:00","2.7","","-8.4","","44","","0.0","","4","","6","","","","102.61","","","","","","NA"
"-73.74","45.47","MONTREAL/PIERRE ELLIOTT TRUDEAU INTL","702S006","2020-03-18 20:00","2020","03","18","20:00","2.0","","-7.8","","49","","0.0","","4","","10","","","","102.61","","","","","","NA"
"-73.74","45.47","MONTREAL/PIERRE ELLIOTT TRUDEAU INTL","702S006","2020-03-18 21:00","2020","03","18","21:00","1.7","","-7.3","","51","","0.0","","4","","10","","","","102.57","","","","","","NA"
"-73.74","45.47","MONTREAL/PIERRE ELLIOTT TRUDEAU INTL","702S006","2020-03-18 22:00","2020","03","18","22:00","1.8","","-7.8","","49","","0.0","","4","","9","","","","102.50","","","","","","NA"
"-73.74","45.47","MONTREAL/PIERRE ELLIOTT TRUDEAU INTL","702S006","2020-03-18 23:00","2020","03","18","23:00","1.4","","-8.2","","49","","0.0","","3","","12","","","","102.43","","","","","","NA"
"-73.74","45.47","MONTREAL/PIERRE ELLIOTT TRUDEAU INTL","702S006","2020-03-19 00:00","2020","03","19","00:00","1.2","","-8.1","","50","","0.0","","4","","14","","","","102.37","","","","","","NA"
"-73.74","45.47","MONTREAL/PIERRE ELLIOTT TRUDEAU INTL","702S006","2020-03-19 01:00","2020","03","19","01:00","1.3","","-8.0","","50","","0.0","","3","","11","","","","102.33","","","","","","NA"
"-73.74","45.47","MONTREAL/PIERRE ELLIOTT TRUDEAU INTL","702S006","2020-03-19 02:00","2020","03","19","02:00","0.6","","-6.3","","60","","0.0","","3","","12","","","","102.28","","","","","","NA"
"-73.74","45.47","MONTREAL/PIERRE ELLIOTT TRUDEAU INTL","702S006","2020-03-19 03:00","2020","03","19","03:00","0.9","","-7.1","","55","","0.0","","4","","16","","","","102.22","","","","","","NA"
"-73.74","45.47","MONTREAL/PIERRE ELLIOTT TRUDEAU INTL","702S006","2020-03-19 04:00","2020","03","19","04:00","0.1","","-5.8","","64","","0.0","","2","","16","","","","102.25","","","","","","NA"
"-73.74","45.47","MONTREAL/PIERRE ELLIOTT TRUDEAU INTL","702S006","2020-03-19 05:00","2020","03","19","05:00","-0.2","","-5.7","","66","","0.0","","3","","18","","","","102.30","","","","-5","","NA"
"-73.74","45.47","MONTREAL/PIERRE ELLIOTT TRUDEAU INTL","702S006","2020-03-19 06:00","2020","03","19","06:00","0.0","","-6.0","","64","","0.0","","4","","13","","","","102.31","","","","-4","","NA"
"-73.74","45.47","MONTREAL/PIERRE ELLIOTT TRUDEAU INTL","702S006","2020-03-19 07:00","2020","03","19","07:00","0.3","","-5.8","","64","","0.0","","3","","16","","","","102.30","","","","","","NA"
"-73.74","45.47","MONTREAL/PIERRE ELLIOTT TRUDEAU INTL","702S006","2020-03-19 08:00","2020","03","19","08:00","1.0","","-5.5","","62","","0.0","","3","","15","","","","102.27","","","","","","NA"
"-73.74","45.47","MONTREAL/PIERRE ELLIOTT TRUDEAU INTL","702S006","2020-03-19 09:00","2020","03","19","09:00","1.6","","-4.3","","65","","0.0","","2","","17","","","","102.34","","","","","","NA"
"-73.74","45.47","MONTREAL/PIERRE ELLIOTT TRUDEAU INTL","702S006","2020-03-19 10:00","2020","03","19","10:00","1.6","","-4.0","","66","","0.0","","2","","17","","","","102.40","","","","","","NA"
"-73.74","45.47","MONTREAL/PIERRE ELLIOTT TRUDEAU INTL","702S006","2020-03-19 11:00","2020","03","19","11:00","5.2","","-2.0","","60","","0.0","","4","","13","","","","102.28","","","","","","NA"
"-73.74","45.47","MONTREAL/PIERRE ELLIOTT TRUDEAU INTL","702S006","2020-03-19 12:00","2020","03","19","12:00","7.7","","0.2","","59","","0.0","","8","","11","","","","102.17","","","","","","NA"
"-73.74","45.47","MONTREAL/PIERRE ELLIOTT TRUDEAU INTL","702S006","2020-03-19 13:00","2020","03","19","13:00","8.3","","0.9","","60","","0.0","","8","","12","","","","102.12","","","","","","NA"
"-73.74","45.47","MONTREAL/PIERRE ELLIOTT TRUDEAU INTL","702S006","2020-03-19 14:00","2020","03","19","14:00","8.2","","1.1","","61","","0.0","","10","","10","","","","102.02","","","","","","NA"
"-73.74","45.47","MONTREAL/PIERRE ELLIOTT TRUDEAU INTL","702S006","2020-03-19 15:00","2020","03","19","15:00","8.8","","0.9","","58","","0.0","","5","","7","","","","102.04","","","","","","NA"
"-73.74","45.47","MONTREAL/PIERRE ELLIOTT TRUDEAU INTL","702S006","2020-03-19 16:00","2020","03","19","16:00","7.8","","-1.0","","54","","0.0","","4","","15","","","","101.99","","","","","","NA"
"-73.74","45.47","MONTREAL/PIERRE ELLIOTT TRUDEAU INTL","702S006","2020-03-19 17:00","2020","03","19","17:00","7.0","","-1.6","","54","","0.0","","4","","12","","","","101.95","","","","","","NA"
"-73.74","45.47","MONTREAL/PIERRE ELLIOTT TRUDEAU INTL","702S006","2020-03-19 18:00","2020","03","19","18:00","6.4","","-1.5","","57","","0.0","","4","","10","","","","101.90","","","","","","NA"
"-73.74","45.47","MONTREAL/PIERRE ELLIOTT TRUDEAU INTL","702S006","2020-03-19 19:00","2020","03","19","19:00","5.6","","-1.5","","60","","0.0","","3","","9","","","","101.90","","","","","","NA"
"-73.74","45.47","MONTREAL/PIERRE ELLIOTT TRUDEAU INTL","702S006","2020-03-19 20:00","2020","03","19","20:00","5.2","","-1.0","","64","","0.0","","3","","10","","","","101.80","","","","","","NA"
"-73.74","45.47","MONTREAL/PIERRE ELLIOTT TRUDEAU INTL","702S006","2020-03-19 21:00","2020","03","19","21:00","5.7","","0.8","","71","","0.0","","4","","8","","","","101.69","","","","","","NA"
"-73.74","45.47","MONTREAL/PIERRE ELLIOTT TRUDEAU INTL","702S006","2020-03-19 22:00","2020","03","19","22:00","5.5","","1.4","","75","","0.0","","10","","14","","","","101.49","","","","","","NA"
"-73.74","45.47","MONTREAL/PIERRE ELLIOTT TRUDEAU INTL","702S006","2020-03-19 23:00","2020","03","19","23:00","5.4","","2.0","","79","","0.0","","13","","15","","","","101.40","","","","","","NA"
"-73.74","45.47","MONTREAL/PIERRE ELLIOTT TRUDEAU INTL","702S006","2020-03-20 00:00","2020","03","20","00:00","5.5","","2.2","","79","","0.0","","14","","22","","","","101.26","","","","","","NA"
"-73.74","45.47","MONTREAL/PIERRE ELLIOTT TRUDEAU INTL","702S006","2020-03-20 01:00","2020","03","20","01:00","5.4","","2.2","","80","","0.0","","12","","19","","","","101.04","","","","","","NA"
"-73.74","45.47","MONTREAL/PIERRE ELLIOTT TRUDEAU INTL","702S006","2020-03-20 02:00","2020","03","20","02:00","5.4","","2.4","","81","","0.0","","12","","17","","","","100.93","","","","","","NA"
"-73.74","45.47","MONTREAL/PIERRE ELLIOTT TRUDEAU INTL","702S006","2020-03-20 03:00","2020","03","20","03:00","4.6","","3.0","","90","","0.7","","12","","18","","","","100.67","","","","","","NA"
"-73.74","45.47","MONTREAL/PIERRE ELLIOTT TRUDEAU INTL","702S006","2020-03-20 04:00","2020","03","20","04:00","4.4","","3.3","","92","","0.3","","13","","23","","","","100.46","","","","","","NA"
"-73.74","45.47","MONTREAL/PIERRE ELLIOTT TRUDEAU INTL","702S006","2020-03-20 05:00","2020","03","20","05:00","4.5","","3.8","","95","","0.7","","13","","24","","","","100.26","","","","","","NA"
"-73.74","45.47","MONTREAL/PIERRE ELLIOTT TRUDEAU INTL","702S006","2020-03-20 06:00","2020","03","20","06:00","4.7","","4.1","","95","","1.4","","14","","26","","","","100.07","","","","","","NA"
"-73.74","45.47","MONTREAL/PIERRE ELLIOTT TRUDEAU INTL","702S006","2020-03-20 07:00","2020","03","20","07:00","5.1","","4.5","","95","","0.2","","14","","25","","","","99.91","","","","","","NA"
"-73.74","45.47","MONTREAL/PIERRE ELLIOTT TRUDEAU INTL","702S006","2020-03-20 08:00","2020","03","20","08:00","5.7","","5.4","","98","","0.5","","15","","16","","","","99.82","","","","","","NA"
"-73.74","45.47","MONTREAL/PIERRE ELLIOTT TRUDEAU INTL","702S006","2020-03-20 09:00","2020","03","20","09:00","6.5","","6.1","","97","","1.2","","14","","10","","","","99.76","","","","","","NA"
"-73.74","45.47","MONTREAL/PIERRE ELLIOTT TRUDEAU INTL","702S006","2020-03-20 10:00","2020","03","20","10:00","7.7","","7.1","","96","","0.4","","14","","11","","","","99.62","","","","","","NA"
"-73.74","45.47","MONTREAL/PIERRE ELLIOTT TRUDEAU INTL","702S006","2020-03-20 11:00","2020","03","20","11:00","9.6","","8.9","","95","","0.0","","14","","15","","","","99.45","","","","","","NA"
"-73.74","45.47","MONTREAL/PIERRE ELLIOTT TRUDEAU INTL","702S006","2020-03-20 12:00","2020","03","20","12:00","10.6","","9.4","","92","","0.5","","15","","21","","","","99.26","","","","","","NA"
"-73.74","45.47","MONTREAL/PIERRE ELLIOTT TRUDEAU INTL","702S006","2020-03-20 13:00","2020","03","20","13:00","10.7","","9.9","","95","","3.9","","15","","20","","","","99.11","","","","","","NA"
"-73.74","45.47","MONTREAL/PIERRE ELLIOTT TRUDEAU INTL","702S006","2020-03-20 14:00","2020","03","20","14:00","15.2","","13.4","","89","","4.1","","24","","41","","","","99.00","","","","","","NA"
"-73.74","45.47","MONTREAL/PIERRE ELLIOTT TRUDEAU INTL","702S006","2020-03-20 15:00","2020","03","20","15:00","16.1","","12.1","","77","","0.2","","24","","32","","","","99.07","","","","","","NA"
"-73.74","45.47","MONTREAL/PIERRE ELLIOTT TRUDEAU INTL","702S006","2020-03-20 16:00","2020","03","20","16:00","13.2","","8.3","","72","","0.0","","27","","38","","","","99.36","","","","","","NA"
"-73.74","45.47","MONTREAL/PIERRE ELLIOTT TRUDEAU INTL","702S006","2020-03-20 17:00","2020","03","20","17:00","10.3","","4.0","","65","","0.0","","27","","45","","","","99.67","","","","","","NA"
"-73.74","45.47","MONTREAL/PIERRE ELLIOTT TRUDEAU INTL","702S006","2020-03-20 18:00","2020","03","20","18:00","8.0","","2.6","","69","","0.0","","27","","39","","","","99.99","","","","","","NA"
"-73.74","45.47","MONTREAL/PIERRE ELLIOTT TRUDEAU INTL","702S006","2020-03-20 19:00","2020","03","20","19:00","5.8","","0.5","","69","","0.0","","27","","32","","","","100.26","","","","","","NA"
"-73.74","45.47","MONTREAL/PIERRE ELLIOTT TRUDEAU INTL","702S006","2020-03-20 20:00","2020","03","20","20:00","4.4","","-0.3","","71","","0.0","","27","","28","","","","100.52","","","","","","NA"
"-73.74","45.47","MONTREAL/PIERRE ELLIOTT TRUDEAU INTL","702S006","2020-03-20 21:00","2020","03","20","21:00","2.4","","-1.6","","75","","0.0","","30","","39","","","","100.73","","","","","","NA"
"-73.74","45.47","MONTREAL/PIERRE ELLIOTT TRUDEAU INTL","702S006","2020-03-20 22:00","2020","03","20","22:00","0.8","","-3.7","","72","","0.0","","30","","27","","","","101.01","","","","","","NA"
"-73.74","45.47","MONTREAL/PIERRE ELLIOTT TRUDEAU INTL","702S006","2020-03-20 23:00","2020","03","20","23:00","-0.2","","-6.2","","64","","0.0","","31","","35","","","","101.25","","","","-7","","NA"
"-73.74","45.47","MONTREAL/PIERRE ELLIOTT TRUDEAU INTL","702S006","2020-03-21 00:00","2020","03","21","00:00","-1.4","","-7.4","","63","","0.0","","30","","37","","","","101.47","","","","-9","","NA"
"-73.74","45.47","MONTREAL/PIERRE ELLIOTT TRUDEAU INTL","702S006","2020-03-21 01:00","2020","03","21","01:00","-2.5","","-8.4","","64","","0.0","","30","","20","","","","101.72","","","","-8","","NA"
"-73.74","45.47","MONTREAL/PIERRE ELLIOTT TRUDEAU INTL","702S006","2020-03-21 02:00","2020","03","21","02:00","-4.0","","-10.0","","63","","0.0","","29","","26","","","","101.91","","","","-11","","NA"
"-73.74","45.47","MONTREAL/PIERRE ELLIOTT TRUDEAU INTL","702S006","2020-03-21 03:00","2020","03","21","03:00","-4.8","","-11.0","","62","","0.0","","30","","22","","","","102.03","","","","-12","","NA"
"-73.74","45.47","MONTREAL/PIERRE ELLIOTT TRUDEAU INTL","702S006","2020-03-21 04:00","2020","03","21","04:00","-5.9","","-13.3","","56","","0.0","","31","","20","","","","102.19","","","","-13","","NA"
"-73.74","45.47","MONTREAL/PIERRE ELLIOTT TRUDEAU INTL","702S006","2020-03-21 05:00","2020","03","21","05:00","-6.8","","-14.7","","53","","0.0","","30","","20","","","","102.37","","","","-14","","NA"
"-73.74","45.47","MONTREAL/PIERRE ELLIOTT TRUDEAU INTL","702S006","2020-03-21 06:00","2020","03","21","06:00","-7.7","","-14.8","","57","","0.2","","29","","14","","","","102.52","","","","-14","","NA"
"-73.74","45.47","MONTREAL/PIERRE ELLIOTT TRUDEAU INTL","702S006","2020-03-21 07:00","2020","03","21","07:00","-7.9","","-15.5","","54","","0.0","","29","","18","","","","102.66","","","","-15","","NA"
"-73.74","45.47","MONTREAL/PIERRE ELLIOTT TRUDEAU INTL","702S006","2020-03-21 08:00","2020","03","21","08:00","-7.6","","-15.8","","52","","0.0","","28","","17","","","","102.76","","","","-14","","NA"
"-73.74","45.47","MONTREAL/PIERRE ELLIOTT TRUDEAU INTL","702S006","2020-03-21 09:00","2020","03","21","09:00","-7.2","","-15.5","","51","","0.0","","29","","18","","","","102.86","","","","-14","","NA"
"-73.74","45.47","MONTREAL/PIERRE ELLIOTT TRUDEAU INTL","702S006","2020-03-21 10:00","2020","03","21","10:00","-6.2","","-15.1","","49","","0.0","","28","","14","","","","102.95","","","","-12","","NA"
"-73.74","45.47","MONTREAL/PIERRE ELLIOTT TRUDEAU INTL","702S006","2020-03-21 11:00","2020","03","21","11:00","-5.5","","-15.4","","46","","0.0","","28","","17","","","","102.97","","","","-12","","NA"
"-73.74","45.47","MONTREAL/PIERRE ELLIOTT TRUDEAU INTL","702S006","2020-03-21 12:00","2020","03","21","12:00","-4.0","","-13.8","","46","","0.0","","28","","16","","","","102.95","","","","-10","","NA"
"-73.74","45.47","MONTREAL/PIERRE ELLIOTT TRUDEAU INTL","702S006","2020-03-21 13:00","2020","03","21","13:00","-3.2","","-14.6","","41","","0.0","","28","","17","","","","102.89","","","","-9","","NA"
"-73.74","45.47","MONTREAL/PIERRE ELLIOTT TRUDEAU INTL","702S006","2020-03-21 14:00","2020","03","21","14:00","-2.4","","-15.1","","37","","0.0","","28","","17","","","","102.82","","","","-8","","NA"
"-73.74","45.47","MONTREAL/PIERRE ELLIOTT TRUDEAU INTL","702S006","2020-03-21 15:00","2020","03","21","15:00","-2.2","","-14.9","","37","","0.0","","29","","20","","","","102.80","","","","-8","","NA"
"-73.74","45.47","MONTREAL/PIERRE ELLIOTT TRUDEAU INTL","702S006","2020-03-21 16:00","2020","03","21","16:00","-1.7","","-15.6","","34","","0.0","","29","","17","","","","102.81","","","","-7","","NA"
"-73.74","45.47","MONTREAL/PIERRE ELLIOTT TRUDEAU INTL","702S006","2020-03-21 17:00","2020","03","21","17:00","-2.4","","-15.7","","35","","0.0","","29","","18","","","","102.90","","","","-8","","NA"
"-73.74","45.47","MONTREAL/PIERRE ELLIOTT TRUDEAU INTL","702S006","2020-03-21 18:00","2020","03","21","18:00","-3.2","","-16.1","","36","","0.0","","29","","20","","","","102.98","","","","-9","","NA"
"-73.74","45.47","MONTREAL/PIERRE ELLIOTT TRUDEAU INTL","702S006","2020-03-21 19:00","2020","03","21","19:00","-3.8","","-15.0","","41","","0.0","","30","","16","","","","103.06","","","","-9","","NA"
"-73.74","45.47","MONTREAL/PIERRE ELLIOTT TRUDEAU INTL","702S006","2020-03-21 20:00","2020","03","21","20:00","-4.4","","-14.8","","44","","0.0","","31","","15","","","","103.13","","","","-10","","NA"
"-73.74","45.47","MONTREAL/PIERRE ELLIOTT TRUDEAU INTL","702S006","2020-03-21 21:00","2020","03","21","21:00","-5.2","","-14.6","","47","","0.0","","32","","16","","","","103.20","","","","-11","","NA"
"-73.74","45.47","MONTREAL/PIERRE ELLIOTT TRUDEAU INTL","702S006","2020-03-21 22:00","2020","03","21","22:00","-5.4","","-14.2","","50","","0.0","","34","","13","","","","103.26","","","","-11","","NA"
"-73.74","45.47","MONTREAL/PIERRE ELLIOTT TRUDEAU INTL","702S006","2020-03-21 23:00","2020","03","21","23:00","-5.6","","-14.8","","48","","0.0","","36","","13","","","","103.32","","","","-11","","NA"
"-73.74","45.47","MONTREAL/PIERRE ELLIOTT TRUDEAU INTL","702S006","2020-03-22 00:00","2020","03","22","00:00","-5.9","","-15.2","","48","","0.0","","1","","10","","","","103.37","","","","-10","","NA"
"-73.74","45.47","MONTREAL/PIERRE ELLIOTT TRUDEAU INTL","702S006","2020-03-22 01:00","2020","03","22","01:00","-6.7","","-14.8","","53","","0.0","","2","","8","","","","103.43","","","","-11","","NA"
"-73.74","45.47","MONTREAL/PIERRE ELLIOTT TRUDEAU INTL","702S006","2020-03-22 02:00","2020","03","22","02:00","-6.5","","-16.0","","47","","0.0","","4","","8","","","","103.44","","","","-10","","NA"
"-73.74","45.47","MONTREAL/PIERRE ELLIOTT TRUDEAU INTL","702S006","2020-03-22 03:00","2020","03","22","03:00","-7.1","","-15.5","","51","","0.0","","2","","7","","","","103.48","","","","-11","","NA"
"-73.74","45.47","MONTREAL/PIERRE ELLIOTT TRUDEAU INTL","702S006","2020-03-22 04:00","2020","03","22","04:00","-7.6","","-15.3","","54","","0.0","","2","","5","","","","103.56","","","","-10","","NA"
"-73.74","45.47","MONTREAL/PIERRE ELLIOTT TRUDEAU INTL","702S006","2020-03-22 05:00","2020","03","22","05:00","-9.4","","-13.4","","73","","0.0","","32","","4","","","","103.64","","","","-12","","NA"
"-73.74","45.47","MONTREAL/PIERRE ELLIOTT TRUDEAU INTL","702S006","2020-03-22 06:00","2020","03","22","06:00","-9.2","","-12.8","","75","","0.0","","35","","6","","","","103.75","","","","-13","","NA"
"-73.74","45.47","MONTREAL/PIERRE ELLIOTT TRUDEAU INTL","702S006","2020-03-22 07:00","2020","03","22","07:00","-7.4","","-14.4","","57","","0.0","","2","","8","","","","103.84","","","","-11","","NA"
"-73.74","45.47","MONTREAL/PIERRE ELLIOTT TRUDEAU INTL","702S006","2020-03-22 08:00","2020","03","22","08:00","-6.6","","-16.4","","46","","0.0","","4","","14","","","","103.89","","","","-12","","NA"
"-73.74","45.47","MONTREAL/PIERRE ELLIOTT TRUDEAU INTL","702S006","2020-03-22 09:00","2020","03","22","09:00","-5.6","","-16.8","","41","","0.0","","36","","12","","","","103.91","","","","-11","","NA"
"-73.74","45.47","MONTREAL/PIERRE ELLIOTT TRUDEAU INTL","702S006","2020-03-22 10:00","2020","03","22","10:00","-4.8","","-17.1","","38","","0.0","","4","","7","","","","103.91","","","","-8","","NA"
"-73.74","45.47","MONTREAL/PIERRE ELLIOTT TRUDEAU INTL","702S006","2020-03-22 11:00","2020","03","22","11:00","-4.4","","-18.0","","34","","0.0","","2","","6","","","","103.90","","","","-7","","NA"
"-73.74","45.47","MONTREAL/PIERRE ELLIOTT TRUDEAU INTL","702S006","2020-03-22 12:00","2020","03","22","12:00","-4.0","","-17.9","","33","","0.0","","2","","7","","","","103.89","","","","-7","","NA"
"-73.74","45.47","MONTREAL/PIERRE ELLIOTT TRUDEAU INTL","702S006","2020-03-22 13:00","2020","03","22","13:00","-2.9","","-16.5","","34","","0.0","","4","","7","","","","103.85","","","","-6","","NA"
"-73.74","45.47","MONTREAL/PIERRE ELLIOTT TRUDEAU INTL","702S006","2020-03-22 14:00","2020","03","22","14:00","-2.1","","-16.4","","33","","0.0","","2","","11","","","","103.74","","","","-6","","NA"
"-73.74","45.47","MONTREAL/PIERRE ELLIOTT TRUDEAU INTL","702S006","2020-03-22 15:00","2020","03","22","15:00","-1.6","","-15.7","","33","","0.0","","4","","11","","","","103.69","","","","-5","","NA"
"-73.74","45.47","MONTREAL/PIERRE ELLIOTT TRUDEAU INTL","702S006","2020-03-22 16:00","2020","03","22","16:00","-1.6","","-18.9","","25","","0.0","","6","","10","","","","103.63","","","","-5","","NA"
"-73.74","45.47","MONTREAL/PIERRE ELLIOTT TRUDEAU INTL","702S006","2020-03-22 17:00","2020","03","22","17:00","-1.3","","-15.0","","34","","0.0","","9","","9","","","","103.60","","","","-5","","NA"
"-73.74","45.47","MONTREAL/PIERRE ELLIOTT TRUDEAU INTL","702S006","2020-03-22 18:00","2020","03","22","18:00","-1.9","","-17.0","","30","","0.0","","11","","12","","","","103.60","","","","-6","","NA"
"-73.74","45.47","MONTREAL/PIERRE ELLIOTT TRUDEAU INTL","702S006","2020-03-22 19:00","2020","03","22","19:00","-2.4","","-16.2","","34","","0.0","","11","","14","","","","103.59","","","","-7","","NA"
"-73.74","45.47","MONTREAL/PIERRE ELLIOTT TRUDEAU INTL","702S006","2020-03-22 20:00","2020","03","22","20:00","-3.3","","-14.7","","41","","0.0","","7","","8","","","","103.56","","","","-7","","NA"
"-73.74","45.47","MONTREAL/PIERRE ELLIOTT TRUDEAU INTL","702S006","2020-03-22 21:00","2020","03","22","21:00","-3.6","","-15.8","","38","","0.0","","10","","7","","","","103.52","","","","-7","","NA"
"-73.74","45.47","MONTREAL/PIERRE ELLIOTT TRUDEAU INTL","702S006","2020-03-22 22:00","2020","03","22","22:00","-3.9","","-14.5","","43","","0.0","","7","","6","","","","103.47","","","","-7","","NA"
"-73.74","45.47","MONTREAL/PIERRE ELLIOTT TRUDEAU INTL","702S006","2020-03-22 23:00","2020","03","22","23:00","-4.3","","-13.3","","50","","0.0","","4","","11","","","","103.38","","","","-9","","NA"
"-73.74","45.47","MONTREAL/PIERRE ELLIOTT TRUDEAU INTL","702S006","2020-03-23 00:00","2020","03","23","00:00","-4.6","","-12.9","","52","","0.0","","4","","12","","","","103.31","","","","-9","","NA"
"-73.74","45.47","MONTREAL/PIERRE ELLIOTT TRUDEAU INTL","702S006","2020-03-23 01:00","2020","03","23","01:00","-4.9","","-12.5","","55","","0.0","","3","","11","","","","103.23","","","","-9","","NA"
"-73.74","45.47","MONTREAL/PIERRE ELLIOTT TRUDEAU INTL","702S006","2020-03-23 02:00","2020","03","23","02:00","-5.0","","-12.2","","57","","0.0","","3","","10","","","","103.17","","","","-9","","NA"
"-73.74","45.47","MONTREAL/PIERRE ELLIOTT TRUDEAU INTL","702S006","2020-03-23 03:00","2020","03","23","03:00","-4.8","","-11.7","","58","","0.0","","4","","11","","","","103.08","","","","-9","","NA"
"-73.74","45.47","MONTREAL/PIERRE ELLIOTT TRUDEAU INTL","702S006","2020-03-23 04:00","2020","03","23","04:00","-4.0","","-11.4","","56","","0.0","","4","","9","","","","102.98","","","","-8","","NA"
"-73.74","45.47","MONTREAL/PIERRE ELLIOTT TRUDEAU INTL","702S006","2020-03-23 05:00","2020","03","23","05:00","-3.2","","-11.0","","55","","0.0","","9","","7","","","","102.89","","","","-6","","NA"
"-73.74","45.47","MONTREAL/PIERRE ELLIOTT TRUDEAU INTL","702S006","2020-03-23 06:00","2020","03","23","06:00","-3.0","","-9.1","","62","","0.0","","11","","22","","","","102.78","","","","-9","","NA"
"-73.74","45.47","MONTREAL/PIERRE ELLIOTT TRUDEAU INTL","702S006","2020-03-23 07:00","2020","03","23","07:00","-1.7","","-8.6","","59","","0.0","","8","","9","","","","102.72","","","","-5","","NA"
"-73.74","45.47","MONTREAL/PIERRE ELLIOTT TRUDEAU INTL","702S006","2020-03-23 08:00","2020","03","23","08:00","0.8","","-7.6","","53","","0.0","","15","","18","","","","102.70","","","","","","NA"
"-73.74","45.47","MONTREAL/PIERRE ELLIOTT TRUDEAU INTL","702S006","2020-03-23 09:00","2020","03","23","09:00","1.1","","-8.1","","50","","0.0","","15","","33","","","","102.61","","","","","","NA"
"-73.74","45.47","MONTREAL/PIERRE ELLIOTT TRUDEAU INTL","702S006","2020-03-23 10:00","2020","03","23","10:00","1.5","","-8.3","","48","","0.0","","16","","23","","","","102.56","","","","","","NA"
"-73.74","45.47","MONTREAL/PIERRE ELLIOTT TRUDEAU INTL","702S006","2020-03-23 11:00","2020","03","23","11:00","-0.3","","-4.9","","71","","0.0","","15","","28","","","","102.53","","","","-7","","NA"
"-73.74","45.47","MONTREAL/PIERRE ELLIOTT TRUDEAU INTL","702S006","2020-03-23 12:00","2020","03","23","12:00","1.2","","-6.4","","57","","0.0","","15","","29","","","","102.39","","","","","","NA"
"-73.74","45.47","MONTREAL/PIERRE ELLIOTT TRUDEAU INTL","702S006","2020-03-23 13:00","2020","03","23","13:00","1.2","","-6.7","","56","","0.0","","15","","32","","","","102.26","","","","","","NA"
"-73.74","45.47","MONTREAL/PIERRE ELLIOTT TRUDEAU INTL","702S006","2020-03-23 14:00","2020","03","23","14:00","0.6","","-3.4","","74","","0.0","","15","","26","","","","102.19","","","","","","NA"
"-73.74","45.47","MONTREAL/PIERRE ELLIOTT TRUDEAU INTL","702S006","2020-03-23 15:00","2020","03","23","15:00","-1.0","","-1.6","","96","","0.0","","15","","17","","","","102.13","","","","-6","","NA"
"-73.74","45.47","MONTREAL/PIERRE ELLIOTT TRUDEAU INTL","702S006","2020-03-23 16:00","2020","03","23","16:00","-0.7","","-1.2","","97","","0.8","","14","","21","","","","102.06","","","","-6","","NA"
"-73.74","45.47","MONTREAL/PIERRE ELLIOTT TRUDEAU INTL","702S006","2020-03-23 17:00","2020","03","23","17:00","-0.7","","-1.0","","97","","0.6","","12","","15","","","","101.95","","","","-5","","NA"
"-73.74","45.47","MONTREAL/PIERRE ELLIOTT TRUDEAU INTL","702S006","2020-03-23 18:00","2020","03","23","18:00","-0.7","","-1.0","","97","","0.3","","11","","15","","","","101.89","","","","-5","","NA"
"-73.74","45.47","MONTREAL/PIERRE ELLIOTT TRUDEAU INTL","702S006","2020-03-23 19:00","2020","03","23","19:00","-0.6","","-1.0","","97","","0.7","","10","","11","","","","101.83","","","","-4","","NA"
"-73.74","45.47","MONTREAL/PIERRE ELLIOTT TRUDEAU INTL","702S006","2020-03-23 20:00","2020","03","23","20:00","-0.6","","-1.0","","97","","0.2","","11","","10","","","","101.81","","","","-4","","NA"
"-73.74","45.47","MONTREAL/PIERRE ELLIOTT TRUDEAU INTL","702S006","2020-03-23 21:00","2020","03","23","21:00","-0.5","","-0.9","","97","","0.2","","11","","11","","","","101.76","","","","-4","","NA"
"-73.74","45.47","MONTREAL/PIERRE ELLIOTT TRUDEAU INTL","702S006","2020-03-23 22:00","2020","03","23","22:00","-0.4","","-0.7","","98","","0.0","","11","","10","","","","101.69","","","","-4","","NA"
"-73.74","45.47","MONTREAL/PIERRE ELLIOTT TRUDEAU INTL","702S006","2020-03-23 23:00","2020","03","23","23:00","-0.2","","-0.6","","98","","0.0","","12","","8","","","","101.65","","","","-3","","NA"
"-73.74","45.47","MONTREAL/PIERRE ELLIOTT TRUDEAU INTL","702S006","2020-03-24 00:00","2020","03","24","00:00","-0.2","","-0.6","","98","","0.0","","","","0","","","","101.62","","","","","","NA"
"-73.74","45.47","MONTREAL/PIERRE ELLIOTT TRUDEAU INTL","702S006","2020-03-24 01:00","2020","03","24","01:00","-0.3","","-0.6","","98","","0.0","","36","","6","","","","101.58","","","","-2","","NA"
"-73.74","45.47","MONTREAL/PIERRE ELLIOTT TRUDEAU INTL","702S006","2020-03-24 02:00","2020","03","24","02:00","-0.5","","-0.8","","98","","0.0","","1","","7","","","","101.56","","","","-3","","NA"
"-73.74","45.47","MONTREAL/PIERRE ELLIOTT TRUDEAU INTL","702S006","2020-03-24 03:00","2020","03","24","03:00","-0.6","","-0.9","","98","","0.0","","1","","11","","","","101.58","","","","-4","","NA"
"-73.74","45.47","MONTREAL/PIERRE ELLIOTT TRUDEAU INTL","702S006","2020-03-24 04:00","2020","03","24","04:00","-0.7","","-1.0","","98","","0.0","","36","","10","","","","101.59","","","","-4","","NA"
"-73.74","45.47","MONTREAL/PIERRE ELLIOTT TRUDEAU INTL","702S006","2020-03-24 05:00","2020","03","24","05:00","-0.9","","-1.5","","96","","0.2","","36","","6","","","","101.63","","","","-3","","NA"
"-73.74","45.47","MONTREAL/PIERRE ELLIOTT TRUDEAU INTL","702S006","2020-03-24 06:00","2020","03","24","06:00","-0.9","","-1.4","","96","","0.0","","28","","5","","","","101.70","","","","-3","","NA"
"-73.74","45.47","MONTREAL/PIERRE ELLIOTT TRUDEAU INTL","702S006","2020-03-24 07:00","2020","03","24","07:00","-0.5","","-1.2","","95","","0.0","","23","","5","","","","101.77","","","","-2","","NA"
"-73.74","45.47","MONTREAL/PIERRE ELLIOTT TRUDEAU INTL","702S006","2020-03-24 08:00","2020","03","24","08:00","0.0","","-1.0","","93","","0.3","","23","","3","","","","101.80","","","","-1","","NA"
"-73.74","45.47","MONTREAL/PIERRE ELLIOTT TRUDEAU INTL","702S006","2020-03-24 09:00","2020","03","24","09:00","0.8","","-0.9","","88","","0.7","","25","","4","","","","101.85","","","","","","NA"
"-73.74","45.47","MONTREAL/PIERRE ELLIOTT TRUDEAU INTL","702S006","2020-03-24 10:00","2020","03","24","10:00","2.1","","-1.2","","79","","0.2","","25","","4","","","","101.87","","","","","","NA"
"-73.74","45.47","MONTREAL/PIERRE ELLIOTT TRUDEAU INTL","702S006","2020-03-24 11:00","2020","03","24","11:00","3.0","","-2.1","","69","","0.0","","","","0","","","","101.87","","","","","","NA"
"-73.74","45.47","MONTREAL/PIERRE ELLIOTT TRUDEAU INTL","702S006","2020-03-24 12:00","2020","03","24","12:00","3.2","","-1.7","","70","","0.0","","25","","3","","","","101.84","","","","","","NA"
"-73.74","45.47","MONTREAL/PIERRE ELLIOTT TRUDEAU INTL","702S006","2020-03-24 13:00","2020","03","24","13:00","4.2","","-1.6","","66","","0.0","","24","","8","","","","101.78","","","","","","NA"
"-73.74","45.47","MONTREAL/PIERRE ELLIOTT TRUDEAU INTL","702S006","2020-03-24 14:00","2020","03","24","14:00","5.2","","-1.1","","64","","0.0","","20","","12","","","","101.74","","","","","","NA"
"-73.74","45.47","MONTREAL/PIERRE ELLIOTT TRUDEAU INTL","702S006","2020-03-24 15:00","2020","03","24","15:00","5.1","","-1.6","","62","","0.0","","20","","14","","","","101.71","","","","","","NA"
"-73.74","45.47","MONTREAL/PIERRE ELLIOTT TRUDEAU INTL","702S006","2020-03-24 16:00","2020","03","24","16:00","5.7","","-1.0","","62","","0.0","","20","","18","","","","101.71","","","","","","NA"
"-73.74","45.47","MONTREAL/PIERRE ELLIOTT TRUDEAU INTL","702S006","2020-03-24 17:00","2020","03","24","17:00","5.5","","-1.0","","63","","0.0","","22","","13","","","","101.76","","","","","","NA"
"-73.74","45.47","MONTREAL/PIERRE ELLIOTT TRUDEAU INTL","702S006","2020-03-24 18:00","2020","03","24","18:00","4.8","","-1.3","","65","","0.0","","22","","7","","","","101.79","","","","","","NA"
"-73.74","45.47","MONTREAL/PIERRE ELLIOTT TRUDEAU INTL","702S006","2020-03-24 19:00","2020","03","24","19:00","4.1","","-1.3","","68","","0.0","","23","","8","","","","101.83","","","","","","NA"
"-73.74","45.47","MONTREAL/PIERRE ELLIOTT TRUDEAU INTL","702S006","2020-03-24 20:00","2020","03","24","20:00","2.9","","-1.5","","73","","0.0","","24","","5","","","","101.85","","","","","","NA"
"-73.74","45.47","MONTREAL/PIERRE ELLIOTT TRUDEAU INTL","702S006","2020-03-24 21:00","2020","03","24","21:00","3.5","","-1.1","","72","","0.0","","23","","7","","","","101.89","","","","","","NA"
"-73.74","45.47","MONTREAL/PIERRE ELLIOTT TRUDEAU INTL","702S006","2020-03-24 22:00","2020","03","24","22:00","3.0","","-1.2","","74","","0.0","","22","","8","","","","101.89","","","","","","NA"
"-73.74","45.47","MONTREAL/PIERRE ELLIOTT TRUDEAU INTL","702S006","2020-03-24 23:00","2020","03","24","23:00","2.0","","-0.7","","82","","0.0","","19","","10","","","","101.88","","","","","","NA"
"-73.74","45.47","MONTREAL/PIERRE ELLIOTT TRUDEAU INTL","702S006","2020-03-25 00:00","2020","03","25","00:00","0.6","","-1.9","","83","","0.0","","13","","6","","","","101.81","","","","","","NA"
"-73.74","45.47","MONTREAL/PIERRE ELLIOTT TRUDEAU INTL","702S006","2020-03-25 01:00","2020","03","25","01:00","-0.3","","-2.1","","88","","0.0","","14","","9","","","","101.78","","","","-3","","NA"
"-73.74","45.47","MONTREAL/PIERRE ELLIOTT TRUDEAU INTL","702S006","2020-03-25 02:00","2020","03","25","02:00","-1.7","","-3.4","","89","","0.0","","15","","9","","","","101.80","","","","-5","","NA"
"-73.74","45.47","MONTREAL/PIERRE ELLIOTT TRUDEAU INTL","702S006","2020-03-25 03:00","2020","03","25","03:00","-0.4","","-2.1","","88","","0.0","","9","","5","","","","101.76","","","","-2","","NA"
"-73.74","45.47","MONTREAL/PIERRE ELLIOTT TRUDEAU INTL","702S006","2020-03-25 04:00","2020","03","25","04:00","-0.5","","-2.1","","89","","0.0","","10","","5","","","","101.75","","","","-2","","NA"
"-73.74","45.47","MONTREAL/PIERRE ELLIOTT TRUDEAU INTL","702S006","2020-03-25 05:00","2020","03","25","05:00","-1.5","","-2.7","","91","","0.0","","5","","3","","","","101.79","","","","-3","","NA"
"-73.74","45.47","MONTREAL/PIERRE ELLIOTT TRUDEAU INTL","702S006","2020-03-25 06:00","2020","03","25","06:00","-0.8","","-2.1","","91","","0.0","","9","","7","","","","101.80","","","","-3","","NA"
"-73.74","45.47","MONTREAL/PIERRE ELLIOTT TRUDEAU INTL","702S006","2020-03-25 07:00","2020","03","25","07:00","-0.1","","-2.1","","86","","0.0","","11","","11","","","","101.77","","","","-4","","NA"
"-73.74","45.47","MONTREAL/PIERRE ELLIOTT TRUDEAU INTL","702S006","2020-03-25 08:00","2020","03","25","08:00","1.0","","-2.3","","79","","0.0","","10","","12","","","","101.75","","","","","","NA"
"-73.74","45.47","MONTREAL/PIERRE ELLIOTT TRUDEAU INTL","702S006","2020-03-25 09:00","2020","03","25","09:00","2.2","","-2.5","","71","","0.0","","10","","17","","","","101.73","","","","","","NA"
"-73.74","45.47","MONTREAL/PIERRE ELLIOTT TRUDEAU INTL","702S006","2020-03-25 10:00","2020","03","25","10:00","3.8","","-2.8","","62","","0.0","","11","","19","","","","101.67","","","","","","NA"
"-73.74","45.47","MONTREAL/PIERRE ELLIOTT TRUDEAU INTL","702S006","2020-03-25 11:00","2020","03","25","11:00","5.0","","-2.4","","59","","0.0","","13","","23","","","","101.60","","","","","","NA"
"-73.74","45.47","MONTREAL/PIERRE ELLIOTT TRUDEAU INTL","702S006","2020-03-25 12:00","2020","03","25","12:00","6.7","","-1.5","","56","","0.0","","14","","26","","","","101.53","","","","","","NA"
"-73.74","45.47","MONTREAL/PIERRE ELLIOTT TRUDEAU INTL","702S006","2020-03-25 13:00","2020","03","25","13:00","7.1","","-2.1","","52","","0.0","","14","","23","","","","101.47","","","","","","NA"
"-73.74","45.47","MONTREAL/PIERRE ELLIOTT TRUDEAU INTL","702S006","2020-03-25 14:00","2020","03","25","14:00","8.5","","-1.5","","49","","0.0","","15","","18","","","","101.40","","","","","","NA"
"-73.74","45.47","MONTREAL/PIERRE ELLIOTT TRUDEAU INTL","702S006","2020-03-25 15:00","2020","03","25","15:00","8.1","","-1.3","","52","","0.0","","14","","17","","","","101.38","","","","","","NA"
"-73.74","45.47","MONTREAL/PIERRE ELLIOTT TRUDEAU INTL","702S006","2020-03-25 16:00","2020","03","25","16:00","7.8","","-1.5","","52","","0.0","","13","","17","","","","101.33","","","","","","NA"
"-73.74","45.47","MONTREAL/PIERRE ELLIOTT TRUDEAU INTL","702S006","2020-03-25 17:00","2020","03","25","17:00","7.0","","-1.7","","54","","0.0","","14","","17","","","","101.32","","","","","","NA"
"-73.74","45.47","MONTREAL/PIERRE ELLIOTT TRUDEAU INTL","702S006","2020-03-25 18:00","2020","03","25","18:00","6.7","","-1.5","","56","","0.0","","13","","12","","","","101.32","","","","","","NA"
"-73.74","45.47","MONTREAL/PIERRE ELLIOTT TRUDEAU INTL","702S006","2020-03-25 19:00","2020","03","25","19:00","6.1","","-1.4","","59","","0.0","","12","","17","","","","101.27","","","","","","NA"
"-73.74","45.47","MONTREAL/PIERRE ELLIOTT TRUDEAU INTL","702S006","2020-03-25 20:00","2020","03","25","20:00","5.2","","-1.0","","64","","0.0","","14","","11","","","","101.29","","","","","","NA"
"-73.74","45.47","MONTREAL/PIERRE ELLIOTT TRUDEAU INTL","702S006","2020-03-25 21:00","2020","03","25","21:00","3.8","","-1.3","","69","","0.0","","16","","12","","","","101.29","","","","","","NA"
"-73.74","45.47","MONTREAL/PIERRE ELLIOTT TRUDEAU INTL","702S006","2020-03-25 22:00","2020","03","25","22:00","4.1","","-0.6","","71","","0.0","","14","","11","","","","101.27","","","","","","NA"
"-73.74","45.47","MONTREAL/PIERRE ELLIOTT TRUDEAU INTL","702S006","2020-03-25 23:00","2020","03","25","23:00","4.2","","-0.9","","69","","0.0","","15","","7","","","","101.20","","","","","","NA"
"-73.74","45.47","MONTREAL/PIERRE ELLIOTT TRUDEAU INTL","702S006","2020-03-26 00:00","2020","03","26","00:00","4.3","","-0.9","","69","","0.0","","13","","7","","","","101.20","","","","","","NA"
"-73.74","45.47","MONTREAL/PIERRE ELLIOTT TRUDEAU INTL","702S006","2020-03-26 01:00","2020","03","26","01:00","3.8","","-0.7","","72","","0.0","","14","","7","","","","101.20","","","","","","NA"
"-73.74","45.47","MONTREAL/PIERRE ELLIOTT TRUDEAU INTL","702S006","2020-03-26 02:00","2020","03","26","02:00","3.9","","-0.7","","72","","0.0","","13","","7","","","","101.18","","","","","","NA"
"-73.74","45.47","MONTREAL/PIERRE ELLIOTT TRUDEAU INTL","702S006","2020-03-26 03:00","2020","03","26","03:00","3.7","","-0.9","","72","","0.0","","13","","8","","","","101.15","","","","","","NA"
"-73.74","45.47","MONTREAL/PIERRE ELLIOTT TRUDEAU INTL","702S006","2020-03-26 04:00","2020","03","26","04:00","3.7","","-0.8","","72","","0.0","","12","","6","","","","101.15","","","","","","NA"
"-73.74","45.47","MONTREAL/PIERRE ELLIOTT TRUDEAU INTL","702S006","2020-03-26 05:00","2020","03","26","05:00","3.4","","-0.8","","74","","0.0","","12","","10","","","","101.13","","","","","","NA"
"-73.74","45.47","MONTREAL/PIERRE ELLIOTT TRUDEAU INTL","702S006","2020-03-26 06:00","2020","03","26","06:00","3.3","","-0.9","","74","","0.0","","13","","12","","","","101.13","","","","","","NA"
"-73.74","45.47","MONTREAL/PIERRE ELLIOTT TRUDEAU INTL","702S006","2020-03-26 07:00","2020","03","26","07:00","3.4","","-0.6","","75","","0.0","","13","","14","","","","101.12","","","","","","NA"
"-73.74","45.47","MONTREAL/PIERRE ELLIOTT TRUDEAU INTL","702S006","2020-03-26 08:00","2020","03","26","08:00","4.0","","-0.4","","73","","0.0","","13","","13","","","","101.06","","","","","","NA"
"-73.74","45.47","MONTREAL/PIERRE ELLIOTT TRUDEAU INTL","702S006","2020-03-26 09:00","2020","03","26","09:00","4.7","","0.1","","72","","0.0","","14","","13","","","","100.99","","","","","","NA"
"-73.74","45.47","MONTREAL/PIERRE ELLIOTT TRUDEAU INTL","702S006","2020-03-26 10:00","2020","03","26","10:00","5.8","","0.7","","70","","0.0","","14","","14","","","","100.94","","","","","","NA"
"-73.74","45.47","MONTREAL/PIERRE ELLIOTT TRUDEAU INTL","702S006","2020-03-26 11:00","2020","03","26","11:00","6.8","","1.2","","67","","0.0","","16","","11","","","","100.83","","","","","","NA"
"-73.74","45.47","MONTREAL/PIERRE ELLIOTT TRUDEAU INTL","702S006","2020-03-26 12:00","2020","03","26","12:00","9.4","","2.6","","62","","0.0","","13","","20","","","","100.59","","","","","","NA"
"-73.74","45.47","MONTREAL/PIERRE ELLIOTT TRUDEAU INTL","702S006","2020-03-26 13:00","2020","03","26","13:00","9.3","","1.8","","59","","0.0","","14","","17","","","","100.50","","","","","","NA"
"-73.74","45.47","MONTREAL/PIERRE ELLIOTT TRUDEAU INTL","702S006","2020-03-26 14:00","2020","03","26","14:00","11.2","","2.6","","56","","0.0","","13","","17","","","","100.33","","","","","","NA"
"-73.74","45.47","MONTREAL/PIERRE ELLIOTT TRUDEAU INTL","702S006","2020-03-26 15:00","2020","03","26","15:00","11.1","","2.3","","54","","0.0","","15","","14","","","","100.19","","","","","","NA"
"-73.74","45.47","MONTREAL/PIERRE ELLIOTT TRUDEAU INTL","702S006","2020-03-26 16:00","2020","03","26","16:00","10.9","","3.3","","59","","0.0","","14","","20","","","","100.03","","","","","","NA"
"-73.74","45.47","MONTREAL/PIERRE ELLIOTT TRUDEAU INTL","702S006","2020-03-26 17:00","2020","03","26","17:00","8.6","","5.8","","82","","1.9","","27","","9","","","","100.21","","","","","","NA"
"-73.74","45.47","MONTREAL/PIERRE ELLIOTT TRUDEAU INTL","702S006","2020-03-26 18:00","2020","03","26","18:00","7.6","","6.1","","90","","0.4","","16","","12","","","","100.10","","","","","","NA"
"-73.74","45.47","MONTREAL/PIERRE ELLIOTT TRUDEAU INTL","702S006","2020-03-26 19:00","2020","03","26","19:00","8.2","","6.8","","91","","0.3","","20","","15","","","","100.06","","","","","","NA"
"-73.74","45.47","MONTREAL/PIERRE ELLIOTT TRUDEAU INTL","702S006","2020-03-26 20:00","2020","03","26","20:00","7.7","","7.1","","96","","0.0","","24","","12","","","","100.06","","","","","","NA"
"-73.74","45.47","MONTREAL/PIERRE ELLIOTT TRUDEAU INTL","702S006","2020-03-26 21:00","2020","03","26","21:00","6.2","","4.9","","91","","0.0","","27","","18","","","","100.09","","","","","","NA"
"-73.74","45.47","MONTREAL/PIERRE ELLIOTT TRUDEAU INTL","702S006","2020-03-26 22:00","2020","03","26","22:00","5.3","","3.6","","89","","0.0","","27","","17","","","","100.13","","","","","","NA"
"-73.74","45.47","MONTREAL/PIERRE ELLIOTT TRUDEAU INTL","702S006","2020-03-26 23:00","2020","03","26","23:00","4.5","","2.0","","84","","0.2","","28","","20","","","","100.21","","","","","","NA"
"-73.74","45.47","MONTREAL/PIERRE ELLIOTT TRUDEAU INTL","702S006","2020-03-27 00:00","2020","03","27","00:00","3.2","","1.2","","86","","0.0","","27","","16","","","","100.30","","","","","","NA"
"-73.74","45.47","MONTREAL/PIERRE ELLIOTT TRUDEAU INTL","702S006","2020-03-27 01:00","2020","03","27","01:00","2.6","","0.6","","87","","0.2","","26","","12","","","","100.37","","","","","","NA"
"-73.74","45.47","MONTREAL/PIERRE ELLIOTT TRUDEAU INTL","702S006","2020-03-27 02:00","2020","03","27","02:00","2.4","","-0.1","","83","","0.0","","29","","19","","","","100.39","","","","","","NA"
"-73.74","45.47","MONTREAL/PIERRE ELLIOTT TRUDEAU INTL","702S006","2020-03-27 03:00","2020","03","27","03:00","2.0","","-0.6","","83","","0.0","","28","","18","","","","100.46","","","","","","NA"
"-73.74","45.47","MONTREAL/PIERRE ELLIOTT TRUDEAU INTL","702S006","2020-03-27 04:00","2020","03","27","04:00","1.4","","-0.7","","86","","0.0","","27","","13","","","","100.55","","","","","","NA"
"-73.74","45.47","MONTREAL/PIERRE ELLIOTT TRUDEAU INTL","702S006","2020-03-27 05:00","2020","03","27","05:00","1.2","","-1.3","","84","","0.0","","27","","13","","","","100.62","","","","","","NA"
"-73.74","45.47","MONTREAL/PIERRE ELLIOTT TRUDEAU INTL","702S006","2020-03-27 06:00","2020","03","27","06:00","0.6","","-1.7","","84","","0.0","","27","","11","","","","100.67","","","","","","NA"
"-73.74","45.47","MONTREAL/PIERRE ELLIOTT TRUDEAU INTL","702S006","2020-03-27 07:00","2020","03","27","07:00","1.5","","-1.2","","82","","0.0","","27","","16","","","","100.76","","","","","","NA"
"-73.74","45.47","MONTREAL/PIERRE ELLIOTT TRUDEAU INTL","702S006","2020-03-27 08:00","2020","03","27","08:00","2.5","","-0.8","","79","","0.0","","27","","18","","","","100.86","","","","","","NA"
"-73.74","45.47","MONTREAL/PIERRE ELLIOTT TRUDEAU INTL","702S006","2020-03-27 09:00","2020","03","27","09:00","3.6","","-1.3","","71","","0.0","","27","","20","","","","100.92","","","","","","NA"
"-73.74","45.47","MONTREAL/PIERRE ELLIOTT TRUDEAU INTL","702S006","2020-03-27 10:00","2020","03","27","10:00","4.5","","-1.4","","65","","0.0","","27","","17","","","","100.95","","","","","","NA"
"-73.74","45.47","MONTREAL/PIERRE ELLIOTT TRUDEAU INTL","702S006","2020-03-27 11:00","2020","03","27","11:00","5.4","","-2.7","","56","","0.0","","26","","16","","","","100.93","","","","","","NA"
"-73.74","45.47","MONTREAL/PIERRE ELLIOTT TRUDEAU INTL","702S006","2020-03-27 12:00","2020","03","27","12:00","6.5","","-3.4","","49","","0.0","","27","","13","","","","100.97","","","","","","NA"
"-73.74","45.47","MONTREAL/PIERRE ELLIOTT TRUDEAU INTL","702S006","2020-03-27 13:00","2020","03","27","13:00","7.0","","-4.1","","45","","0.0","","25","","16","","","","100.99","","","","","","NA"
"-73.74","45.47","MONTREAL/PIERRE ELLIOTT TRUDEAU INTL","702S006","2020-03-27 14:00","2020","03","27","14:00","8.1","","-4.0","","42","","0.0","","26","","17","","","","101.00","","","","","","NA"
"-73.74","45.47","MONTREAL/PIERRE ELLIOTT TRUDEAU INTL","702S006","2020-03-27 15:00","2020","03","27","15:00","8.5","","-6.0","","35","","0.0","","28","","20","","","","101.02","","","","","","NA"
"-73.74","45.47","MONTREAL/PIERRE ELLIOTT TRUDEAU INTL","702S006","2020-03-27 16:00","2020","03","27","16:00","8.6","","-6.6","","33","","0.0","","27","","20","","","","101.03","","","","","","NA"
"-73.74","45.47","MONTREAL/PIERRE ELLIOTT TRUDEAU INTL","702S006","2020-03-27 17:00","2020","03","27","17:00","8.1","","-6.9","","34","","0.0","","27","","18","","","","101.12","","","","","","NA"
"-73.74","45.47","MONTREAL/PIERRE ELLIOTT TRUDEAU INTL","702S006","2020-03-27 18:00","2020","03","27","18:00","7.0","","-6.5","","37","","0.0","","27","","20","","","","101.22","","","","","","NA"
"-73.74","45.47","MONTREAL/PIERRE ELLIOTT TRUDEAU INTL","702S006","2020-03-27 19:00","2020","03","27","19:00","5.5","","-6.8","","41","","0.0","","27","","8","","","","101.27","","","","","","NA"
"-73.74","45.47","MONTREAL/PIERRE ELLIOTT TRUDEAU INTL","702S006","2020-03-27 20:00","2020","03","27","20:00","3.1","","-6.8","","48","","0.0","","28","","8","","","","101.37","","","","","","NA"
"-73.74","45.47","MONTREAL/PIERRE ELLIOTT TRUDEAU INTL","702S006","2020-03-27 21:00","2020","03","27","21:00","1.4","","-7.0","","54","","0.0","","31","","9","","","","101.43","","","","","","NA"
"-73.74","45.47","MONTREAL/PIERRE ELLIOTT TRUDEAU INTL","702S006","2020-03-27 22:00","2020","03","27","22:00","2.3","","-8.0","","46","","0.0","","35","","5","","","","101.46","","","","","","NA"
"-73.74","45.47","MONTREAL/PIERRE ELLIOTT TRUDEAU INTL","702S006","2020-03-27 23:00","2020","03","27","23:00","0.0","","-7.4","","57","","0.0","","29","","4","","","","101.51","","","","-1","","NA"
"-73.74","45.47","MONTREAL/PIERRE ELLIOTT TRUDEAU INTL","702S006","2020-03-28 00:00","2020","03","28","00:00","-0.1","","-7.8","","56","","0.0","","","","0","","","","101.56","","","","","","NA"
"-73.74","45.47","MONTREAL/PIERRE ELLIOTT TRUDEAU INTL","702S006","2020-03-28 01:00","2020","03","28","01:00","-1.8","","-7.2","","67","","0.0","","33","","3","","","","101.61","","","","-3","","NA"
"-73.74","45.47","MONTREAL/PIERRE ELLIOTT TRUDEAU INTL","702S006","2020-03-28 02:00","2020","03","28","02:00","-1.8","","-8.4","","61","","0.0","","17","","4","","","","101.61","","","","-3","","NA"
"-73.74","45.47","MONTREAL/PIERRE ELLIOTT TRUDEAU INTL","702S006","2020-03-28 03:00","2020","03","28","03:00","0.2","","-3.1","","78","","0.0","","13","","4","","","","101.59","","","","","","NA"
"-73.74","45.47","MONTREAL/PIERRE ELLIOTT TRUDEAU INTL","702S006","2020-03-28 04:00","2020","03","28","04:00","-1.6","","-3.7","","85","","0.0","","","","0","","","","101.63","","","","","","NA"
"-73.74","45.47","MONTREAL/PIERRE ELLIOTT TRUDEAU INTL","702S006","2020-03-28 05:00","2020","03","28","05:00","-1.7","","-4.1","","84","","0.0","","9","","3","","","","101.62","","","","-3","","NA"
"-73.74","45.47","MONTREAL/PIERRE ELLIOTT TRUDEAU INTL","702S006","2020-03-28 06:00","2020","03","28","06:00","0.5","","-5.1","","66","","0.0","","10","","5","","","","101.64","","","","","","NA"
"-73.74","45.47","MONTREAL/PIERRE ELLIOTT TRUDEAU INTL","702S006","2020-03-28 07:00","2020","03","28","07:00","1.8","","-4.8","","61","","0.0","","9","","7","","","","101.67","","","","","","NA"
"-73.74","45.47","MONTREAL/PIERRE ELLIOTT TRUDEAU INTL","702S006","2020-03-28 08:00","2020","03","28","08:00","3.6","","-7.3","","45","","0.0","","11","","7","","","","101.76","","","","","","NA"
"-73.74","45.47","MONTREAL/PIERRE ELLIOTT TRUDEAU INTL","702S006","2020-03-28 09:00","2020","03","28","09:00","4.3","","-7.7","","41","","0.0","","10","","10","","","","101.76","","","","","","NA"
"-73.74","45.47","MONTREAL/PIERRE ELLIOTT TRUDEAU INTL","702S006","2020-03-28 10:00","2020","03","28","10:00","5.0","","-8.0","","39","","0.0","","10","","10","","","","101.75","","","","","","NA"
"-73.74","45.47","MONTREAL/PIERRE ELLIOTT TRUDEAU INTL","702S006","2020-03-28 11:00","2020","03","28","11:00","6.1","","-8.2","","35","","0.0","","11","","9","","","","101.70","","","","","","NA"
"-73.74","45.47","MONTREAL/PIERRE ELLIOTT TRUDEAU INTL","702S006","2020-03-28 12:00","2020","03","28","12:00","7.1","","-9.1","","30","","0.0","","8","","8","","","","101.68","","","","","","NA"
"-73.74","45.47","MONTREAL/PIERRE ELLIOTT TRUDEAU INTL","702S006","2020-03-28 13:00","2020","03","28","13:00","8.0","","-7.6","","32","","0.0","","11","","13","","","","101.62","","","","","","NA"
"-73.74","45.47","MONTREAL/PIERRE ELLIOTT TRUDEAU INTL","702S006","2020-03-28 14:00","2020","03","28","14:00","8.3","","-7.4","","32","","0.0","","8","","9","","","","101.56","","","","","","NA"
"-73.74","45.47","MONTREAL/PIERRE ELLIOTT TRUDEAU INTL","702S006","2020-03-28 15:00","2020","03","28","15:00","8.7","","-5.9","","35","","0.0","","6","","11","","","","101.48","","","","","","NA"
"-73.74","45.47","MONTREAL/PIERRE ELLIOTT TRUDEAU INTL","702S006","2020-03-28 16:00","2020","03","28","16:00","9.0","","-6.2","","33","","0.0","","6","","9","","","","101.47","","","","","","NA"
"-73.74","45.47","MONTREAL/PIERRE ELLIOTT TRUDEAU INTL","702S006","2020-03-28 17:00","2020","03","28","17:00","8.8","","-5.7","","36","","0.0","","5","","11","","","","101.47","","","","","","NA"
"-73.74","45.47","MONTREAL/PIERRE ELLIOTT TRUDEAU INTL","702S006","2020-03-28 18:00","2020","03","28","18:00","8.0","","-4.7","","40","","0.0","","4","","12","","","","101.55","","","","","","NA"
"-73.74","45.47","MONTREAL/PIERRE ELLIOTT TRUDEAU INTL","702S006","2020-03-28 19:00","2020","03","28","19:00","6.0","","-3.1","","52","","0.0","","2","","11","","","","101.59","","","","","","NA"
"-73.74","45.47","MONTREAL/PIERRE ELLIOTT TRUDEAU INTL","702S006","2020-03-28 20:00","2020","03","28","20:00","5.8","","-5.2","","45","","0.0","","3","","15","","","","101.64","","","","","","NA"
"-73.74","45.47","MONTREAL/PIERRE ELLIOTT TRUDEAU INTL","702S006","2020-03-28 21:00","2020","03","28","21:00","5.7","","-6.0","","43","","0.0","","4","","16","","","","101.66","","","","","","NA"
"-73.74","45.47","MONTREAL/PIERRE ELLIOTT TRUDEAU INTL","702S006","2020-03-28 22:00","2020","03","28","22:00","5.3","","-5.8","","45","","0.0","","4","","13","","","","101.62","","","","","","NA"
"-73.74","45.47","MONTREAL/PIERRE ELLIOTT TRUDEAU INTL","702S006","2020-03-28 23:00","2020","03","28","23:00","5.3","","-5.9","","44","","0.0","","3","","15","","","","101.60","","","","","","NA"
"-73.74","45.47","MONTREAL/PIERRE ELLIOTT TRUDEAU INTL","702S006","2020-03-29 00:00","2020","03","29","00:00","5.3","","-5.7","","45","","0.0","","3","","13","","","","101.54","","","","","","NA"
"-73.74","45.47","MONTREAL/PIERRE ELLIOTT TRUDEAU INTL","702S006","2020-03-29 01:00","2020","03","29","01:00","5.0","","-5.1","","48","","0.0","","3","","14","","","","101.57","","","","","","NA"
"-73.74","45.47","MONTREAL/PIERRE ELLIOTT TRUDEAU INTL","702S006","2020-03-29 02:00","2020","03","29","02:00","4.8","","-5.0","","49","","0.0","","3","","12","","","","101.52","","","","","","NA"
"-73.74","45.47","MONTREAL/PIERRE ELLIOTT TRUDEAU INTL","702S006","2020-03-29 03:00","2020","03","29","03:00","4.8","","-5.0","","49","","0.0","","3","","13","","","","101.48","","","","","","NA"
"-73.74","45.47","MONTREAL/PIERRE ELLIOTT TRUDEAU INTL","702S006","2020-03-29 04:00","2020","03","29","04:00","4.6","","-4.6","","51","","0.0","","3","","16","","","","101.40","","","","","","NA"
"-73.74","45.47","MONTREAL/PIERRE ELLIOTT TRUDEAU INTL","702S006","2020-03-29 05:00","2020","03","29","05:00","4.4","","-4.4","","53","","0.0","","3","","16","","","","101.38","","","","","","NA"
"-73.74","45.47","MONTREAL/PIERRE ELLIOTT TRUDEAU INTL","702S006","2020-03-29 06:00","2020","03","29","06:00","4.5","","-4.0","","54","","0.0","","3","","15","","","","101.44","","","","","","NA"
"-73.74","45.47","MONTREAL/PIERRE ELLIOTT TRUDEAU INTL","702S006","2020-03-29 07:00","2020","03","29","07:00","4.9","","-3.5","","54","","0.0","","3","","13","","","","101.41","","","","","","NA"
"-73.74","45.47","MONTREAL/PIERRE ELLIOTT TRUDEAU INTL","702S006","2020-03-29 08:00","2020","03","29","08:00","5.9","","-3.7","","50","","0.0","","4","","14","","","","101.33","","","","","","NA"
"-73.74","45.47","MONTREAL/PIERRE ELLIOTT TRUDEAU INTL","702S006","2020-03-29 09:00","2020","03","29","09:00","4.8","","-0.2","","70","","0.0","","3","","13","","","","101.28","","","","","","NA"
"-73.74","45.47","MONTREAL/PIERRE ELLIOTT TRUDEAU INTL","702S006","2020-03-29 10:00","2020","03","29","10:00","6.2","","2.5","","77","","0.8","","7","","14","","","","101.13","","","","","","NA"
"-73.74","45.47","MONTREAL/PIERRE ELLIOTT TRUDEAU INTL","702S006","2020-03-29 11:00","2020","03","29","11:00","6.3","","4.1","","86","","0.5","","8","","18","","","","100.96","","","","","","NA"
"-73.74","45.47","MONTREAL/PIERRE ELLIOTT TRUDEAU INTL","702S006","2020-03-29 12:00","2020","03","29","12:00","6.1","","4.2","","88","","0.9","","7","","16","","","","100.87","","","","","","NA"
"-73.74","45.47","MONTREAL/PIERRE ELLIOTT TRUDEAU INTL","702S006","2020-03-29 13:00","2020","03","29","13:00","6.1","","5.0","","93","","3.9","","8","","19","","","","100.70","","","","","","NA"
"-73.74","45.47","MONTREAL/PIERRE ELLIOTT TRUDEAU INTL","702S006","2020-03-29 14:00","2020","03","29","14:00","5.6","","4.5","","93","","4.5","","9","","21","","","","100.59","","","","","","NA"
"-73.74","45.47","MONTREAL/PIERRE ELLIOTT TRUDEAU INTL","702S006","2020-03-29 15:00","2020","03","29","15:00","5.6","","4.4","","92","","4.4","","8","","23","","","","100.42","","","","","","NA"
"-73.74","45.47","MONTREAL/PIERRE ELLIOTT TRUDEAU INTL","702S006","2020-03-29 16:00","2020","03","29","16:00","5.4","","4.6","","94","","5.3","","8","","22","","","","100.42","","","","","","NA"
"-73.74","45.47","MONTREAL/PIERRE ELLIOTT TRUDEAU INTL","702S006","2020-03-29 17:00","2020","03","29","17:00","5.4","","4.5","","95","","4.5","","7","","19","","","","100.47","","","","","","NA"
"-73.74","45.47","MONTREAL/PIERRE ELLIOTT TRUDEAU INTL","702S006","2020-03-29 18:00","2020","03","29","18:00","5.3","","4.3","","94","","1.6","","8","","18","","","","100.49","","","","","","NA"
"-73.74","45.47","MONTREAL/PIERRE ELLIOTT TRUDEAU INTL","702S006","2020-03-29 19:00","2020","03","29","19:00","5.4","","4.2","","92","","2.9","","11","","23","","","","100.54","","","","","","NA"
"-73.74","45.47","MONTREAL/PIERRE ELLIOTT TRUDEAU INTL","702S006","2020-03-29 20:00","2020","03","29","20:00","5.4","","3.7","","89","","0.8","","12","","29","","","","100.56","","","","","","NA"
"-73.74","45.47","MONTREAL/PIERRE ELLIOTT TRUDEAU INTL","702S006","2020-03-29 21:00","2020","03","29","21:00","5.4","","3.4","","87","","0.0","","13","","36","","","","100.52","","","","","","NA"
"-73.74","45.47","MONTREAL/PIERRE ELLIOTT TRUDEAU INTL","702S006","2020-03-29 22:00","2020","03","29","22:00","5.0","","3.9","","93","","2.9","","14","","30","","","","100.60","","","","","","NA"
"-73.74","45.47","MONTREAL/PIERRE ELLIOTT TRUDEAU INTL","702S006","2020-03-29 23:00","2020","03","29","23:00","5.2","","4.1","","92","","1.7","","13","","29","","","","100.53","","","","","","NA"
"-73.74","45.47","MONTREAL/PIERRE ELLIOTT TRUDEAU INTL","702S006","2020-03-30 00:00","2020","03","30","00:00","5.5","","4.1","","91","","0.2","","14","","25","","","","100.56","","","","","","NA"
"-73.74","45.47","MONTREAL/PIERRE ELLIOTT TRUDEAU INTL","702S006","2020-03-30 01:00","2020","03","30","01:00","5.4","","3.8","","90","","0.0","","15","","29","","","","100.54","","","","","","NA"
"-73.74","45.47","MONTREAL/PIERRE ELLIOTT TRUDEAU INTL","702S006","2020-03-30 02:00","2020","03","30","02:00","5.4","","3.7","","88","","0.0","","15","","31","","","","100.49","","","","","","NA"
"-73.74","45.47","MONTREAL/PIERRE ELLIOTT TRUDEAU INTL","702S006","2020-03-30 03:00","2020","03","30","03:00","5.1","","3.6","","90","","0.0","","15","","25","","","","100.49","","","","","","NA"
"-73.74","45.47","MONTREAL/PIERRE ELLIOTT TRUDEAU INTL","702S006","2020-03-30 04:00","2020","03","30","04:00","5.2","","3.7","","90","","0.0","","15","","20","","","","100.51","","","","","","NA"
"-73.74","45.47","MONTREAL/PIERRE ELLIOTT TRUDEAU INTL","702S006","2020-03-30 05:00","2020","03","30","05:00","5.3","","3.7","","90","","0.0","","14","","19","","","","100.55","","","","","","NA"
"-73.74","45.47","MONTREAL/PIERRE ELLIOTT TRUDEAU INTL","702S006","2020-03-30 06:00","2020","03","30","06:00","5.4","","3.7","","89","","0.0","","14","","19","","","","100.57","","","","","","NA"
"-73.74","45.47","MONTREAL/PIERRE ELLIOTT TRUDEAU INTL","702S006","2020-03-30 07:00","2020","03","30","07:00","5.2","","3.4","","88","","0.0","","13","","21","","","","100.59","","","","","","NA"
"-73.74","45.47","MONTREAL/PIERRE ELLIOTT TRUDEAU INTL","702S006","2020-03-30 08:00","2020","03","30","08:00","5.7","","3.7","","87","","0.0","","14","","21","","","","100.62","","","","","","NA"
"-73.74","45.47","MONTREAL/PIERRE ELLIOTT TRUDEAU INTL","702S006","2020-03-30 09:00","2020","03","30","09:00","7.6","","4.9","","83","","0.0","","14","","20","","","","100.63","","","","","","NA"
"-73.74","45.47","MONTREAL/PIERRE ELLIOTT TRUDEAU INTL","702S006","2020-03-30 10:00","2020","03","30","10:00","7.7","","5.0","","83","","0.0","","13","","9","","","","100.67","","","","","","NA"
"-73.74","45.47","MONTREAL/PIERRE ELLIOTT TRUDEAU INTL","702S006","2020-03-30 11:00","2020","03","30","11:00","7.8","","5.5","","86","","0.4","","4","","6","","","","100.71","","","","","","NA"
"-73.74","45.47","MONTREAL/PIERRE ELLIOTT TRUDEAU INTL","702S006","2020-03-30 12:00","2020","03","30","12:00","8.4","","6.7","","89","","0.7","","7","","7","","","","100.72","","","","","","NA"
"-73.74","45.47","MONTREAL/PIERRE ELLIOTT TRUDEAU INTL","702S006","2020-03-30 13:00","2020","03","30","13:00","7.2","","5.9","","91","","0.3","","14","","22","","","","100.78","","","","","","NA"
"-73.74","45.47","MONTREAL/PIERRE ELLIOTT TRUDEAU INTL","702S006","2020-03-30 14:00","2020","03","30","14:00","7.1","","5.7","","91","","1.1","","12","","23","","","","100.78","","","","","","NA"
"-73.74","45.47","MONTREAL/PIERRE ELLIOTT TRUDEAU INTL","702S006","2020-03-30 15:00","2020","03","30","15:00","6.7","","5.0","","89","","0.4","","11","","23","","","","100.82","","","","","","NA"
"-73.74","45.47","MONTREAL/PIERRE ELLIOTT TRUDEAU INTL","702S006","2020-03-30 16:00","2020","03","30","16:00","6.5","","5.2","","92","","1.8","","7","","11","","","","100.91","","","","","","NA"
"-73.74","45.47","MONTREAL/PIERRE ELLIOTT TRUDEAU INTL","702S006","2020-03-30 17:00","2020","03","30","17:00","5.0","","4.2","","94","","1.5","","4","","17","","","","101.00","","","","","","NA"
"-73.74","45.47","MONTREAL/PIERRE ELLIOTT TRUDEAU INTL","702S006","2020-03-30 18:00","2020","03","30","18:00","4.3","","3.4","","94","","0.5","","3","","17","","","","101.08","","","","","","NA"
"-73.74","45.47","MONTREAL/PIERRE ELLIOTT TRUDEAU INTL","702S006","2020-03-30 19:00","2020","03","30","19:00","3.9","","3.0","","94","","0.3","","3","","18","","","","101.17","","","","","","NA"
"-73.74","45.47","MONTREAL/PIERRE ELLIOTT TRUDEAU INTL","702S006","2020-03-30 20:00","2020","03","30","20:00","3.8","","2.7","","93","","0.3","","4","","20","","","","101.26","","","","","","NA"
"-73.74","45.47","MONTREAL/PIERRE ELLIOTT TRUDEAU INTL","702S006","2020-03-30 21:00","2020","03","30","21:00","2.9","","1.7","","92","","0.3","","5","","23","","","","101.32","","","","","","NA"
"-73.74","45.47","MONTREAL/PIERRE ELLIOTT TRUDEAU INTL","702S006","2020-03-30 22:00","2020","03","30","22:00","2.6","","1.4","","92","","0.2","","4","","21","","","","101.35","","","","","","NA"
"-73.74","45.47","MONTREAL/PIERRE ELLIOTT TRUDEAU INTL","702S006","2020-03-30 23:00","2020","03","30","23:00","2.1","","1.1","","93","","0.0","","4","","20","","","","101.39","","","","","","NA"
"-73.74","45.47","MONTREAL/PIERRE ELLIOTT TRUDEAU INTL","702S006","2020-03-31 00:00","2020","03","31","00:00","1.8","","0.9","","93","","0.0","","4","","20","","","","101.43","","","","","","NA"
"-73.74","45.47","MONTREAL/PIERRE ELLIOTT TRUDEAU INTL","702S006","2020-03-31 01:00","2020","03","31","01:00","1.8","","0.6","","92","","0.0","","4","","20","","","","101.46","","","","","","NA"
"-73.74","45.47","MONTREAL/PIERRE ELLIOTT TRUDEAU INTL","702S006","2020-03-31 02:00","2020","03","31","02:00","2.0","","0.3","","88","","0.0","","4","","19","","","","101.50","","","","","","NA"
"-73.74","45.47","MONTREAL/PIERRE ELLIOTT TRUDEAU INTL","702S006","2020-03-31 03:00","2020","03","31","03:00","1.7","","-0.4","","86","","0.2","","4","","19","","","","101.54","","","","","","NA"
"-73.74","45.47","MONTREAL/PIERRE ELLIOTT TRUDEAU INTL","702S006","2020-03-31 04:00","2020","03","31","04:00","1.5","","-1.2","","82","","0.0","","4","","21","","","","101.57","","","","","","NA"
"-73.74","45.47","MONTREAL/PIERRE ELLIOTT TRUDEAU INTL","702S006","2020-03-31 05:00","2020","03","31","05:00","1.4","","-1.2","","83","","0.0","","4","","21","","","","101.62","","","","","","NA"
"-73.74","45.47","MONTREAL/PIERRE ELLIOTT TRUDEAU INTL","702S006","2020-03-31 06:00","2020","03","31","06:00","1.4","","-1.7","","80","","0.0","","4","","19","","","","101.69","","","","","","NA"
"-73.74","45.47","MONTREAL/PIERRE ELLIOTT TRUDEAU INTL","702S006","2020-03-31 07:00","2020","03","31","07:00","1.7","","-2.7","","73","","0.0","","4","","22","","","","101.73","","","","","","NA"
"-73.74","45.47","MONTREAL/PIERRE ELLIOTT TRUDEAU INTL","702S006","2020-03-31 08:00","2020","03","31","08:00","1.7","","-3.6","","68","","0.0","","4","","23","","","","101.74","","","","","","NA"
"-73.74","45.47","MONTREAL/PIERRE ELLIOTT TRUDEAU INTL","702S006","2020-03-31 09:00","2020","03","31","09:00","3.4","","-4.3","","57","","0.0","","4","","23","","","","101.72","","","","","","NA"
"-73.74","45.47","MONTREAL/PIERRE ELLIOTT TRUDEAU INTL","702S006","2020-03-31 10:00","2020","03","31","10:00","4.9","","-2.6","","58","","0.0","","4","","21","","","","101.69","","","","","","NA"
"-73.74","45.47","MONTREAL/PIERRE ELLIOTT TRUDEAU INTL","702S006","2020-03-31 11:00","2020","03","31","11:00","5.1","","-4.4","","50","","0.0","","4","","25","","","","101.65","","","","","","NA"
"-73.74","45.47","MONTREAL/PIERRE ELLIOTT TRUDEAU INTL","702S006","2020-03-31 12:00","2020","03","31","12:00","5.7","","-4.1","","49","","0.0","","3","","20","","","","101.61","","","","","","NA"
"-73.74","45.47","MONTREAL/PIERRE ELLIOTT TRUDEAU INTL","702S006","2020-03-31 13:00","2020","03","31","13:00","6.3","","-4.7","","45","","0.0","","3","","26","","","","101.55","","","","","","NA"
"-73.74","45.47","MONTREAL/PIERRE ELLIOTT TRUDEAU INTL","702S006","2020-03-31 14:00","2020","03","31","14:00","6.8","","-5.4","","41","","0.0","","3","","22","","","","101.47","","","","","","NA"
"-73.74","45.47","MONTREAL/PIERRE ELLIOTT TRUDEAU INTL","702S006","2020-03-31 15:00","2020","03","31","15:00","7.0","","-6.8","","37","","0.0","","4","","24","","","","101.45","","","","","","NA"
"-73.74","45.47","MONTREAL/PIERRE ELLIOTT TRUDEAU INTL","702S006","2020-03-31 16:00","2020","03","31","16:00","7.1","","-8.3","","33","","0.0","","4","","28","","","","101.44","","","","","","NA"
"-73.74","45.47","MONTREAL/PIERRE ELLIOTT TRUDEAU INTL","702S006","2020-03-31 17:00","2020","03","31","17:00","7.2","","-8.7","","31","","0.0","","4","","23","","","","101.44","","","","","","NA"
"-73.74","45.47","MONTREAL/PIERRE ELLIOTT TRUDEAU INTL","702S006","2020-03-31 18:00","2020","03","31","18:00","6.6","","-8.1","","34","","0.0","","4","","18","","","","101.42","","","","","","NA"
"-73.74","45.47","MONTREAL/PIERRE ELLIOTT TRUDEAU INTL","702S006","2020-03-31 19:00","2020","03","31","19:00","5.9","","-8.3","","35","","0.0","","5","","17","","","","101.44","","","","","","NA"
"-73.74","45.47","MONTREAL/PIERRE ELLIOTT TRUDEAU INTL","702S006","2020-03-31 20:00","2020","03","31","20:00","5.0","","-10.0","","33","","0.0","","4","","23","","","","101.39","","","","","","NA"
"-73.74","45.47","MONTREAL/PIERRE ELLIOTT TRUDEAU INTL","702S006","2020-03-31 21:00","2020","03","31","21:00","3.9","","-7.6","","43","","0.0","","4","","17","","","","101.37","","","","","","NA"
"-73.74","45.47","MONTREAL/PIERRE ELLIOTT TRUDEAU INTL","702S006","2020-03-31 22:00","2020","03","31","22:00","3.1","","-5.5","","53","","0.0","","4","","17","","","","101.33","","","","","","NA"
"-73.74","45.47","MONTREAL/PIERRE ELLIOTT TRUDEAU INTL","702S006","2020-03-31 23:00","2020","03","31","23:00","2.2","","-5.1","","59","","0.0","","4","","19","","","","101.29","","","","","","NA"
