"Longitude (x)","Latitude (y)","Station Name","Climate ID","Date/Time (LST)","Year","Month","Day","Time (LST)","Temp (°C)","Temp Flag","Dew Point Temp (°C)","Dew Point Temp Flag","Rel Hum (%)","Rel Hum Flag","Precip. Amount (mm)","Precip. Amount Flag","Wind Dir (10s deg)","Wind Dir Flag","Wind Spd (km/h)","Wind Spd Flag","Visibility (km)","Visibility Flag","Stn Press (kPa)","Stn Press Flag","Hmdx","Hmdx Flag","Wind Chill","Wind Chill Flag","Weather"
"-73.74","45.47","MONTREAL/PIERRE ELLIOTT TRUDEAU INTL","702S006","2018-10-01 00:00","2018","10","01","00:00","8.5","","7.0","","90","","0.5","","","","0","","","","102.17","","","","","","NA"
"-73.74","45.47","MONTREAL/PIERRE ELLIOTT TRUDEAU INTL","702S006","2018-10-01 01:00","2018","10","01","01:00","8.6","","7.5","","93","","0.2","","","","0","","","","102.21","","","","","","NA"
"-73.74","45.47","MONTREAL/PIERRE ELLIOTT TRUDEAU INTL","702S006","2018-10-01 02:00","2018","10","01","02:00","8.7","","7.9","","94","","0.0","","33","","6","","","","102.23","","","","","","NA"
"-73.74","45.47","MONTREAL/PIERRE ELLIOTT TRUDEAU INTL","702S006","2018-10-01 03:00","2018","10","01","03:00","8.7","","7.8","","94","","0.2","","","","0","","","","102.17","","","","","","NA"
"-73.74","45.47","MONTREAL/PIERRE ELLIOTT TRUDEAU INTL","702S006","2018-10-01 04:00","2018","10","01","04:00","8.5","","7.7","","95","","0.0","","34","","7","","","","102.29","","","","","","NA"
"-73.74","45.47","MONTREAL/PIERRE ELLIOTT TRUDEAU INTL","702S006","2018-10-01 05:00","2018","10","01","05:00","8.4","","6.9","","90","","0.0","","1","","9","","","","102.31","","","","","","NA"
"-73.74","45.47","MONTREAL/PIERRE ELLIOTT TRUDEAU INTL","702S006","2018-10-01 06:00","2018","10","01","06:00","8.1","","6.2","","88","","0.0","","2","","14","","","","102.38","","","","","","NA"
"-73.74","45.47","MONTREAL/PIERRE ELLIOTT TRUDEAU INTL","702S006","2018-10-01 07:00","2018","10","01","07:00","7.8","","5.1","","83","","0.0","","2","","10","","","","102.47","","","","","","NA"
"-73.74","45.47","MONTREAL/PIERRE ELLIOTT TRUDEAU INTL","702S006","2018-10-01 08:00","2018","10","01","08:00","8.3","","4.5","","77","","0.0","","2","","8","","","","102.50","","","","","","NA"
"-73.74","45.47","MONTREAL/PIERRE ELLIOTT TRUDEAU INTL","702S006","2018-10-01 09:00","2018","10","01","09:00","9.3","","4.7","","73","","0.0","","5","","8","","","","102.52","","","","","","NA"
"-73.74","45.47","MONTREAL/PIERRE ELLIOTT TRUDEAU INTL","702S006","2018-10-01 10:00","2018","10","01","10:00","10.4","","3.8","","64","","0.2","","3","","7","","","","102.54","","","","","","NA"
"-73.74","45.47","MONTREAL/PIERRE ELLIOTT TRUDEAU INTL","702S006","2018-10-01 11:00","2018","10","01","11:00","11.6","","5.1","","64","","0.0","","","","0","","","","102.54","","","","","","NA"
"-73.74","45.47","MONTREAL/PIERRE ELLIOTT TRUDEAU INTL","702S006","2018-10-01 12:00","2018","10","01","12:00","12.5","","3.7","","55","","0.0","","6","","4","","","","102.51","","","","","","NA"
"-73.74","45.47","MONTREAL/PIERRE ELLIOTT TRUDEAU INTL","702S006","2018-10-01 13:00","2018","10","01","13:00","13.0","","2.5","","49","","0.0","","33","","4","","","","102.48","","","","","","NA"
"-73.74","45.47","MONTREAL/PIERRE ELLIOTT TRUDEAU INTL","702S006","2018-10-01 14:00","2018","10","01","14:00","13.1","","4.8","","57","","0.0","","24","","11","","","","102.48","","","","","","NA"
"-73.74","45.47","MONTREAL/PIERRE ELLIOTT TRUDEAU INTL","702S006","2018-10-01 15:00","2018","10","01","15:00","13.1","","5.2","","59","","0.0","","19","","9","","","","102.44","","","","","","NA"
"-73.74","45.47","MONTREAL/PIERRE ELLIOTT TRUDEAU INTL","702S006","2018-10-01 16:00","2018","10","01","16:00","12.8","","4.6","","57","","0.0","","20","","9","","","","102.40","","","","","","NA"
"-73.74","45.47","MONTREAL/PIERRE ELLIOTT TRUDEAU INTL","702S006","2018-10-01 17:00","2018","10","01","17:00","12.5","","5.1","","61","","0.0","","19","","7","","","","102.38","","","","","","NA"
"-73.74","45.47","MONTREAL/PIERRE ELLIOTT TRUDEAU INTL","702S006","2018-10-01 18:00","2018","10","01","18:00","11.6","","5.1","","65","","0.0","","17","","8","","","","102.36","","","","","","NA"
"-73.74","45.47","MONTREAL/PIERRE ELLIOTT TRUDEAU INTL","702S006","2018-10-01 19:00","2018","10","01","19:00","10.9","","5.4","","69","","0.0","","18","","8","","","","102.40","","","","","","NA"
"-73.74","45.47","MONTREAL/PIERRE ELLIOTT TRUDEAU INTL","702S006","2018-10-01 20:00","2018","10","01","20:00","11.3","","5.5","","67","","0.0","","12","","5","","","","102.39","","","","","","NA"
"-73.74","45.47","MONTREAL/PIERRE ELLIOTT TRUDEAU INTL","702S006","2018-10-01 21:00","2018","10","01","21:00","11.5","","5.8","","68","","0.0","","12","","5","","","","102.36","","","","","","NA"
"-73.74","45.47","MONTREAL/PIERRE ELLIOTT TRUDEAU INTL","702S006","2018-10-01 22:00","2018","10","01","22:00","11.6","","5.2","","65","","0.0","","3","","7","","","","102.38","","","","","","NA"
"-73.74","45.47","MONTREAL/PIERRE ELLIOTT TRUDEAU INTL","702S006","2018-10-01 23:00","2018","10","01","23:00","11.1","","6.7","","74","","0.0","","3","","9","","","","102.31","","","","","","NA"
"-73.74","45.47","MONTREAL/PIERRE ELLIOTT TRUDEAU INTL","702S006","2018-10-02 00:00","2018","10","02","00:00","10.7","","3.9","","63","","0.0","","3","","13","","","","102.30","","","","","","NA"
"-73.74","45.47","MONTREAL/PIERRE ELLIOTT TRUDEAU INTL","702S006","2018-10-02 01:00","2018","10","02","01:00","10.6","","3.6","","62","","0.0","","4","","18","","","","102.26","","","","","","NA"
"-73.74","45.47","MONTREAL/PIERRE ELLIOTT TRUDEAU INTL","702S006","2018-10-02 02:00","2018","10","02","02:00","9.2","","5.2","","76","","0.5","","4","","12","","","","102.25","","","","","","NA"
"-73.74","45.47","MONTREAL/PIERRE ELLIOTT TRUDEAU INTL","702S006","2018-10-02 03:00","2018","10","02","03:00","8.8","","5.5","","80","","0.9","","4","","11","","","","102.16","","","","","","NA"
"-73.74","45.47","MONTREAL/PIERRE ELLIOTT TRUDEAU INTL","702S006","2018-10-02 04:00","2018","10","02","04:00","8.3","","5.9","","85","","0.7","","5","","12","","","","102.05","","","","","","NA"
"-73.74","45.47","MONTREAL/PIERRE ELLIOTT TRUDEAU INTL","702S006","2018-10-02 05:00","2018","10","02","05:00","8.2","","6.7","","90","","1.1","","6","","8","","","","102.01","","","","","","NA"
"-73.74","45.47","MONTREAL/PIERRE ELLIOTT TRUDEAU INTL","702S006","2018-10-02 06:00","2018","10","02","06:00","8.2","","7.1","","93","","0.7","","4","","14","","","","101.95","","","","","","NA"
"-73.74","45.47","MONTREAL/PIERRE ELLIOTT TRUDEAU INTL","702S006","2018-10-02 07:00","2018","10","02","07:00","8.1","","7.1","","94","","0.7","","4","","16","","","","101.89","","","","","","NA"
"-73.74","45.47","MONTREAL/PIERRE ELLIOTT TRUDEAU INTL","702S006","2018-10-02 08:00","2018","10","02","08:00","8.3","","7.5","","95","","1.9","","4","","17","","","","101.82","","","","","","NA"
"-73.74","45.47","MONTREAL/PIERRE ELLIOTT TRUDEAU INTL","702S006","2018-10-02 09:00","2018","10","02","09:00","8.7","","7.8","","94","","1.1","","4","","19","","","","101.76","","","","","","NA"
"-73.74","45.47","MONTREAL/PIERRE ELLIOTT TRUDEAU INTL","702S006","2018-10-02 10:00","2018","10","02","10:00","9.0","","8.1","","94","","0.0","","4","","19","","","","101.66","","","","","","NA"
"-73.74","45.47","MONTREAL/PIERRE ELLIOTT TRUDEAU INTL","702S006","2018-10-02 11:00","2018","10","02","11:00","9.2","","8.4","","95","","0.0","","4","","18","","","","101.55","","","","","","NA"
"-73.74","45.47","MONTREAL/PIERRE ELLIOTT TRUDEAU INTL","702S006","2018-10-02 12:00","2018","10","02","12:00","9.5","","8.7","","95","","0.0","","4","","16","","","","101.48","","","","","","NA"
"-73.74","45.47","MONTREAL/PIERRE ELLIOTT TRUDEAU INTL","702S006","2018-10-02 13:00","2018","10","02","13:00","10.0","","9.2","","95","","0.0","","4","","18","","","","101.38","","","","","","NA"
"-73.74","45.47","MONTREAL/PIERRE ELLIOTT TRUDEAU INTL","702S006","2018-10-02 14:00","2018","10","02","14:00","10.5","","9.6","","94","","0.0","","4","","17","","","","101.33","","","","","","NA"
"-73.74","45.47","MONTREAL/PIERRE ELLIOTT TRUDEAU INTL","702S006","2018-10-02 15:00","2018","10","02","15:00","10.6","","10.0","","95","","0.0","","4","","17","","","","101.26","","","","","","NA"
"-73.74","45.47","MONTREAL/PIERRE ELLIOTT TRUDEAU INTL","702S006","2018-10-02 16:00","2018","10","02","16:00","10.7","","10.2","","96","","0.0","","3","","17","","","","101.25","","","","","","NA"
"-73.74","45.47","MONTREAL/PIERRE ELLIOTT TRUDEAU INTL","702S006","2018-10-02 17:00","2018","10","02","17:00","10.6","","10.0","","96","","0.0","","2","","17","","","","101.24","","","","","","NA"
"-73.74","45.47","MONTREAL/PIERRE ELLIOTT TRUDEAU INTL","702S006","2018-10-02 18:00","2018","10","02","18:00","10.5","","9.7","","95","","0.0","","3","","22","","","","101.21","","","","","","NA"
"-73.74","45.47","MONTREAL/PIERRE ELLIOTT TRUDEAU INTL","702S006","2018-10-02 19:00","2018","10","02","19:00","10.3","","9.7","","96","","0.0","","4","","20","","","","101.23","","","","","","NA"
"-73.74","45.47","MONTREAL/PIERRE ELLIOTT TRUDEAU INTL","702S006","2018-10-02 20:00","2018","10","02","20:00","10.1","","9.5","","96","","0.0","","3","","19","","","","101.22","","","","","","NA"
"-73.74","45.47","MONTREAL/PIERRE ELLIOTT TRUDEAU INTL","702S006","2018-10-02 21:00","2018","10","02","21:00","10.1","","9.5","","96","","0.0","","3","","20","","","","101.20","","","","","","NA"
"-73.74","45.47","MONTREAL/PIERRE ELLIOTT TRUDEAU INTL","702S006","2018-10-02 22:00","2018","10","02","22:00","9.9","","9.3","","96","","0.0","","3","","17","","","","101.17","","","","","","NA"
"-73.74","45.47","MONTREAL/PIERRE ELLIOTT TRUDEAU INTL","702S006","2018-10-02 23:00","2018","10","02","23:00","9.7","","9.2","","96","","0.0","","2","","17","","","","101.21","","","","","","NA"
"-73.74","45.47","MONTREAL/PIERRE ELLIOTT TRUDEAU INTL","702S006","2018-10-03 00:00","2018","10","03","00:00","9.4","","8.9","","97","","0.0","","2","","18","","","","101.18","","","","","","NA"
"-73.74","45.47","MONTREAL/PIERRE ELLIOTT TRUDEAU INTL","702S006","2018-10-03 01:00","2018","10","03","01:00","9.2","","8.8","","97","","0.0","","1","","18","","","","101.21","","","","","","NA"
"-73.74","45.47","MONTREAL/PIERRE ELLIOTT TRUDEAU INTL","702S006","2018-10-03 02:00","2018","10","03","02:00","9.1","","8.8","","98","","0.0","","1","","19","","","","101.27","","","","","","NA"
"-73.74","45.47","MONTREAL/PIERRE ELLIOTT TRUDEAU INTL","702S006","2018-10-03 03:00","2018","10","03","03:00","9.2","","8.7","","97","","0.0","","1","","16","","","","101.27","","","","","","NA"
"-73.74","45.47","MONTREAL/PIERRE ELLIOTT TRUDEAU INTL","702S006","2018-10-03 04:00","2018","10","03","04:00","9.2","","8.7","","97","","0.0","","1","","16","","","","101.31","","","","","","NA"
"-73.74","45.47","MONTREAL/PIERRE ELLIOTT TRUDEAU INTL","702S006","2018-10-03 05:00","2018","10","03","05:00","9.2","","8.7","","96","","0.0","","36","","13","","","","101.38","","","","","","NA"
"-73.74","45.47","MONTREAL/PIERRE ELLIOTT TRUDEAU INTL","702S006","2018-10-03 06:00","2018","10","03","06:00","9.2","","8.5","","95","","0.0","","36","","15","","","","101.49","","","","","","NA"
"-73.74","45.47","MONTREAL/PIERRE ELLIOTT TRUDEAU INTL","702S006","2018-10-03 07:00","2018","10","03","07:00","9.4","","8.4","","93","","0.0","","2","","15","","","","101.50","","","","","","NA"
"-73.74","45.47","MONTREAL/PIERRE ELLIOTT TRUDEAU INTL","702S006","2018-10-03 08:00","2018","10","03","08:00","9.7","","8.7","","93","","0.0","","1","","11","","","","101.56","","","","","","NA"
"-73.74","45.47","MONTREAL/PIERRE ELLIOTT TRUDEAU INTL","702S006","2018-10-03 09:00","2018","10","03","09:00","10.3","","9.1","","92","","0.0","","1","","9","","","","101.56","","","","","","NA"
"-73.74","45.47","MONTREAL/PIERRE ELLIOTT TRUDEAU INTL","702S006","2018-10-03 10:00","2018","10","03","10:00","10.5","","9.1","","91","","0.0","","34","","9","","","","101.66","","","","","","NA"
"-73.74","45.47","MONTREAL/PIERRE ELLIOTT TRUDEAU INTL","702S006","2018-10-03 11:00","2018","10","03","11:00","10.9","","9.2","","89","","0.0","","2","","8","","","","101.57","","","","","","NA"
"-73.74","45.47","MONTREAL/PIERRE ELLIOTT TRUDEAU INTL","702S006","2018-10-03 12:00","2018","10","03","12:00","11.2","","8.7","","84","","0.0","","33","","4","","","","101.60","","","","","","NA"
"-73.74","45.47","MONTREAL/PIERRE ELLIOTT TRUDEAU INTL","702S006","2018-10-03 13:00","2018","10","03","13:00","11.5","","8.9","","84","","0.0","","34","","3","","","","101.58","","","","","","NA"
"-73.74","45.47","MONTREAL/PIERRE ELLIOTT TRUDEAU INTL","702S006","2018-10-03 14:00","2018","10","03","14:00","11.6","","8.7","","83","","0.0","","","","0","","","","101.57","","","","","","NA"
"-73.74","45.47","MONTREAL/PIERRE ELLIOTT TRUDEAU INTL","702S006","2018-10-03 15:00","2018","10","03","15:00","11.7","","8.7","","82","","0.0","","","","0","","","","101.58","","","","","","NA"
"-73.74","45.47","MONTREAL/PIERRE ELLIOTT TRUDEAU INTL","702S006","2018-10-03 16:00","2018","10","03","16:00","12.0","","9.0","","82","","0.0","","29","","4","","","","101.55","","","","","","NA"
"-73.74","45.47","MONTREAL/PIERRE ELLIOTT TRUDEAU INTL","702S006","2018-10-03 17:00","2018","10","03","17:00","12.0","","8.9","","81","","0.0","","","","0","","","","101.54","","","","","","NA"
"-73.74","45.47","MONTREAL/PIERRE ELLIOTT TRUDEAU INTL","702S006","2018-10-03 18:00","2018","10","03","18:00","11.9","","9.3","","84","","0.0","","13","","13","","","","101.44","","","","","","NA"
"-73.74","45.47","MONTREAL/PIERRE ELLIOTT TRUDEAU INTL","702S006","2018-10-03 19:00","2018","10","03","19:00","11.4","","9.2","","86","","0.0","","13","","10","","","","101.39","","","","","","NA"
"-73.74","45.47","MONTREAL/PIERRE ELLIOTT TRUDEAU INTL","702S006","2018-10-03 20:00","2018","10","03","20:00","11.3","","9.4","","88","","0.0","","15","","12","","","","101.39","","","","","","NA"
"-73.74","45.47","MONTREAL/PIERRE ELLIOTT TRUDEAU INTL","702S006","2018-10-03 21:00","2018","10","03","21:00","11.4","","9.8","","90","","0.0","","15","","11","","","","101.29","","","","","","NA"
"-73.74","45.47","MONTREAL/PIERRE ELLIOTT TRUDEAU INTL","702S006","2018-10-03 22:00","2018","10","03","22:00","11.7","","10.3","","91","","0.0","","14","","9","","","","101.24","","","","","","NA"
"-73.74","45.47","MONTREAL/PIERRE ELLIOTT TRUDEAU INTL","702S006","2018-10-03 23:00","2018","10","03","23:00","11.8","","10.6","","92","","0.0","","14","","12","","","","101.17","","","","","","NA"
"-73.74","45.47","MONTREAL/PIERRE ELLIOTT TRUDEAU INTL","702S006","2018-10-04 00:00","2018","10","04","00:00","11.8","","10.6","","93","","0.0","","13","","10","","","","101.07","","","","","","NA"
"-73.74","45.47","MONTREAL/PIERRE ELLIOTT TRUDEAU INTL","702S006","2018-10-04 01:00","2018","10","04","01:00","11.8","","10.7","","93","","0.0","","12","","12","","","","100.98","","","","","","NA"
"-73.74","45.47","MONTREAL/PIERRE ELLIOTT TRUDEAU INTL","702S006","2018-10-04 02:00","2018","10","04","02:00","11.7","","10.9","","95","","0.0","","14","","14","","","","100.86","","","","","","NA"
"-73.74","45.47","MONTREAL/PIERRE ELLIOTT TRUDEAU INTL","702S006","2018-10-04 03:00","2018","10","04","03:00","12.1","","11.4","","95","","0.0","","14","","8","","","","100.72","","","","","","NA"
"-73.74","45.47","MONTREAL/PIERRE ELLIOTT TRUDEAU INTL","702S006","2018-10-04 04:00","2018","10","04","04:00","13.2","","11.8","","91","","0.0","","15","","23","","","","100.52","","","","","","NA"
"-73.74","45.47","MONTREAL/PIERRE ELLIOTT TRUDEAU INTL","702S006","2018-10-04 05:00","2018","10","04","05:00","13.5","","11.9","","90","","0.0","","14","","25","","","","100.44","","","","","","NA"
"-73.74","45.47","MONTREAL/PIERRE ELLIOTT TRUDEAU INTL","702S006","2018-10-04 06:00","2018","10","04","06:00","13.9","","12.0","","88","","0.0","","15","","23","","","","100.35","","","","","","NA"
"-73.74","45.47","MONTREAL/PIERRE ELLIOTT TRUDEAU INTL","702S006","2018-10-04 07:00","2018","10","04","07:00","14.6","","12.4","","87","","0.0","","15","","24","","","","100.30","","","","","","NA"
"-73.74","45.47","MONTREAL/PIERRE ELLIOTT TRUDEAU INTL","702S006","2018-10-04 08:00","2018","10","04","08:00","14.7","","13.4","","92","","0.6","","15","","26","","","","100.19","","","","","","NA"
"-73.74","45.47","MONTREAL/PIERRE ELLIOTT TRUDEAU INTL","702S006","2018-10-04 09:00","2018","10","04","09:00","15.3","","14.3","","94","","1.0","","15","","17","","","","100.23","","","","","","NA"
"-73.74","45.47","MONTREAL/PIERRE ELLIOTT TRUDEAU INTL","702S006","2018-10-04 10:00","2018","10","04","10:00","16.6","","15.4","","93","","0.0","","16","","23","","","","100.17","","","","","","NA"
"-73.74","45.47","MONTREAL/PIERRE ELLIOTT TRUDEAU INTL","702S006","2018-10-04 11:00","2018","10","04","11:00","17.2","","16.4","","95","","0.0","","18","","17","","","","100.20","","","","","","NA"
"-73.74","45.47","MONTREAL/PIERRE ELLIOTT TRUDEAU INTL","702S006","2018-10-04 12:00","2018","10","04","12:00","20.6","","19.0","","91","","0.0","","23","","20","","","","100.21","","27","","","","NA"
"-73.74","45.47","MONTREAL/PIERRE ELLIOTT TRUDEAU INTL","702S006","2018-10-04 13:00","2018","10","04","13:00","22.1","","19.6","","86","","0.2","","23","","18","","","","100.21","","29","","","","NA"
"-73.74","45.47","MONTREAL/PIERRE ELLIOTT TRUDEAU INTL","702S006","2018-10-04 14:00","2018","10","04","14:00","22.8","","19.2","","80","","0.0","","22","","21","","","","100.27","","30","","","","NA"
"-73.74","45.47","MONTREAL/PIERRE ELLIOTT TRUDEAU INTL","702S006","2018-10-04 15:00","2018","10","04","15:00","23.9","","18.7","","73","","0.2","","25","","14","","","","100.37","","30","","","","NA"
"-73.74","45.47","MONTREAL/PIERRE ELLIOTT TRUDEAU INTL","702S006","2018-10-04 16:00","2018","10","04","16:00","22.0","","13.2","","57","","0.0","","30","","25","","","","100.56","","25","","","","NA"
"-73.74","45.47","MONTREAL/PIERRE ELLIOTT TRUDEAU INTL","702S006","2018-10-04 17:00","2018","10","04","17:00","19.4","","10.4","","56","","0.0","","31","","22","","","","100.78","","","","","","NA"
"-73.74","45.47","MONTREAL/PIERRE ELLIOTT TRUDEAU INTL","702S006","2018-10-04 18:00","2018","10","04","18:00","16.6","","7.9","","56","","0.0","","32","","25","","","","101.00","","","","","","NA"
"-73.74","45.47","MONTREAL/PIERRE ELLIOTT TRUDEAU INTL","702S006","2018-10-04 19:00","2018","10","04","19:00","13.6","","3.6","","51","","0.0","","32","","25","","","","101.27","","","","","","NA"
"-73.74","45.47","MONTREAL/PIERRE ELLIOTT TRUDEAU INTL","702S006","2018-10-04 20:00","2018","10","04","20:00","11.8","","3.7","","58","","0.0","","32","","24","","","","101.42","","","","","","NA"
"-73.74","45.47","MONTREAL/PIERRE ELLIOTT TRUDEAU INTL","702S006","2018-10-04 21:00","2018","10","04","21:00","10.9","","1.9","","53","","0.0","","33","","20","","","","101.62","","","","","","NA"
"-73.74","45.47","MONTREAL/PIERRE ELLIOTT TRUDEAU INTL","702S006","2018-10-04 22:00","2018","10","04","22:00","10.0","","1.6","","56","","0.0","","36","","16","","","","101.74","","","","","","NA"
"-73.74","45.47","MONTREAL/PIERRE ELLIOTT TRUDEAU INTL","702S006","2018-10-04 23:00","2018","10","04","23:00","8.1","","1.1","","61","","0.0","","36","","16","","","","101.80","","","","","","NA"
"-73.74","45.47","MONTREAL/PIERRE ELLIOTT TRUDEAU INTL","702S006","2018-10-05 00:00","2018","10","05","00:00","7.3","","0.8","","63","","0.0","","36","","12","","","","101.87","","","","","","NA"
"-73.74","45.47","MONTREAL/PIERRE ELLIOTT TRUDEAU INTL","702S006","2018-10-05 01:00","2018","10","05","01:00","6.0","","0.4","","67","","0.0","","35","","8","","","","101.95","","","","","","NA"
"-73.74","45.47","MONTREAL/PIERRE ELLIOTT TRUDEAU INTL","702S006","2018-10-05 02:00","2018","10","05","02:00","3.8","","0.8","","81","","0.0","","33","","7","","","","102.01","","","","","","NA"
"-73.74","45.47","MONTREAL/PIERRE ELLIOTT TRUDEAU INTL","702S006","2018-10-05 03:00","2018","10","05","03:00","5.2","","0.0","","69","","0.0","","2","","13","","","","101.99","","","","","","NA"
"-73.74","45.47","MONTREAL/PIERRE ELLIOTT TRUDEAU INTL","702S006","2018-10-05 04:00","2018","10","05","04:00","4.8","","-0.1","","70","","0.0","","1","","11","","","","102.09","","","","","","NA"
"-73.74","45.47","MONTREAL/PIERRE ELLIOTT TRUDEAU INTL","702S006","2018-10-05 05:00","2018","10","05","05:00","4.6","","-0.5","","69","","0.0","","3","","14","","","","102.15","","","","","","NA"
"-73.74","45.47","MONTREAL/PIERRE ELLIOTT TRUDEAU INTL","702S006","2018-10-05 06:00","2018","10","05","06:00","4.1","","-1.1","","69","","0.0","","2","","16","","","","102.22","","","","","","NA"
"-73.74","45.47","MONTREAL/PIERRE ELLIOTT TRUDEAU INTL","702S006","2018-10-05 07:00","2018","10","05","07:00","4.7","","-1.7","","63","","0.0","","2","","19","","","","102.28","","","","","","NA"
"-73.74","45.47","MONTREAL/PIERRE ELLIOTT TRUDEAU INTL","702S006","2018-10-05 08:00","2018","10","05","08:00","6.1","","-2.5","","54","","0.0","","3","","18","","","","102.34","","","","","","NA"
"-73.74","45.47","MONTREAL/PIERRE ELLIOTT TRUDEAU INTL","702S006","2018-10-05 09:00","2018","10","05","09:00","6.5","","-2.8","","51","","0.0","","4","","16","","","","102.39","","","","","","NA"
"-73.74","45.47","MONTREAL/PIERRE ELLIOTT TRUDEAU INTL","702S006","2018-10-05 10:00","2018","10","05","10:00","7.5","","-2.6","","49","","0.0","","4","","13","","","","102.30","","","","","","NA"
"-73.74","45.47","MONTREAL/PIERRE ELLIOTT TRUDEAU INTL","702S006","2018-10-05 11:00","2018","10","05","11:00","8.6","","-2.5","","45","","0.0","","7","","8","","","","102.27","","","","","","NA"
"-73.74","45.47","MONTREAL/PIERRE ELLIOTT TRUDEAU INTL","702S006","2018-10-05 12:00","2018","10","05","12:00","9.5","","-0.5","","50","","0.0","","2","","7","","","","102.19","","","","","","NA"
"-73.74","45.47","MONTREAL/PIERRE ELLIOTT TRUDEAU INTL","702S006","2018-10-05 13:00","2018","10","05","13:00","9.8","","-1.2","","46","","0.0","","","","0","","","","102.11","","","","","","NA"
"-73.74","45.47","MONTREAL/PIERRE ELLIOTT TRUDEAU INTL","702S006","2018-10-05 14:00","2018","10","05","14:00","10.1","","-2.0","","43","","0.0","","36","","8","","","","102.08","","","","","","NA"
"-73.74","45.47","MONTREAL/PIERRE ELLIOTT TRUDEAU INTL","702S006","2018-10-05 15:00","2018","10","05","15:00","9.9","","-3.0","","40","","0.0","","36","","7","","","","102.06","","","","","","NA"
"-73.74","45.47","MONTREAL/PIERRE ELLIOTT TRUDEAU INTL","702S006","2018-10-05 16:00","2018","10","05","16:00","9.7","","-2.0","","44","","0.0","","1","","11","","","","102.08","","","","","","NA"
"-73.74","45.47","MONTREAL/PIERRE ELLIOTT TRUDEAU INTL","702S006","2018-10-05 17:00","2018","10","05","17:00","9.6","","-3.9","","38","","0.0","","3","","8","","","","102.03","","","","","","NA"
"-73.74","45.47","MONTREAL/PIERRE ELLIOTT TRUDEAU INTL","702S006","2018-10-05 18:00","2018","10","05","18:00","9.3","","-3.4","","41","","0.0","","6","","9","","","","101.96","","","","","","NA"
"-73.74","45.47","MONTREAL/PIERRE ELLIOTT TRUDEAU INTL","702S006","2018-10-05 19:00","2018","10","05","19:00","9.3","","-4.2","","38","","0.0","","7","","7","","","","102.02","","","","","","NA"
"-73.74","45.47","MONTREAL/PIERRE ELLIOTT TRUDEAU INTL","702S006","2018-10-05 20:00","2018","10","05","20:00","8.9","","-3.4","","42","","0.0","","7","","8","","","","102.06","","","","","","NA"
"-73.74","45.47","MONTREAL/PIERRE ELLIOTT TRUDEAU INTL","702S006","2018-10-05 21:00","2018","10","05","21:00","8.7","","-3.4","","42","","0.0","","4","","9","","","","102.07","","","","","","NA"
"-73.74","45.47","MONTREAL/PIERRE ELLIOTT TRUDEAU INTL","702S006","2018-10-05 22:00","2018","10","05","22:00","8.5","","-2.9","","45","","0.0","","4","","14","","","","102.05","","","","","","NA"
"-73.74","45.47","MONTREAL/PIERRE ELLIOTT TRUDEAU INTL","702S006","2018-10-05 23:00","2018","10","05","23:00","7.5","","-1.7","","52","","0.0","","5","","10","","","","101.98","","","","","","NA"
"-73.74","45.47","MONTREAL/PIERRE ELLIOTT TRUDEAU INTL","702S006","2018-10-06 00:00","2018","10","06","00:00","7.4","","-2.4","","50","","0.0","","5","","12","","","","101.93","","","","","","NA"
"-73.74","45.47","MONTREAL/PIERRE ELLIOTT TRUDEAU INTL","702S006","2018-10-06 01:00","2018","10","06","01:00","7.3","","-2.2","","51","","0.0","","4","","12","","","","101.98","","","","","","NA"
"-73.74","45.47","MONTREAL/PIERRE ELLIOTT TRUDEAU INTL","702S006","2018-10-06 02:00","2018","10","06","02:00","7.2","","-2.2","","51","","0.0","","4","","14","","","","101.92","","","","","","NA"
"-73.74","45.47","MONTREAL/PIERRE ELLIOTT TRUDEAU INTL","702S006","2018-10-06 03:00","2018","10","06","03:00","7.0","","-0.6","","58","","0.0","","4","","16","","","","101.90","","","","","","NA"
"-73.74","45.47","MONTREAL/PIERRE ELLIOTT TRUDEAU INTL","702S006","2018-10-06 04:00","2018","10","06","04:00","6.9","","-0.4","","59","","0.0","","5","","17","","","","101.85","","","","","","NA"
"-73.74","45.47","MONTREAL/PIERRE ELLIOTT TRUDEAU INTL","702S006","2018-10-06 05:00","2018","10","06","05:00","6.5","","-0.9","","59","","0.0","","4","","20","","","","101.86","","","","","","NA"
"-73.74","45.47","MONTREAL/PIERRE ELLIOTT TRUDEAU INTL","702S006","2018-10-06 06:00","2018","10","06","06:00","6.7","","-0.5","","60","","0.0","","4","","14","","","","101.91","","","","","","NA"
"-73.74","45.47","MONTREAL/PIERRE ELLIOTT TRUDEAU INTL","702S006","2018-10-06 07:00","2018","10","06","07:00","6.8","","-0.2","","61","","0.0","","4","","14","","","","101.90","","","","","","NA"
"-73.74","45.47","MONTREAL/PIERRE ELLIOTT TRUDEAU INTL","702S006","2018-10-06 08:00","2018","10","06","08:00","7.6","","-0.1","","58","","0.0","","4","","17","","","","101.85","","","","","","NA"
"-73.74","45.47","MONTREAL/PIERRE ELLIOTT TRUDEAU INTL","702S006","2018-10-06 09:00","2018","10","06","09:00","8.7","","0.0","","55","","0.0","","4","","16","","","","101.75","","","","","","NA"
"-73.74","45.47","MONTREAL/PIERRE ELLIOTT TRUDEAU INTL","702S006","2018-10-06 10:00","2018","10","06","10:00","9.1","","0.4","","54","","0.0","","4","","17","","","","101.70","","","","","","NA"
"-73.74","45.47","MONTREAL/PIERRE ELLIOTT TRUDEAU INTL","702S006","2018-10-06 11:00","2018","10","06","11:00","10.4","","1.6","","54","","0.0","","4","","12","","","","101.62","","","","","","NA"
"-73.74","45.47","MONTREAL/PIERRE ELLIOTT TRUDEAU INTL","702S006","2018-10-06 12:00","2018","10","06","12:00","10.5","","2.0","","56","","0.0","","4","","14","","","","101.55","","","","","","NA"
"-73.74","45.47","MONTREAL/PIERRE ELLIOTT TRUDEAU INTL","702S006","2018-10-06 13:00","2018","10","06","13:00","11.2","","3.6","","59","","0.0","","4","","12","","","","101.43","","","","","","NA"
"-73.74","45.47","MONTREAL/PIERRE ELLIOTT TRUDEAU INTL","702S006","2018-10-06 14:00","2018","10","06","14:00","10.8","","5.1","","68","","0.0","","4","","14","","","","101.35","","","","","","NA"
"-73.74","45.47","MONTREAL/PIERRE ELLIOTT TRUDEAU INTL","702S006","2018-10-06 15:00","2018","10","06","15:00","10.9","","5.7","","70","","0.0","","4","","14","","","","101.25","","","","","","NA"
"-73.74","45.47","MONTREAL/PIERRE ELLIOTT TRUDEAU INTL","702S006","2018-10-06 16:00","2018","10","06","16:00","11.1","","6.4","","72","","0.0","","2","","12","","","","101.23","","","","","","NA"
"-73.74","45.47","MONTREAL/PIERRE ELLIOTT TRUDEAU INTL","702S006","2018-10-06 17:00","2018","10","06","17:00","10.5","","7.8","","84","","0.0","","3","","13","","","","101.21","","","","","","NA"
"-73.74","45.47","MONTREAL/PIERRE ELLIOTT TRUDEAU INTL","702S006","2018-10-06 18:00","2018","10","06","18:00","10.3","","8.2","","87","","0.0","","35","","5","","","","101.25","","","","","","NA"
"-73.74","45.47","MONTREAL/PIERRE ELLIOTT TRUDEAU INTL","702S006","2018-10-06 19:00","2018","10","06","19:00","9.5","","8.5","","94","","0.0","","36","","6","","","","101.22","","","","","","NA"
"-73.74","45.47","MONTREAL/PIERRE ELLIOTT TRUDEAU INTL","702S006","2018-10-06 20:00","2018","10","06","20:00","8.9","","8.4","","97","","0.0","","33","","11","","","","101.28","","","","","","NA"
"-73.74","45.47","MONTREAL/PIERRE ELLIOTT TRUDEAU INTL","702S006","2018-10-06 21:00","2018","10","06","21:00","8.8","","8.4","","97","","0.0","","33","","5","","","","101.31","","","","","","NA"
"-73.74","45.47","MONTREAL/PIERRE ELLIOTT TRUDEAU INTL","702S006","2018-10-06 22:00","2018","10","06","22:00","8.8","","8.3","","97","","0.0","","33","","8","","","","101.36","","","","","","NA"
"-73.74","45.47","MONTREAL/PIERRE ELLIOTT TRUDEAU INTL","702S006","2018-10-06 23:00","2018","10","06","23:00","8.9","","8.4","","96","","0.0","","29","","6","","","","101.42","","","","","","NA"
"-73.74","45.47","MONTREAL/PIERRE ELLIOTT TRUDEAU INTL","702S006","2018-10-07 00:00","2018","10","07","00:00","9.5","","8.5","","94","","0.0","","24","","3","","","","101.42","","","","","","NA"
"-73.74","45.47","MONTREAL/PIERRE ELLIOTT TRUDEAU INTL","702S006","2018-10-07 01:00","2018","10","07","01:00","9.7","","9.0","","95","","0.0","","23","","3","","","","101.49","","","","","","NA"
"-73.74","45.47","MONTREAL/PIERRE ELLIOTT TRUDEAU INTL","702S006","2018-10-07 02:00","2018","10","07","02:00","9.8","","9.1","","95","","0.0","","34","","3","","","","101.56","","","","","","NA"
"-73.74","45.47","MONTREAL/PIERRE ELLIOTT TRUDEAU INTL","702S006","2018-10-07 03:00","2018","10","07","03:00","10.1","","9.1","","93","","0.0","","1","","8","","","","101.61","","","","","","NA"
"-73.74","45.47","MONTREAL/PIERRE ELLIOTT TRUDEAU INTL","702S006","2018-10-07 04:00","2018","10","07","04:00","10.0","","8.8","","92","","0.0","","2","","9","","","","101.70","","","","","","NA"
"-73.74","45.47","MONTREAL/PIERRE ELLIOTT TRUDEAU INTL","702S006","2018-10-07 05:00","2018","10","07","05:00","10.0","","8.0","","87","","0.0","","4","","14","","","","101.81","","","","","","NA"
"-73.74","45.47","MONTREAL/PIERRE ELLIOTT TRUDEAU INTL","702S006","2018-10-07 06:00","2018","10","07","06:00","9.6","","6.3","","80","","0.0","","4","","19","","","","101.92","","","","","","NA"
"-73.74","45.47","MONTREAL/PIERRE ELLIOTT TRUDEAU INTL","702S006","2018-10-07 07:00","2018","10","07","07:00","9.1","","6.0","","81","","0.0","","4","","20","","","","102.03","","","","","","NA"
"-73.74","45.47","MONTREAL/PIERRE ELLIOTT TRUDEAU INTL","702S006","2018-10-07 08:00","2018","10","07","08:00","9.0","","5.2","","77","","0.0","","3","","22","","","","102.13","","","","","","NA"
"-73.74","45.47","MONTREAL/PIERRE ELLIOTT TRUDEAU INTL","702S006","2018-10-07 09:00","2018","10","07","09:00","9.3","","4.7","","73","","0.0","","3","","17","","","","102.21","","","","","","NA"
"-73.74","45.47","MONTREAL/PIERRE ELLIOTT TRUDEAU INTL","702S006","2018-10-07 10:00","2018","10","07","10:00","9.4","","4.7","","72","","0.0","","3","","17","","","","102.28","","","","","","NA"
"-73.74","45.47","MONTREAL/PIERRE ELLIOTT TRUDEAU INTL","702S006","2018-10-07 11:00","2018","10","07","11:00","8.9","","4.1","","71","","0.0","","3","","18","","","","102.29","","","","","","NA"
"-73.74","45.47","MONTREAL/PIERRE ELLIOTT TRUDEAU INTL","702S006","2018-10-07 12:00","2018","10","07","12:00","9.0","","4.1","","72","","0.0","","4","","15","","","","102.32","","","","","","NA"
"-73.74","45.47","MONTREAL/PIERRE ELLIOTT TRUDEAU INTL","702S006","2018-10-07 13:00","2018","10","07","13:00","9.1","","3.6","","69","","0.0","","2","","12","","","","102.34","","","","","","NA"
"-73.74","45.47","MONTREAL/PIERRE ELLIOTT TRUDEAU INTL","702S006","2018-10-07 14:00","2018","10","07","14:00","9.9","","3.8","","66","","0.0","","2","","14","","","","102.31","","","","","","NA"
"-73.74","45.47","MONTREAL/PIERRE ELLIOTT TRUDEAU INTL","702S006","2018-10-07 15:00","2018","10","07","15:00","9.9","","3.4","","64","","0.0","","3","","12","","","","102.35","","","","","","NA"
"-73.74","45.47","MONTREAL/PIERRE ELLIOTT TRUDEAU INTL","702S006","2018-10-07 16:00","2018","10","07","16:00","9.8","","3.5","","65","","0.0","","2","","10","","","","102.41","","","","","","NA"
"-73.74","45.47","MONTREAL/PIERRE ELLIOTT TRUDEAU INTL","702S006","2018-10-07 17:00","2018","10","07","17:00","9.8","","3.7","","66","","0.0","","5","","8","","","","102.49","","","","","","NA"
"-73.74","45.47","MONTREAL/PIERRE ELLIOTT TRUDEAU INTL","702S006","2018-10-07 18:00","2018","10","07","18:00","9.5","","3.7","","67","","0.0","","7","","7","","","","102.54","","","","","","NA"
"-73.74","45.47","MONTREAL/PIERRE ELLIOTT TRUDEAU INTL","702S006","2018-10-07 19:00","2018","10","07","19:00","9.0","","3.8","","70","","0.0","","7","","5","","","","102.58","","","","","","NA"
"-73.74","45.47","MONTREAL/PIERRE ELLIOTT TRUDEAU INTL","702S006","2018-10-07 20:00","2018","10","07","20:00","8.3","","4.0","","74","","0.0","","4","","9","","","","102.64","","","","","","NA"
"-73.74","45.47","MONTREAL/PIERRE ELLIOTT TRUDEAU INTL","702S006","2018-10-07 21:00","2018","10","07","21:00","7.2","","3.5","","77","","0.0","","2","","8","","","","102.67","","","","","","NA"
"-73.74","45.47","MONTREAL/PIERRE ELLIOTT TRUDEAU INTL","702S006","2018-10-07 22:00","2018","10","07","22:00","7.2","","3.4","","77","","0.0","","2","","16","","","","102.69","","","","","","NA"
"-73.74","45.47","MONTREAL/PIERRE ELLIOTT TRUDEAU INTL","702S006","2018-10-07 23:00","2018","10","07","23:00","6.9","","2.5","","74","","0.0","","2","","15","","","","102.67","","","","","","NA"
"-73.74","45.47","MONTREAL/PIERRE ELLIOTT TRUDEAU INTL","702S006","2018-10-08 00:00","2018","10","08","00:00","6.5","","2.2","","74","","0.0","","2","","17","","","","102.71","","","","","","NA"
"-73.74","45.47","MONTREAL/PIERRE ELLIOTT TRUDEAU INTL","702S006","2018-10-08 01:00","2018","10","08","01:00","6.4","","1.8","","72","","0.0","","3","","18","","","","102.76","","","","","","NA"
"-73.74","45.47","MONTREAL/PIERRE ELLIOTT TRUDEAU INTL","702S006","2018-10-08 02:00","2018","10","08","02:00","6.3","","1.5","","71","","0.0","","3","","21","","","","102.75","","","","","","NA"
"-73.74","45.47","MONTREAL/PIERRE ELLIOTT TRUDEAU INTL","702S006","2018-10-08 03:00","2018","10","08","03:00","6.3","","2.0","","74","","0.0","","2","","16","","","","102.79","","","","","","NA"
"-73.74","45.47","MONTREAL/PIERRE ELLIOTT TRUDEAU INTL","702S006","2018-10-08 04:00","2018","10","08","04:00","6.1","","2.2","","76","","0.0","","2","","16","","","","102.82","","","","","","NA"
"-73.74","45.47","MONTREAL/PIERRE ELLIOTT TRUDEAU INTL","702S006","2018-10-08 05:00","2018","10","08","05:00","6.3","","2.5","","77","","0.0","","3","","13","","","","102.80","","","","","","NA"
"-73.74","45.47","MONTREAL/PIERRE ELLIOTT TRUDEAU INTL","702S006","2018-10-08 06:00","2018","10","08","06:00","6.4","","3.0","","79","","0.0","","3","","15","","","","102.80","","","","","","NA"
"-73.74","45.47","MONTREAL/PIERRE ELLIOTT TRUDEAU INTL","702S006","2018-10-08 07:00","2018","10","08","07:00","6.7","","3.1","","78","","0.0","","4","","19","","","","102.81","","","","","","NA"
"-73.74","45.47","MONTREAL/PIERRE ELLIOTT TRUDEAU INTL","702S006","2018-10-08 08:00","2018","10","08","08:00","7.1","","3.3","","77","","0.0","","4","","17","","","","102.83","","","","","","NA"
"-73.74","45.47","MONTREAL/PIERRE ELLIOTT TRUDEAU INTL","702S006","2018-10-08 09:00","2018","10","08","09:00","8.0","","3.7","","74","","0.0","","4","","18","","","","102.80","","","","","","NA"
"-73.74","45.47","MONTREAL/PIERRE ELLIOTT TRUDEAU INTL","702S006","2018-10-08 10:00","2018","10","08","10:00","9.1","","3.9","","70","","0.0","","4","","13","","","","102.77","","","","","","NA"
"-73.74","45.47","MONTREAL/PIERRE ELLIOTT TRUDEAU INTL","702S006","2018-10-08 11:00","2018","10","08","11:00","9.7","","3.6","","66","","0.0","","4","","15","","","","102.70","","","","","","NA"
"-73.74","45.47","MONTREAL/PIERRE ELLIOTT TRUDEAU INTL","702S006","2018-10-08 12:00","2018","10","08","12:00","10.2","","3.6","","64","","0.0","","4","","16","","","","102.62","","","","","","NA"
"-73.74","45.47","MONTREAL/PIERRE ELLIOTT TRUDEAU INTL","702S006","2018-10-08 13:00","2018","10","08","13:00","10.6","","3.9","","63","","0.0","","4","","12","","","","102.54","","","","","","NA"
"-73.74","45.47","MONTREAL/PIERRE ELLIOTT TRUDEAU INTL","702S006","2018-10-08 14:00","2018","10","08","14:00","10.8","","5.0","","67","","0.0","","6","","12","","","","102.37","","","","","","NA"
"-73.74","45.47","MONTREAL/PIERRE ELLIOTT TRUDEAU INTL","702S006","2018-10-08 15:00","2018","10","08","15:00","10.0","","6.2","","78","","0.0","","4","","15","","","","102.31","","","","","","NA"
"-73.74","45.47","MONTREAL/PIERRE ELLIOTT TRUDEAU INTL","702S006","2018-10-08 16:00","2018","10","08","16:00","9.1","","7.4","","89","","1.5","","4","","13","","","","102.18","","","","","","NA"
"-73.74","45.47","MONTREAL/PIERRE ELLIOTT TRUDEAU INTL","702S006","2018-10-08 17:00","2018","10","08","17:00","8.9","","7.7","","92","","2.5","","3","","10","","","","102.10","","","","","","NA"
"-73.74","45.47","MONTREAL/PIERRE ELLIOTT TRUDEAU INTL","702S006","2018-10-08 18:00","2018","10","08","18:00","8.2","","7.8","","97","","7.7","","3","","13","","","","102.11","","","","","","NA"
"-73.74","45.47","MONTREAL/PIERRE ELLIOTT TRUDEAU INTL","702S006","2018-10-08 19:00","2018","10","08","19:00","8.5","","8.0","","96","","0.6","","2","","15","","","","102.04","","","","","","NA"
"-73.74","45.47","MONTREAL/PIERRE ELLIOTT TRUDEAU INTL","702S006","2018-10-08 20:00","2018","10","08","20:00","8.1","","7.5","","96","","0.0","","1","","14","","","","102.03","","","","","","NA"
"-73.74","45.47","MONTREAL/PIERRE ELLIOTT TRUDEAU INTL","702S006","2018-10-08 21:00","2018","10","08","21:00","8.1","","7.5","","96","","0.0","","1","","14","","","","101.97","","","","","","NA"
"-73.74","45.47","MONTREAL/PIERRE ELLIOTT TRUDEAU INTL","702S006","2018-10-08 22:00","2018","10","08","22:00","8.1","","7.5","","96","","0.0","","1","","12","","","","101.90","","","","","","NA"
"-73.74","45.47","MONTREAL/PIERRE ELLIOTT TRUDEAU INTL","702S006","2018-10-08 23:00","2018","10","08","23:00","8.3","","7.8","","96","","0.0","","2","","7","","","","101.84","","","","","","NA"
"-73.74","45.47","MONTREAL/PIERRE ELLIOTT TRUDEAU INTL","702S006","2018-10-09 00:00","2018","10","09","00:00","8.4","","8.1","","98","","5.5","","35","","6","","","","101.80","","","","","","NA"
"-73.74","45.47","MONTREAL/PIERRE ELLIOTT TRUDEAU INTL","702S006","2018-10-09 01:00","2018","10","09","01:00","8.6","","8.3","","98","","0.0","","1","","9","","","","101.76","","","","","","NA"
"-73.74","45.47","MONTREAL/PIERRE ELLIOTT TRUDEAU INTL","702S006","2018-10-09 02:00","2018","10","09","02:00","8.5","","8.3","","98","","0.0","","1","","9","","","","101.72","","","","","","NA"
"-73.74","45.47","MONTREAL/PIERRE ELLIOTT TRUDEAU INTL","702S006","2018-10-09 03:00","2018","10","09","03:00","8.6","","8.4","","99","","0.2","","35","","5","","","","101.69","","","","","","NA"
"-73.74","45.47","MONTREAL/PIERRE ELLIOTT TRUDEAU INTL","702S006","2018-10-09 04:00","2018","10","09","04:00","8.7","","8.6","","99","","0.0","","36","","4","","","","101.65","","","","","","NA"
"-73.74","45.47","MONTREAL/PIERRE ELLIOTT TRUDEAU INTL","702S006","2018-10-09 05:00","2018","10","09","05:00","8.7","","8.6","","100","","0.0","","","","0","","","","101.62","","","","","","NA"
"-73.74","45.47","MONTREAL/PIERRE ELLIOTT TRUDEAU INTL","702S006","2018-10-09 06:00","2018","10","09","06:00","9.0","","9.0","","100","","0.0","","","","0","","","","101.59","","","","","","NA"
"-73.74","45.47","MONTREAL/PIERRE ELLIOTT TRUDEAU INTL","702S006","2018-10-09 07:00","2018","10","09","07:00","10.0","","10.0","","100","","0.0","","30","","3","","","","101.62","","","","","","NA"
"-73.74","45.47","MONTREAL/PIERRE ELLIOTT TRUDEAU INTL","702S006","2018-10-09 08:00","2018","10","09","08:00","12.0","","11.9","","100","","0.0","","17","","4","","","","101.59","","","","","","NA"
"-73.74","45.47","MONTREAL/PIERRE ELLIOTT TRUDEAU INTL","702S006","2018-10-09 09:00","2018","10","09","09:00","14.6","","13.2","","91","","0.0","","28","","3","","","","101.59","","","","","","NA"
"-73.74","45.47","MONTREAL/PIERRE ELLIOTT TRUDEAU INTL","702S006","2018-10-09 10:00","2018","10","09","10:00","18.0","","15.5","","85","","0.0","","21","","4","","","","101.54","","","","","","NA"
"-73.74","45.47","MONTREAL/PIERRE ELLIOTT TRUDEAU INTL","702S006","2018-10-09 11:00","2018","10","09","11:00","20.6","","16.9","","80","","0.0","","20","","6","","","","101.50","","26","","","","NA"
"-73.74","45.47","MONTREAL/PIERRE ELLIOTT TRUDEAU INTL","702S006","2018-10-09 12:00","2018","10","09","12:00","22.3","","18.1","","77","","0.0","","23","","6","","","","101.41","","28","","","","NA"
"-73.74","45.47","MONTREAL/PIERRE ELLIOTT TRUDEAU INTL","702S006","2018-10-09 13:00","2018","10","09","13:00","25.2","","19.7","","71","","0.0","","22","","14","","","","101.34","","33","","","","NA"
"-73.74","45.47","MONTREAL/PIERRE ELLIOTT TRUDEAU INTL","702S006","2018-10-09 14:00","2018","10","09","14:00","26.2","","19.7","","68","","0.0","","23","","19","","","","101.30","","34","","","","NA"
"-73.74","45.47","MONTREAL/PIERRE ELLIOTT TRUDEAU INTL","702S006","2018-10-09 15:00","2018","10","09","15:00","26.9","","19.3","","63","","0.0","","24","","28","","","","101.28","","34","","","","NA"
"-73.74","45.47","MONTREAL/PIERRE ELLIOTT TRUDEAU INTL","702S006","2018-10-09 16:00","2018","10","09","16:00","25.7","","19.4","","68","","0.0","","23","","21","","","","101.25","","33","","","","NA"
"-73.74","45.47","MONTREAL/PIERRE ELLIOTT TRUDEAU INTL","702S006","2018-10-09 17:00","2018","10","09","17:00","24.5","","19.1","","72","","0.0","","22","","15","","","","101.24","","31","","","","NA"
"-73.74","45.47","MONTREAL/PIERRE ELLIOTT TRUDEAU INTL","702S006","2018-10-09 18:00","2018","10","09","18:00","24.0","","19.3","","75","","0.0","","21","","18","","","","101.22","","31","","","","NA"
"-73.74","45.47","MONTREAL/PIERRE ELLIOTT TRUDEAU INTL","702S006","2018-10-09 19:00","2018","10","09","19:00","22.8","","18.8","","79","","0.0","","22","","10","","","","101.24","","29","","","","NA"
"-73.74","45.47","MONTREAL/PIERRE ELLIOTT TRUDEAU INTL","702S006","2018-10-09 20:00","2018","10","09","20:00","22.3","","19.1","","82","","0.0","","21","","13","","","","101.22","","29","","","","NA"
"-73.74","45.47","MONTREAL/PIERRE ELLIOTT TRUDEAU INTL","702S006","2018-10-09 21:00","2018","10","09","21:00","21.8","","19.1","","85","","0.0","","22","","11","","","","101.22","","29","","","","NA"
"-73.74","45.47","MONTREAL/PIERRE ELLIOTT TRUDEAU INTL","702S006","2018-10-09 22:00","2018","10","09","22:00","22.2","","19.5","","84","","0.0","","23","","12","","","","101.22","","29","","","","NA"
"-73.74","45.47","MONTREAL/PIERRE ELLIOTT TRUDEAU INTL","702S006","2018-10-09 23:00","2018","10","09","23:00","22.4","","19.9","","86","","0.0","","24","","13","","","","101.21","","30","","","","NA"
"-73.74","45.47","MONTREAL/PIERRE ELLIOTT TRUDEAU INTL","702S006","2018-10-10 00:00","2018","10","10","00:00","21.8","","19.6","","87","","0.0","","21","","9","","","","101.16","","29","","","","NA"
"-73.74","45.47","MONTREAL/PIERRE ELLIOTT TRUDEAU INTL","702S006","2018-10-10 01:00","2018","10","10","01:00","20.7","","19.1","","91","","0.0","","23","","6","","","","101.16","","28","","","","NA"
"-73.74","45.47","MONTREAL/PIERRE ELLIOTT TRUDEAU INTL","702S006","2018-10-10 02:00","2018","10","10","02:00","20.6","","19.2","","91","","0.0","","21","","9","","","","101.10","","28","","","","NA"
"-73.74","45.47","MONTREAL/PIERRE ELLIOTT TRUDEAU INTL","702S006","2018-10-10 03:00","2018","10","10","03:00","20.4","","18.4","","88","","0.0","","22","","9","","","","101.10","","27","","","","NA"
"-73.74","45.47","MONTREAL/PIERRE ELLIOTT TRUDEAU INTL","702S006","2018-10-10 04:00","2018","10","10","04:00","21.2","","18.8","","86","","0.0","","30","","15","","","","101.18","","28","","","","NA"
"-73.74","45.47","MONTREAL/PIERRE ELLIOTT TRUDEAU INTL","702S006","2018-10-10 05:00","2018","10","10","05:00","20.2","","19.2","","94","","1.8","","26","","9","","","","101.18","","27","","","","NA"
"-73.74","45.47","MONTREAL/PIERRE ELLIOTT TRUDEAU INTL","702S006","2018-10-10 06:00","2018","10","10","06:00","19.8","","19.2","","96","","2.1","","23","","9","","","","101.15","","","","","","NA"
"-73.74","45.47","MONTREAL/PIERRE ELLIOTT TRUDEAU INTL","702S006","2018-10-10 07:00","2018","10","10","07:00","19.8","","19.4","","97","","0.0","","4","","9","","","","101.22","","","","","","NA"
"-73.74","45.47","MONTREAL/PIERRE ELLIOTT TRUDEAU INTL","702S006","2018-10-10 08:00","2018","10","10","08:00","13.9","","12.4","","91","","0.0","","4","","23","","","","101.28","","","","","","NA"
"-73.74","45.47","MONTREAL/PIERRE ELLIOTT TRUDEAU INTL","702S006","2018-10-10 09:00","2018","10","10","09:00","12.4","","10.9","","90","","0.6","","4","","21","","","","101.29","","","","","","NA"
"-73.74","45.47","MONTREAL/PIERRE ELLIOTT TRUDEAU INTL","702S006","2018-10-10 10:00","2018","10","10","10:00","11.6","","9.9","","89","","0.0","","5","","23","","","","101.24","","","","","","NA"
"-73.74","45.47","MONTREAL/PIERRE ELLIOTT TRUDEAU INTL","702S006","2018-10-10 11:00","2018","10","10","11:00","11.8","","10.3","","90","","0.0","","3","","15","","","","101.20","","","","","","NA"
"-73.74","45.47","MONTREAL/PIERRE ELLIOTT TRUDEAU INTL","702S006","2018-10-10 12:00","2018","10","10","12:00","11.7","","10.3","","91","","0.0","","3","","16","","","","101.12","","","","","","NA"
"-73.74","45.47","MONTREAL/PIERRE ELLIOTT TRUDEAU INTL","702S006","2018-10-10 13:00","2018","10","10","13:00","11.9","","10.3","","90","","0.0","","2","","20","","","","101.08","","","","","","NA"
"-73.74","45.47","MONTREAL/PIERRE ELLIOTT TRUDEAU INTL","702S006","2018-10-10 14:00","2018","10","10","14:00","11.6","","10.2","","91","","0.0","","3","","21","","","","101.06","","","","","","NA"
"-73.74","45.47","MONTREAL/PIERRE ELLIOTT TRUDEAU INTL","702S006","2018-10-10 15:00","2018","10","10","15:00","11.6","","10.2","","91","","0.0","","3","","23","","","","101.03","","","","","","NA"
"-73.74","45.47","MONTREAL/PIERRE ELLIOTT TRUDEAU INTL","702S006","2018-10-10 16:00","2018","10","10","16:00","11.4","","10.0","","91","","0.0","","4","","22","","","","101.00","","","","","","NA"
"-73.74","45.47","MONTREAL/PIERRE ELLIOTT TRUDEAU INTL","702S006","2018-10-10 17:00","2018","10","10","17:00","11.3","","9.4","","88","","0.0","","4","","21","","","","101.00","","","","","","NA"
"-73.74","45.47","MONTREAL/PIERRE ELLIOTT TRUDEAU INTL","702S006","2018-10-10 18:00","2018","10","10","18:00","10.7","","8.9","","89","","0.0","","4","","20","","","","100.97","","","","","","NA"
"-73.74","45.47","MONTREAL/PIERRE ELLIOTT TRUDEAU INTL","702S006","2018-10-10 19:00","2018","10","10","19:00","10.5","","8.9","","89","","0.0","","4","","20","","","","100.97","","","","","","NA"
"-73.74","45.47","MONTREAL/PIERRE ELLIOTT TRUDEAU INTL","702S006","2018-10-10 20:00","2018","10","10","20:00","10.5","","8.9","","90","","0.0","","4","","14","","","","100.89","","","","","","NA"
"-73.74","45.47","MONTREAL/PIERRE ELLIOTT TRUDEAU INTL","702S006","2018-10-10 21:00","2018","10","10","21:00","10.2","","8.6","","90","","0.0","","4","","15","","","","100.85","","","","","","NA"
"-73.74","45.47","MONTREAL/PIERRE ELLIOTT TRUDEAU INTL","702S006","2018-10-10 22:00","2018","10","10","22:00","9.4","","7.8","","90","","0.0","","3","","19","","","","100.80","","","","","","NA"
"-73.74","45.47","MONTREAL/PIERRE ELLIOTT TRUDEAU INTL","702S006","2018-10-10 23:00","2018","10","10","23:00","9.2","","7.9","","92","","0.0","","3","","17","","","","100.75","","","","","","NA"
"-73.74","45.47","MONTREAL/PIERRE ELLIOTT TRUDEAU INTL","702S006","2018-10-11 00:00","2018","10","11","00:00","9.0","","8.0","","94","","0.2","","4","","20","","","","100.69","","","","","","NA"
"-73.74","45.47","MONTREAL/PIERRE ELLIOTT TRUDEAU INTL","702S006","2018-10-11 01:00","2018","10","11","01:00","8.7","","7.8","","94","","0.0","","4","","22","","","","100.65","","","","","","NA"
"-73.74","45.47","MONTREAL/PIERRE ELLIOTT TRUDEAU INTL","702S006","2018-10-11 02:00","2018","10","11","02:00","8.5","","7.5","","94","","0.0","","4","","20","","","","100.48","","","","","","NA"
"-73.74","45.47","MONTREAL/PIERRE ELLIOTT TRUDEAU INTL","702S006","2018-10-11 03:00","2018","10","11","03:00","8.3","","7.5","","95","","0.0","","5","","22","","","","100.39","","","","","","NA"
"-73.74","45.47","MONTREAL/PIERRE ELLIOTT TRUDEAU INTL","702S006","2018-10-11 04:00","2018","10","11","04:00","8.1","","7.7","","97","","0.0","","4","","21","","","","100.30","","","","","","NA"
"-73.74","45.47","MONTREAL/PIERRE ELLIOTT TRUDEAU INTL","702S006","2018-10-11 05:00","2018","10","11","05:00","8.1","","7.8","","98","","2.8","","4","","17","","","","100.21","","","","","","NA"
"-73.74","45.47","MONTREAL/PIERRE ELLIOTT TRUDEAU INTL","702S006","2018-10-11 06:00","2018","10","11","06:00","8.2","","7.8","","97","","1.7","","3","","20","","","","100.13","","","","","","NA"
"-73.74","45.47","MONTREAL/PIERRE ELLIOTT TRUDEAU INTL","702S006","2018-10-11 07:00","2018","10","11","07:00","8.3","","7.8","","97","","0.5","","3","","17","","","","100.05","","","","","","NA"
"-73.74","45.47","MONTREAL/PIERRE ELLIOTT TRUDEAU INTL","702S006","2018-10-11 08:00","2018","10","11","08:00","8.2","","7.9","","98","","0.5","","2","","14","","","","100.04","","","","","","NA"
"-73.74","45.47","MONTREAL/PIERRE ELLIOTT TRUDEAU INTL","702S006","2018-10-11 09:00","2018","10","11","09:00","7.9","","7.6","","98","","0.0","","2","","14","","","","99.96","","","","","","NA"
"-73.74","45.47","MONTREAL/PIERRE ELLIOTT TRUDEAU INTL","702S006","2018-10-11 10:00","2018","10","11","10:00","7.7","","7.4","","98","","0.8","","1","","14","","","","99.91","","","","","","NA"
"-73.74","45.47","MONTREAL/PIERRE ELLIOTT TRUDEAU INTL","702S006","2018-10-11 11:00","2018","10","11","11:00","7.9","","7.6","","98","","0.3","","2","","18","","","","99.86","","","","","","NA"
"-73.74","45.47","MONTREAL/PIERRE ELLIOTT TRUDEAU INTL","702S006","2018-10-11 12:00","2018","10","11","12:00","8.2","","7.8","","97","","0.0","","2","","20","","","","99.80","","","","","","NA"
"-73.74","45.47","MONTREAL/PIERRE ELLIOTT TRUDEAU INTL","702S006","2018-10-11 13:00","2018","10","11","13:00","8.4","","8.1","","98","","0.0","","2","","17","","","","99.73","","","","","","NA"
"-73.74","45.47","MONTREAL/PIERRE ELLIOTT TRUDEAU INTL","702S006","2018-10-11 14:00","2018","10","11","14:00","8.8","","8.5","","98","","0.0","","3","","15","","","","99.65","","","","","","NA"
"-73.74","45.47","MONTREAL/PIERRE ELLIOTT TRUDEAU INTL","702S006","2018-10-11 15:00","2018","10","11","15:00","9.2","","8.8","","97","","0.3","","3","","13","","","","99.63","","","","","","NA"
"-73.74","45.47","MONTREAL/PIERRE ELLIOTT TRUDEAU INTL","702S006","2018-10-11 16:00","2018","10","11","16:00","9.3","","9.0","","98","","0.0","","2","","15","","","","99.60","","","","","","NA"
"-73.74","45.47","MONTREAL/PIERRE ELLIOTT TRUDEAU INTL","702S006","2018-10-11 17:00","2018","10","11","17:00","9.1","","8.8","","98","","0.0","","3","","14","","","","99.59","","","","","","NA"
"-73.74","45.47","MONTREAL/PIERRE ELLIOTT TRUDEAU INTL","702S006","2018-10-11 18:00","2018","10","11","18:00","9.1","","8.8","","98","","0.0","","3","","11","","","","99.60","","","","","","NA"
"-73.74","45.47","MONTREAL/PIERRE ELLIOTT TRUDEAU INTL","702S006","2018-10-11 19:00","2018","10","11","19:00","8.8","","8.6","","99","","0.0","","1","","12","","","","99.60","","","","","","NA"
"-73.74","45.47","MONTREAL/PIERRE ELLIOTT TRUDEAU INTL","702S006","2018-10-11 20:00","2018","10","11","20:00","8.6","","8.5","","99","","0.0","","35","","12","","","","99.65","","","","","","NA"
"-73.74","45.47","MONTREAL/PIERRE ELLIOTT TRUDEAU INTL","702S006","2018-10-11 21:00","2018","10","11","21:00","8.5","","8.4","","99","","0.0","","33","","9","","","","99.69","","","","","","NA"
"-73.74","45.47","MONTREAL/PIERRE ELLIOTT TRUDEAU INTL","702S006","2018-10-11 22:00","2018","10","11","22:00","8.6","","8.5","","99","","0.0","","28","","4","","","","99.73","","","","","","NA"
"-73.74","45.47","MONTREAL/PIERRE ELLIOTT TRUDEAU INTL","702S006","2018-10-11 23:00","2018","10","11","23:00","9.2","","9.1","","99","","0.0","","25","","8","","","","99.77","","","","","","NA"
"-73.74","45.47","MONTREAL/PIERRE ELLIOTT TRUDEAU INTL","702S006","2018-10-12 00:00","2018","10","12","00:00","10.1","","10.0","","99","","0.0","","24","","9","","","","99.79","","","","","","NA"
"-73.74","45.47","MONTREAL/PIERRE ELLIOTT TRUDEAU INTL","702S006","2018-10-12 01:00","2018","10","12","01:00","11.0","","9.7","","92","","0.0","","27","","13","","","","99.83","","","","","","NA"
"-73.74","45.47","MONTREAL/PIERRE ELLIOTT TRUDEAU INTL","702S006","2018-10-12 02:00","2018","10","12","02:00","10.8","","8.2","","84","","0.0","","26","","11","","","","99.81","","","","","","NA"
"-73.74","45.47","MONTREAL/PIERRE ELLIOTT TRUDEAU INTL","702S006","2018-10-12 03:00","2018","10","12","03:00","10.5","","7.2","","80","","0.0","","28","","14","","","","99.81","","","","","","NA"
"-73.74","45.47","MONTREAL/PIERRE ELLIOTT TRUDEAU INTL","702S006","2018-10-12 04:00","2018","10","12","04:00","10.4","","6.8","","78","","0.0","","28","","18","","","","99.82","","","","","","NA"
"-73.74","45.47","MONTREAL/PIERRE ELLIOTT TRUDEAU INTL","702S006","2018-10-12 05:00","2018","10","12","05:00","10.1","","6.0","","76","","0.0","","28","","20","","","","99.88","","","","","","NA"
"-73.74","45.47","MONTREAL/PIERRE ELLIOTT TRUDEAU INTL","702S006","2018-10-12 06:00","2018","10","12","06:00","9.5","","5.9","","78","","0.0","","27","","16","","","","99.89","","","","","","NA"
"-73.74","45.47","MONTREAL/PIERRE ELLIOTT TRUDEAU INTL","702S006","2018-10-12 07:00","2018","10","12","07:00","9.4","","4.9","","73","","0.0","","27","","20","","","","99.94","","","","","","NA"
"-73.74","45.47","MONTREAL/PIERRE ELLIOTT TRUDEAU INTL","702S006","2018-10-12 08:00","2018","10","12","08:00","8.8","","4.1","","72","","0.0","","27","","26","","","","99.93","","","","","","NA"
"-73.74","45.47","MONTREAL/PIERRE ELLIOTT TRUDEAU INTL","702S006","2018-10-12 09:00","2018","10","12","09:00","9.5","","2.9","","63","","0.0","","27","","25","","","","99.97","","","","","","NA"
"-73.74","45.47","MONTREAL/PIERRE ELLIOTT TRUDEAU INTL","702S006","2018-10-12 10:00","2018","10","12","10:00","9.1","","2.4","","63","","0.0","","27","","20","","","","99.96","","","","","","NA"
"-73.74","45.47","MONTREAL/PIERRE ELLIOTT TRUDEAU INTL","702S006","2018-10-12 11:00","2018","10","12","11:00","10.2","","1.0","","53","","0.0","","26","","26","","","","99.97","","","","","","NA"
"-73.74","45.47","MONTREAL/PIERRE ELLIOTT TRUDEAU INTL","702S006","2018-10-12 12:00","2018","10","12","12:00","10.1","","0.5","","51","","0.0","","27","","31","","","","99.95","","","","","","NA"
"-73.74","45.47","MONTREAL/PIERRE ELLIOTT TRUDEAU INTL","702S006","2018-10-12 13:00","2018","10","12","13:00","9.6","","0.1","","51","","0.0","","27","","25","","","","99.93","","","","","","NA"
"-73.74","45.47","MONTREAL/PIERRE ELLIOTT TRUDEAU INTL","702S006","2018-10-12 14:00","2018","10","12","14:00","10.6","","-0.6","","46","","0.0","","26","","29","","","","99.92","","","","","","NA"
"-73.74","45.47","MONTREAL/PIERRE ELLIOTT TRUDEAU INTL","702S006","2018-10-12 15:00","2018","10","12","15:00","9.8","","-0.5","","48","","0.0","","27","","25","","","","99.95","","","","","","NA"
"-73.74","45.47","MONTREAL/PIERRE ELLIOTT TRUDEAU INTL","702S006","2018-10-12 16:00","2018","10","12","16:00","9.7","","-0.8","","48","","0.0","","28","","25","","","","99.93","","","","","","NA"
"-73.74","45.47","MONTREAL/PIERRE ELLIOTT TRUDEAU INTL","702S006","2018-10-12 17:00","2018","10","12","17:00","9.4","","-0.3","","51","","0.0","","28","","20","","","","99.96","","","","","","NA"
"-73.74","45.47","MONTREAL/PIERRE ELLIOTT TRUDEAU INTL","702S006","2018-10-12 18:00","2018","10","12","18:00","8.7","","-0.1","","54","","0.0","","28","","13","","","","100.01","","","","","","NA"
"-73.74","45.47","MONTREAL/PIERRE ELLIOTT TRUDEAU INTL","702S006","2018-10-12 19:00","2018","10","12","19:00","7.8","","-0.2","","57","","0.0","","27","","11","","","","100.06","","","","","","NA"
"-73.74","45.47","MONTREAL/PIERRE ELLIOTT TRUDEAU INTL","702S006","2018-10-12 20:00","2018","10","12","20:00","5.7","","0.4","","69","","0.0","","30","","9","","","","100.10","","","","","","NA"
"-73.74","45.47","MONTREAL/PIERRE ELLIOTT TRUDEAU INTL","702S006","2018-10-12 21:00","2018","10","12","21:00","6.4","","1.4","","70","","0.0","","31","","12","","","","100.14","","","","","","NA"
"-73.74","45.47","MONTREAL/PIERRE ELLIOTT TRUDEAU INTL","702S006","2018-10-12 22:00","2018","10","12","22:00","6.5","","1.0","","68","","0.0","","31","","10","","","","100.17","","","","","","NA"
"-73.74","45.47","MONTREAL/PIERRE ELLIOTT TRUDEAU INTL","702S006","2018-10-12 23:00","2018","10","12","23:00","6.8","","0.3","","63","","0.0","","28","","8","","","","100.23","","","","","","NA"
"-73.74","45.47","MONTREAL/PIERRE ELLIOTT TRUDEAU INTL","702S006","2018-10-13 00:00","2018","10","13","00:00","6.6","","0.4","","65","","0.0","","28","","8","","","","100.24","","","","","","NA"
"-73.74","45.47","MONTREAL/PIERRE ELLIOTT TRUDEAU INTL","702S006","2018-10-13 01:00","2018","10","13","01:00","6.7","","-0.2","","61","","0.0","","27","","6","","","","100.28","","","","","","NA"
"-73.74","45.47","MONTREAL/PIERRE ELLIOTT TRUDEAU INTL","702S006","2018-10-13 02:00","2018","10","13","02:00","6.5","","-0.1","","62","","0.0","","25","","12","","","","100.27","","","","","","NA"
"-73.74","45.47","MONTREAL/PIERRE ELLIOTT TRUDEAU INTL","702S006","2018-10-13 03:00","2018","10","13","03:00","6.2","","0.2","","65","","0.0","","25","","9","","","","100.24","","","","","","NA"
"-73.74","45.47","MONTREAL/PIERRE ELLIOTT TRUDEAU INTL","702S006","2018-10-13 04:00","2018","10","13","04:00","6.2","","0.4","","66","","0.0","","25","","8","","","","100.25","","","","","","NA"
"-73.74","45.47","MONTREAL/PIERRE ELLIOTT TRUDEAU INTL","702S006","2018-10-13 05:00","2018","10","13","05:00","6.1","","0.5","","67","","0.0","","26","","6","","","","100.30","","","","","","NA"
"-73.74","45.47","MONTREAL/PIERRE ELLIOTT TRUDEAU INTL","702S006","2018-10-13 06:00","2018","10","13","06:00","5.3","","1.7","","78","","0.0","","28","","11","","","","100.33","","","","","","NA"
"-73.74","45.47","MONTREAL/PIERRE ELLIOTT TRUDEAU INTL","702S006","2018-10-13 07:00","2018","10","13","07:00","5.3","","1.7","","78","","0.0","","28","","11","","","","100.38","","","","","","NA"
"-73.74","45.47","MONTREAL/PIERRE ELLIOTT TRUDEAU INTL","702S006","2018-10-13 08:00","2018","10","13","08:00","6.3","","1.7","","72","","0.0","","","","0","","","","100.40","","","","","","NA"
"-73.74","45.47","MONTREAL/PIERRE ELLIOTT TRUDEAU INTL","702S006","2018-10-13 09:00","2018","10","13","09:00","6.9","","1.8","","70","","0.0","","26","","8","","","","100.43","","","","","","NA"
"-73.74","45.47","MONTREAL/PIERRE ELLIOTT TRUDEAU INTL","702S006","2018-10-13 10:00","2018","10","13","10:00","7.5","","2.0","","68","","0.0","","27","","17","","","","100.46","","","","","","NA"
"-73.74","45.47","MONTREAL/PIERRE ELLIOTT TRUDEAU INTL","702S006","2018-10-13 11:00","2018","10","13","11:00","7.5","","1.6","","66","","0.0","","27","","16","","","","100.49","","","","","","NA"
"-73.74","45.47","MONTREAL/PIERRE ELLIOTT TRUDEAU INTL","702S006","2018-10-13 12:00","2018","10","13","12:00","7.8","","0.0","","58","","0.0","","26","","14","","","","100.50","","","","","","NA"
"-73.74","45.47","MONTREAL/PIERRE ELLIOTT TRUDEAU INTL","702S006","2018-10-13 13:00","2018","10","13","13:00","8.1","","0.1","","57","","0.0","","28","","19","","","","100.50","","","","","","NA"
"-73.74","45.47","MONTREAL/PIERRE ELLIOTT TRUDEAU INTL","702S006","2018-10-13 14:00","2018","10","13","14:00","7.8","","0.8","","61","","0.0","","28","","20","","","","100.55","","","","","","NA"
"-73.74","45.47","MONTREAL/PIERRE ELLIOTT TRUDEAU INTL","702S006","2018-10-13 15:00","2018","10","13","15:00","8.6","","-0.1","","54","","0.0","","27","","21","","","","100.61","","","","","","NA"
"-73.74","45.47","MONTREAL/PIERRE ELLIOTT TRUDEAU INTL","702S006","2018-10-13 16:00","2018","10","13","16:00","8.6","","-2.3","","46","","0.0","","26","","23","","","","100.65","","","","","","NA"
"-73.74","45.47","MONTREAL/PIERRE ELLIOTT TRUDEAU INTL","702S006","2018-10-13 17:00","2018","10","13","17:00","7.7","","-1.4","","53","","0.0","","28","","22","","","","100.74","","","","","","NA"
"-73.74","45.47","MONTREAL/PIERRE ELLIOTT TRUDEAU INTL","702S006","2018-10-13 18:00","2018","10","13","18:00","6.3","","-0.6","","61","","0.0","","29","","13","","","","100.83","","","","","","NA"
"-73.74","45.47","MONTREAL/PIERRE ELLIOTT TRUDEAU INTL","702S006","2018-10-13 19:00","2018","10","13","19:00","5.5","","-0.5","","65","","0.0","","29","","12","","","","100.92","","","","","","NA"
"-73.74","45.47","MONTREAL/PIERRE ELLIOTT TRUDEAU INTL","702S006","2018-10-13 20:00","2018","10","13","20:00","4.9","","-0.5","","68","","0.0","","28","","9","","","","101.02","","","","","","NA"
"-73.74","45.47","MONTREAL/PIERRE ELLIOTT TRUDEAU INTL","702S006","2018-10-13 21:00","2018","10","13","21:00","4.3","","-0.6","","70","","0.0","","29","","5","","","","101.10","","","","","","NA"
"-73.74","45.47","MONTREAL/PIERRE ELLIOTT TRUDEAU INTL","702S006","2018-10-13 22:00","2018","10","13","22:00","3.8","","-1.2","","70","","0.0","","29","","6","","","","101.16","","","","","","NA"
"-73.74","45.47","MONTREAL/PIERRE ELLIOTT TRUDEAU INTL","702S006","2018-10-13 23:00","2018","10","13","23:00","4.9","","-0.8","","66","","0.0","","28","","10","","","","101.20","","","","","","NA"
"-73.74","45.47","MONTREAL/PIERRE ELLIOTT TRUDEAU INTL","702S006","2018-10-14 00:00","2018","10","14","00:00","4.9","","-0.4","","69","","0.0","","28","","8","","","","101.28","","","","","","NA"
"-73.74","45.47","MONTREAL/PIERRE ELLIOTT TRUDEAU INTL","702S006","2018-10-14 01:00","2018","10","14","01:00","4.8","","-0.5","","69","","0.0","","28","","9","","","","101.33","","","","","","NA"
"-73.74","45.47","MONTREAL/PIERRE ELLIOTT TRUDEAU INTL","702S006","2018-10-14 02:00","2018","10","14","02:00","4.7","","-0.5","","69","","0.0","","30","","6","","","","101.37","","","","","","NA"
"-73.74","45.47","MONTREAL/PIERRE ELLIOTT TRUDEAU INTL","702S006","2018-10-14 03:00","2018","10","14","03:00","4.7","","-0.5","","69","","0.0","","29","","5","","","","101.41","","","","","","NA"
"-73.74","45.47","MONTREAL/PIERRE ELLIOTT TRUDEAU INTL","702S006","2018-10-14 04:00","2018","10","14","04:00","5.6","","-0.2","","66","","0.0","","24","","6","","","","101.46","","","","","","NA"
"-73.74","45.47","MONTREAL/PIERRE ELLIOTT TRUDEAU INTL","702S006","2018-10-14 05:00","2018","10","14","05:00","5.2","","-0.1","","69","","0.0","","26","","8","","","","101.53","","","","","","NA"
"-73.74","45.47","MONTREAL/PIERRE ELLIOTT TRUDEAU INTL","702S006","2018-10-14 06:00","2018","10","14","06:00","4.7","","-1.1","","66","","0.0","","26","","8","","","","101.55","","","","","","NA"
"-73.74","45.47","MONTREAL/PIERRE ELLIOTT TRUDEAU INTL","702S006","2018-10-14 07:00","2018","10","14","07:00","5.5","","2.6","","82","","0.0","","21","","8","","","","101.57","","","","","","NA"
"-73.74","45.47","MONTREAL/PIERRE ELLIOTT TRUDEAU INTL","702S006","2018-10-14 08:00","2018","10","14","08:00","6.2","","3.3","","82","","0.0","","24","","14","","","","101.65","","","","","","NA"
"-73.74","45.47","MONTREAL/PIERRE ELLIOTT TRUDEAU INTL","702S006","2018-10-14 09:00","2018","10","14","09:00","7.3","","2.2","","70","","0.0","","26","","16","","","","101.67","","","","","","NA"
"-73.74","45.47","MONTREAL/PIERRE ELLIOTT TRUDEAU INTL","702S006","2018-10-14 10:00","2018","10","14","10:00","8.7","","1.7","","61","","0.2","","25","","16","","","","101.66","","","","","","NA"
"-73.74","45.47","MONTREAL/PIERRE ELLIOTT TRUDEAU INTL","702S006","2018-10-14 11:00","2018","10","14","11:00","10.2","","1.7","","56","","0.0","","23","","16","","","","101.66","","","","","","NA"
"-73.74","45.47","MONTREAL/PIERRE ELLIOTT TRUDEAU INTL","702S006","2018-10-14 12:00","2018","10","14","12:00","11.3","","2.3","","54","","0.0","","24","","16","","","","101.65","","","","","","NA"
"-73.74","45.47","MONTREAL/PIERRE ELLIOTT TRUDEAU INTL","702S006","2018-10-14 13:00","2018","10","14","13:00","12.0","","3.6","","56","","0.0","","22","","18","","","","101.60","","","","","","NA"
"-73.74","45.47","MONTREAL/PIERRE ELLIOTT TRUDEAU INTL","702S006","2018-10-14 14:00","2018","10","14","14:00","11.6","","2.2","","52","","0.0","","23","","15","","","","101.60","","","","","","NA"
"-73.74","45.47","MONTREAL/PIERRE ELLIOTT TRUDEAU INTL","702S006","2018-10-14 15:00","2018","10","14","15:00","12.5","","2.2","","50","","0.0","","22","","15","","","","101.57","","","","","","NA"
"-73.74","45.47","MONTREAL/PIERRE ELLIOTT TRUDEAU INTL","702S006","2018-10-14 16:00","2018","10","14","16:00","12.4","","2.0","","49","","0.0","","23","","15","","","","101.58","","","","","","NA"
"-73.74","45.47","MONTREAL/PIERRE ELLIOTT TRUDEAU INTL","702S006","2018-10-14 17:00","2018","10","14","17:00","11.9","","1.9","","50","","0.0","","24","","10","","","","101.58","","","","","","NA"
"-73.74","45.47","MONTREAL/PIERRE ELLIOTT TRUDEAU INTL","702S006","2018-10-14 18:00","2018","10","14","18:00","11.5","","2.7","","55","","0.0","","23","","9","","","","101.61","","","","","","NA"
"-73.74","45.47","MONTREAL/PIERRE ELLIOTT TRUDEAU INTL","702S006","2018-10-14 19:00","2018","10","14","19:00","11.9","","3.5","","56","","0.0","","23","","8","","","","101.60","","","","","","NA"
"-73.74","45.47","MONTREAL/PIERRE ELLIOTT TRUDEAU INTL","702S006","2018-10-14 20:00","2018","10","14","20:00","11.1","","3.8","","61","","0.0","","23","","8","","","","101.64","","","","","","NA"
"-73.74","45.47","MONTREAL/PIERRE ELLIOTT TRUDEAU INTL","702S006","2018-10-14 21:00","2018","10","14","21:00","10.1","","4.9","","70","","0.0","","19","","9","","","","101.63","","","","","","NA"
"-73.74","45.47","MONTREAL/PIERRE ELLIOTT TRUDEAU INTL","702S006","2018-10-14 22:00","2018","10","14","22:00","8.5","","4.0","","73","","0.0","","17","","11","","","","101.62","","","","","","NA"
"-73.74","45.47","MONTREAL/PIERRE ELLIOTT TRUDEAU INTL","702S006","2018-10-14 23:00","2018","10","14","23:00","7.2","","3.8","","79","","0.0","","17","","7","","","","101.59","","","","","","NA"
"-73.74","45.47","MONTREAL/PIERRE ELLIOTT TRUDEAU INTL","702S006","2018-10-15 00:00","2018","10","15","00:00","7.8","","3.9","","76","","0.0","","12","","5","","","","101.58","","","","","","NA"
"-73.74","45.47","MONTREAL/PIERRE ELLIOTT TRUDEAU INTL","702S006","2018-10-15 01:00","2018","10","15","01:00","6.7","","3.9","","82","","0.0","","16","","9","","","","101.53","","","","","","NA"
"-73.74","45.47","MONTREAL/PIERRE ELLIOTT TRUDEAU INTL","702S006","2018-10-15 02:00","2018","10","15","02:00","7.7","","3.6","","75","","0.0","","12","","4","","","","101.51","","","","","","NA"
"-73.74","45.47","MONTREAL/PIERRE ELLIOTT TRUDEAU INTL","702S006","2018-10-15 03:00","2018","10","15","03:00","7.9","","3.2","","72","","0.0","","12","","5","","","","101.46","","","","","","NA"
"-73.74","45.47","MONTREAL/PIERRE ELLIOTT TRUDEAU INTL","702S006","2018-10-15 04:00","2018","10","15","04:00","5.3","","2.2","","80","","0.0","","13","","8","","","","101.43","","","","","","NA"
"-73.74","45.47","MONTREAL/PIERRE ELLIOTT TRUDEAU INTL","702S006","2018-10-15 05:00","2018","10","15","05:00","6.7","","3.4","","80","","0.0","","11","","10","","","","101.37","","","","","","NA"
"-73.74","45.47","MONTREAL/PIERRE ELLIOTT TRUDEAU INTL","702S006","2018-10-15 06:00","2018","10","15","06:00","6.7","","4.0","","83","","0.0","","12","","10","","","","101.28","","","","","","NA"
"-73.74","45.47","MONTREAL/PIERRE ELLIOTT TRUDEAU INTL","702S006","2018-10-15 07:00","2018","10","15","07:00","7.4","","4.8","","83","","0.0","","14","","9","","","","101.23","","","","","","NA"
"-73.74","45.47","MONTREAL/PIERRE ELLIOTT TRUDEAU INTL","702S006","2018-10-15 08:00","2018","10","15","08:00","8.8","","6.1","","83","","0.0","","13","","17","","","","101.13","","","","","","NA"
"-73.74","45.47","MONTREAL/PIERRE ELLIOTT TRUDEAU INTL","702S006","2018-10-15 09:00","2018","10","15","09:00","9.2","","6.7","","84","","0.0","","14","","23","","","","100.96","","","","","","NA"
"-73.74","45.47","MONTREAL/PIERRE ELLIOTT TRUDEAU INTL","702S006","2018-10-15 10:00","2018","10","15","10:00","10.3","","6.7","","78","","0.0","","15","","29","","","","100.85","","","","","","NA"
"-73.74","45.47","MONTREAL/PIERRE ELLIOTT TRUDEAU INTL","702S006","2018-10-15 11:00","2018","10","15","11:00","9.6","","7.5","","87","","0.0","","15","","23","","","","100.70","","","","","","NA"
"-73.74","45.47","MONTREAL/PIERRE ELLIOTT TRUDEAU INTL","702S006","2018-10-15 12:00","2018","10","15","12:00","8.8","","7.7","","93","","0.2","","15","","20","","","","100.55","","","","","","NA"
"-73.74","45.47","MONTREAL/PIERRE ELLIOTT TRUDEAU INTL","702S006","2018-10-15 13:00","2018","10","15","13:00","9.0","","8.3","","95","","0.0","","14","","18","","","","100.36","","","","","","NA"
"-73.74","45.47","MONTREAL/PIERRE ELLIOTT TRUDEAU INTL","702S006","2018-10-15 14:00","2018","10","15","14:00","9.3","","8.6","","95","","0.2","","15","","15","","","","100.21","","","","","","NA"
"-73.74","45.47","MONTREAL/PIERRE ELLIOTT TRUDEAU INTL","702S006","2018-10-15 15:00","2018","10","15","15:00","9.5","","9.1","","97","","1.0","","15","","19","","","","100.02","","","","","","NA"
"-73.74","45.47","MONTREAL/PIERRE ELLIOTT TRUDEAU INTL","702S006","2018-10-15 16:00","2018","10","15","16:00","10.2","","9.7","","97","","0.5","","16","","19","","","","99.87","","","","","","NA"
"-73.74","45.47","MONTREAL/PIERRE ELLIOTT TRUDEAU INTL","702S006","2018-10-15 17:00","2018","10","15","17:00","11.0","","10.6","","97","","1.0","","17","","14","","","","99.78","","","","","","NA"
"-73.74","45.47","MONTREAL/PIERRE ELLIOTT TRUDEAU INTL","702S006","2018-10-15 18:00","2018","10","15","18:00","13.0","","12.2","","95","","1.1","","24","","24","","","","99.80","","","","","","NA"
"-73.74","45.47","MONTREAL/PIERRE ELLIOTT TRUDEAU INTL","702S006","2018-10-15 19:00","2018","10","15","19:00","13.2","","10.8","","85","","0.0","","24","","23","","","","99.83","","","","","","NA"
"-73.74","45.47","MONTREAL/PIERRE ELLIOTT TRUDEAU INTL","702S006","2018-10-15 20:00","2018","10","15","20:00","12.2","","8.8","","80","","0.3","","26","","30","","","","99.92","","","","","","NA"
"-73.74","45.47","MONTREAL/PIERRE ELLIOTT TRUDEAU INTL","702S006","2018-10-15 21:00","2018","10","15","21:00","9.9","","4.6","","69","","0.0","","26","","32","","","","100.09","","","","","","NA"
"-73.74","45.47","MONTREAL/PIERRE ELLIOTT TRUDEAU INTL","702S006","2018-10-15 22:00","2018","10","15","22:00","8.8","","1.9","","62","","0.0","","26","","37","","","","100.17","","","","","","NA"
"-73.74","45.47","MONTREAL/PIERRE ELLIOTT TRUDEAU INTL","702S006","2018-10-15 23:00","2018","10","15","23:00","7.2","","-0.9","","56","","0.0","","26","","37","","","","100.26","","","","","","NA"
"-73.74","45.47","MONTREAL/PIERRE ELLIOTT TRUDEAU INTL","702S006","2018-10-16 00:00","2018","10","16","00:00","6.1","","0.0","","65","","0.0","","25","","38","","","","100.40","","","","","","NA"
"-73.74","45.47","MONTREAL/PIERRE ELLIOTT TRUDEAU INTL","702S006","2018-10-16 01:00","2018","10","16","01:00","5.7","","-1.8","","59","","0.0","","26","","40","","","","100.52","","","","","","NA"
"-73.74","45.47","MONTREAL/PIERRE ELLIOTT TRUDEAU INTL","702S006","2018-10-16 02:00","2018","10","16","02:00","5.5","","-1.6","","60","","0.0","","25","","41","","","","100.58","","","","","","NA"
"-73.74","45.47","MONTREAL/PIERRE ELLIOTT TRUDEAU INTL","702S006","2018-10-16 03:00","2018","10","16","03:00","5.1","","-1.2","","64","","0.0","","25","","34","","","","100.69","","","","","","NA"
"-73.74","45.47","MONTREAL/PIERRE ELLIOTT TRUDEAU INTL","702S006","2018-10-16 04:00","2018","10","16","04:00","5.0","","-0.5","","68","","0.0","","25","","28","","","","100.81","","","","","","NA"
"-73.74","45.47","MONTREAL/PIERRE ELLIOTT TRUDEAU INTL","702S006","2018-10-16 05:00","2018","10","16","05:00","4.9","","-0.4","","69","","0.0","","26","","25","","","","100.91","","","","","","NA"
"-73.74","45.47","MONTREAL/PIERRE ELLIOTT TRUDEAU INTL","702S006","2018-10-16 06:00","2018","10","16","06:00","4.5","","-1.1","","66","","0.0","","28","","27","","","","100.98","","","","","","NA"
"-73.74","45.47","MONTREAL/PIERRE ELLIOTT TRUDEAU INTL","702S006","2018-10-16 07:00","2018","10","16","07:00","4.0","","-2.5","","63","","0.2","","28","","26","","","","101.09","","","","","","NA"
"-73.74","45.47","MONTREAL/PIERRE ELLIOTT TRUDEAU INTL","702S006","2018-10-16 08:00","2018","10","16","08:00"
"-73.74","45.47","MONTREAL/PIERRE ELLIOTT TRUDEAU INTL","702S006","2018-10-16 09:00","2018","10","16","09:00"
"-73.74","45.47","MONTREAL/PIERRE ELLIOTT TRUDEAU INTL","702S006","2018-10-16 10:00","2018","10","16","10:00"
"-73.74","45.47","MONTREAL/PIERRE ELLIOTT TRUDEAU INTL","702S006","2018-10-16 11:00","2018","10","16","11:00"
"-73.74","45.47","MONTREAL/PIERRE ELLIOTT TRUDEAU INTL","702S006","2018-10-16 12:00","2018","10","16","12:00"
"-73.74","45.47","MONTREAL/PIERRE ELLIOTT TRUDEAU INTL","702S006","2018-10-16 13:00","2018","10","16","13:00"
"-73.74","45.47","MONTREAL/PIERRE ELLIOTT TRUDEAU INTL","702S006","2018-10-16 14:00","2018","10","16","14:00"
"-73.74","45.47","MONTREAL/PIERRE ELLIOTT TRUDEAU INTL","702S006","2018-10-16 15:00","2018","10","16","15:00"
"-73.74","45.47","MONTREAL/PIERRE ELLIOTT TRUDEAU INTL","702S006","2018-10-16 16:00","2018","10","16","16:00","8.8","","-0.5","","52","","0.0","","24","","13","","","","100.88","","","","","","NA"
"-73.74","45.47","MONTREAL/PIERRE ELLIOTT TRUDEAU INTL","702S006","2018-10-16 17:00","2018","10","16","17:00","8.5","","0.3","","57","","0.0","","25","","12","","","","100.86","","","","","","NA"
"-73.74","45.47","MONTREAL/PIERRE ELLIOTT TRUDEAU INTL","702S006","2018-10-16 18:00","2018","10","16","18:00"
"-73.74","45.47","MONTREAL/PIERRE ELLIOTT TRUDEAU INTL","702S006","2018-10-16 19:00","2018","10","16","19:00","8.1","","1.9","","65","","0.0","","24","","13","","","","100.84","","","","","","NA"
"-73.74","45.47","MONTREAL/PIERRE ELLIOTT TRUDEAU INTL","702S006","2018-10-16 20:00","2018","10","16","20:00","7.9","","1.2","","62","","0.0","","24","","18","","","","100.81","","","","","","NA"
"-73.74","45.47","MONTREAL/PIERRE ELLIOTT TRUDEAU INTL","702S006","2018-10-16 21:00","2018","10","16","21:00","8.0","","1.9","","66","","0.0","","23","","17","","","","100.78","","","","","","NA"
"-73.74","45.47","MONTREAL/PIERRE ELLIOTT TRUDEAU INTL","702S006","2018-10-16 22:00","2018","10","16","22:00","8.2","","3.3","","71","","0.0","","22","","14","","","","100.73","","","","","","NA"
"-73.74","45.47","MONTREAL/PIERRE ELLIOTT TRUDEAU INTL","702S006","2018-10-16 23:00","2018","10","16","23:00","7.9","","3.2","","72","","0.0","","21","","20","","","","100.63","","","","","","NA"
"-73.74","45.47","MONTREAL/PIERRE ELLIOTT TRUDEAU INTL","702S006","2018-10-17 00:00","2018","10","17","00:00","7.2","","2.5","","72","","0.0","","19","","19","","","","100.54","","","","","","NA"
"-73.74","45.47","MONTREAL/PIERRE ELLIOTT TRUDEAU INTL","702S006","2018-10-17 01:00","2018","10","17","01:00","7.6","","3.4","","74","","0.0","","18","","19","","","","100.46","","","","","","NA"
"-73.74","45.47","MONTREAL/PIERRE ELLIOTT TRUDEAU INTL","702S006","2018-10-17 02:00","2018","10","17","02:00","9.2","","4.4","","72","","0.0","","22","","22","","","","100.36","","","","","","NA"
"-73.74","45.47","MONTREAL/PIERRE ELLIOTT TRUDEAU INTL","702S006","2018-10-17 03:00","2018","10","17","03:00","9.4","","4.6","","72","","0.0","","21","","21","","","","100.29","","","","","","NA"
"-73.74","45.47","MONTREAL/PIERRE ELLIOTT TRUDEAU INTL","702S006","2018-10-17 04:00","2018","10","17","04:00","9.5","","4.0","","69","","0.0","","22","","22","","","","100.25","","","","","","NA"
"-73.74","45.47","MONTREAL/PIERRE ELLIOTT TRUDEAU INTL","702S006","2018-10-17 05:00","2018","10","17","05:00","9.6","","4.1","","69","","0.0","","23","","19","","","","100.18","","","","","","NA"
"-73.74","45.47","MONTREAL/PIERRE ELLIOTT TRUDEAU INTL","702S006","2018-10-17 06:00","2018","10","17","06:00","9.8","","3.6","","65","","0.0","","24","","21","","","","100.14","","","","","","NA"
"-73.74","45.47","MONTREAL/PIERRE ELLIOTT TRUDEAU INTL","702S006","2018-10-17 07:00","2018","10","17","07:00","8.2","","4.8","","79","","0.0","","25","","20","","","","100.17","","","","","","NA"
"-73.74","45.47","MONTREAL/PIERRE ELLIOTT TRUDEAU INTL","702S006","2018-10-17 08:00","2018","10","17","08:00"
"-73.74","45.47","MONTREAL/PIERRE ELLIOTT TRUDEAU INTL","702S006","2018-10-17 09:00","2018","10","17","09:00"
"-73.74","45.47","MONTREAL/PIERRE ELLIOTT TRUDEAU INTL","702S006","2018-10-17 10:00","2018","10","17","10:00"
"-73.74","45.47","MONTREAL/PIERRE ELLIOTT TRUDEAU INTL","702S006","2018-10-17 11:00","2018","10","17","11:00"
"-73.74","45.47","MONTREAL/PIERRE ELLIOTT TRUDEAU INTL","702S006","2018-10-17 12:00","2018","10","17","12:00"
"-73.74","45.47","MONTREAL/PIERRE ELLIOTT TRUDEAU INTL","702S006","2018-10-17 13:00","2018","10","17","13:00"
"-73.74","45.47","MONTREAL/PIERRE ELLIOTT TRUDEAU INTL","702S006","2018-10-17 14:00","2018","10","17","14:00"
"-73.74","45.47","MONTREAL/PIERRE ELLIOTT TRUDEAU INTL","702S006","2018-10-17 15:00","2018","10","17","15:00"
"-73.74","45.47","MONTREAL/PIERRE ELLIOTT TRUDEAU INTL","702S006","2018-10-17 16:00","2018","10","17","16:00","6.8","","-3.8","","47","","0.0","","28","","27","","","","100.45","","","","","","NA"
"-73.74","45.47","MONTREAL/PIERRE ELLIOTT TRUDEAU INTL","702S006","2018-10-17 17:00","2018","10","17","17:00","6.8","","-3.9","","46","","0.0","","27","","26","","","","100.53","","","","","","NA"
"-73.74","45.47","MONTREAL/PIERRE ELLIOTT TRUDEAU INTL","702S006","2018-10-17 18:00","2018","10","17","18:00","3.3","","-0.8","","75","","0.0","","31","","29","","","","100.69","","","","","","NA"
"-73.74","45.47","MONTREAL/PIERRE ELLIOTT TRUDEAU INTL","702S006","2018-10-17 19:00","2018","10","17","19:00","3.6","","-1.0","","72","","0.0","","30","","32","","","","100.83","","","","","","NA"
"-73.74","45.47","MONTREAL/PIERRE ELLIOTT TRUDEAU INTL","702S006","2018-10-17 20:00","2018","10","17","20:00","3.1","","-2.2","","68","","0.0","","29","","28","","","","100.90","","","","","","NA"
"-73.74","45.47","MONTREAL/PIERRE ELLIOTT TRUDEAU INTL","702S006","2018-10-17 21:00","2018","10","17","21:00","2.6","","-3.0","","66","","0.0","","29","","23","","","","100.99","","","","","","NA"
"-73.74","45.47","MONTREAL/PIERRE ELLIOTT TRUDEAU INTL","702S006","2018-10-17 22:00","2018","10","17","22:00","2.3","","-2.6","","70","","0.0","","28","","20","","","","101.05","","","","","","NA"
"-73.74","45.47","MONTREAL/PIERRE ELLIOTT TRUDEAU INTL","702S006","2018-10-17 23:00","2018","10","17","23:00","1.6","","-3.0","","71","","0.0","","29","","27","","","","101.11","","","","","","NA"
"-73.74","45.47","MONTREAL/PIERRE ELLIOTT TRUDEAU INTL","702S006","2018-10-18 00:00","2018","10","18","00:00","1.3","","-3.0","","73","","0.0","","29","","17","","","","101.21","","","","","","NA"
"-73.74","45.47","MONTREAL/PIERRE ELLIOTT TRUDEAU INTL","702S006","2018-10-18 01:00","2018","10","18","01:00","1.1","","-4.2","","68","","0.0","","29","","24","","","","101.30","","","","","","NA"
"-73.74","45.47","MONTREAL/PIERRE ELLIOTT TRUDEAU INTL","702S006","2018-10-18 02:00","2018","10","18","02:00","0.5","","-4.3","","70","","0.0","","28","","19","","","","101.40","","","","","","NA"
"-73.74","45.47","MONTREAL/PIERRE ELLIOTT TRUDEAU INTL","702S006","2018-10-18 03:00","2018","10","18","03:00","0.5","","-5.1","","66","","0.0","","29","","25","","","","101.53","","","","","","NA"
"-73.74","45.47","MONTREAL/PIERRE ELLIOTT TRUDEAU INTL","702S006","2018-10-18 04:00","2018","10","18","04:00","0.6","","-5.2","","65","","0.0","","28","","27","","","","101.64","","","","","","NA"
"-73.74","45.47","MONTREAL/PIERRE ELLIOTT TRUDEAU INTL","702S006","2018-10-18 05:00","2018","10","18","05:00","0.5","","-6.0","","61","","0.0","","29","","23","","","","101.73","","","","","","NA"
"-73.74","45.47","MONTREAL/PIERRE ELLIOTT TRUDEAU INTL","702S006","2018-10-18 06:00","2018","10","18","06:00"
"-73.74","45.47","MONTREAL/PIERRE ELLIOTT TRUDEAU INTL","702S006","2018-10-18 07:00","2018","10","18","07:00","-0.1","","-7.5","","57","","0.0","","28","","24","","","","101.94","","","","-6","","NA"
"-73.74","45.47","MONTREAL/PIERRE ELLIOTT TRUDEAU INTL","702S006","2018-10-18 08:00","2018","10","18","08:00","0.8","","-6.9","","56","","0.0","","28","","23","","","","102.03","","","","","","NA"
"-73.74","45.47","MONTREAL/PIERRE ELLIOTT TRUDEAU INTL","702S006","2018-10-18 09:00","2018","10","18","09:00","2.1","","-6.3","","54","","0.0","","29","","25","","","","102.07","","","","","","NA"
"-73.74","45.47","MONTREAL/PIERRE ELLIOTT TRUDEAU INTL","702S006","2018-10-18 10:00","2018","10","18","10:00"
"-73.74","45.47","MONTREAL/PIERRE ELLIOTT TRUDEAU INTL","702S006","2018-10-18 11:00","2018","10","18","11:00"
"-73.74","45.47","MONTREAL/PIERRE ELLIOTT TRUDEAU INTL","702S006","2018-10-18 12:00","2018","10","18","12:00"
"-73.74","45.47","MONTREAL/PIERRE ELLIOTT TRUDEAU INTL","702S006","2018-10-18 13:00","2018","10","18","13:00"
"-73.74","45.47","MONTREAL/PIERRE ELLIOTT TRUDEAU INTL","702S006","2018-10-18 14:00","2018","10","18","14:00"
"-73.74","45.47","MONTREAL/PIERRE ELLIOTT TRUDEAU INTL","702S006","2018-10-18 15:00","2018","10","18","15:00"
"-73.74","45.47","MONTREAL/PIERRE ELLIOTT TRUDEAU INTL","702S006","2018-10-18 16:00","2018","10","18","16:00"
"-73.74","45.47","MONTREAL/PIERRE ELLIOTT TRUDEAU INTL","702S006","2018-10-18 17:00","2018","10","18","17:00","3.6","","-9.6","","38","","0.0","","26","","24","","","","101.94","","","","","","NA"
"-73.74","45.47","MONTREAL/PIERRE ELLIOTT TRUDEAU INTL","702S006","2018-10-18 18:00","2018","10","18","18:00","3.0","","-8.9","","41","","0.0","","28","","22","","","","101.94","","","","","","NA"
"-73.74","45.47","MONTREAL/PIERRE ELLIOTT TRUDEAU INTL","702S006","2018-10-18 19:00","2018","10","18","19:00","3.4","","-7.9","","43","","0.0","","27","","15","","","","101.90","","","","","","NA"
"-73.74","45.47","MONTREAL/PIERRE ELLIOTT TRUDEAU INTL","702S006","2018-10-18 20:00","2018","10","18","20:00","3.5","","-7.3","","45","","0.0","","26","","8","","","","101.85","","","","","","NA"
"-73.74","45.47","MONTREAL/PIERRE ELLIOTT TRUDEAU INTL","702S006","2018-10-18 21:00","2018","10","18","21:00","3.5","","-7.4","","45","","0.0","","26","","7","","","","101.83","","","","","","NA"
"-73.74","45.47","MONTREAL/PIERRE ELLIOTT TRUDEAU INTL","702S006","2018-10-18 22:00","2018","10","18","22:00","4.3","","-5.7","","48","","0.0","","25","","15","","","","101.81","","","","","","NA"
"-73.74","45.47","MONTREAL/PIERRE ELLIOTT TRUDEAU INTL","702S006","2018-10-18 23:00","2018","10","18","23:00","4.6","","-4.5","","52","","0.0","","24","","16","","","","101.73","","","","","","NA"
"-73.74","45.47","MONTREAL/PIERRE ELLIOTT TRUDEAU INTL","702S006","2018-10-19 00:00","2018","10","19","00:00","4.9","","-2.8","","57","","0.0","","25","","15","","","","101.66","","","","","","NA"
"-73.74","45.47","MONTREAL/PIERRE ELLIOTT TRUDEAU INTL","702S006","2018-10-19 01:00","2018","10","19","01:00","5.3","","-1.6","","61","","0.0","","25","","16","","","","101.59","","","","","","NA"
"-73.74","45.47","MONTREAL/PIERRE ELLIOTT TRUDEAU INTL","702S006","2018-10-19 02:00","2018","10","19","02:00","5.5","","-1.1","","63","","0.0","","24","","15","","","","101.51","","","","","","NA"
"-73.74","45.47","MONTREAL/PIERRE ELLIOTT TRUDEAU INTL","702S006","2018-10-19 03:00","2018","10","19","03:00","6.0","","-1.4","","59","","0.0","","24","","20","","","","101.43","","","","","","NA"
"-73.74","45.47","MONTREAL/PIERRE ELLIOTT TRUDEAU INTL","702S006","2018-10-19 04:00","2018","10","19","04:00","5.6","","-1.0","","62","","0.0","","24","","15","","","","101.38","","","","","","NA"
"-73.74","45.47","MONTREAL/PIERRE ELLIOTT TRUDEAU INTL","702S006","2018-10-19 05:00","2018","10","19","05:00","6.3","","-0.4","","62","","0.0","","24","","17","","","","101.35","","","","","","NA"
"-73.74","45.47","MONTREAL/PIERRE ELLIOTT TRUDEAU INTL","702S006","2018-10-19 06:00","2018","10","19","06:00","6.1","","1.2","","70","","0.0","","22","","17","","","","101.26","","","","","","NA"
"-73.74","45.47","MONTREAL/PIERRE ELLIOTT TRUDEAU INTL","702S006","2018-10-19 07:00","2018","10","19","07:00","6.6","","2.0","","72","","0.0","","23","","18","","","","101.23","","","","","","NA"
"-73.74","45.47","MONTREAL/PIERRE ELLIOTT TRUDEAU INTL","702S006","2018-10-19 08:00","2018","10","19","08:00","8.0","","2.9","","70","","0.0","","23","","23","","","","101.18","","","","","","NA"
"-73.74","45.47","MONTREAL/PIERRE ELLIOTT TRUDEAU INTL","702S006","2018-10-19 09:00","2018","10","19","09:00","9.4","","3.3","","66","","0.0","","23","","24","","","","101.08","","","","","","NA"
"-73.74","45.47","MONTREAL/PIERRE ELLIOTT TRUDEAU INTL","702S006","2018-10-19 10:00","2018","10","19","10:00"
"-73.74","45.47","MONTREAL/PIERRE ELLIOTT TRUDEAU INTL","702S006","2018-10-19 11:00","2018","10","19","11:00","12.5","","3.5","","54","","0.0","","24","","29","","","","100.86","","","","","","NA"
"-73.74","45.47","MONTREAL/PIERRE ELLIOTT TRUDEAU INTL","702S006","2018-10-19 12:00","2018","10","19","12:00","13.8","","4.3","","53","","0.0","","23","","27","","","","100.75","","","","","","NA"
"-73.74","45.47","MONTREAL/PIERRE ELLIOTT TRUDEAU INTL","702S006","2018-10-19 13:00","2018","10","19","13:00","14.7","","5.8","","55","","0.0","","22","","28","","","","100.62","","","","","","NA"
"-73.74","45.47","MONTREAL/PIERRE ELLIOTT TRUDEAU INTL","702S006","2018-10-19 14:00","2018","10","19","14:00","15.3","","5.5","","52","","0.0","","23","","31","","","","100.54","","","","","","NA"
"-73.74","45.47","MONTREAL/PIERRE ELLIOTT TRUDEAU INTL","702S006","2018-10-19 15:00","2018","10","19","15:00","15.9","","6.2","","53","","0.0","","23","","25","","","","100.41","","","","","","NA"
"-73.74","45.47","MONTREAL/PIERRE ELLIOTT TRUDEAU INTL","702S006","2018-10-19 16:00","2018","10","19","16:00","15.6","","6.2","","54","","0.0","","24","","24","","","","100.38","","","","","","NA"
"-73.74","45.47","MONTREAL/PIERRE ELLIOTT TRUDEAU INTL","702S006","2018-10-19 17:00","2018","10","19","17:00","14.6","","6.3","","58","","0.0","","24","","20","","","","100.34","","","","","","NA"
"-73.74","45.47","MONTREAL/PIERRE ELLIOTT TRUDEAU INTL","702S006","2018-10-19 18:00","2018","10","19","18:00","14.2","","5.5","","56","","0.0","","23","","27","","","","100.31","","","","","","NA"
"-73.74","45.47","MONTREAL/PIERRE ELLIOTT TRUDEAU INTL","702S006","2018-10-19 19:00","2018","10","19","19:00","14.3","","5.1","","54","","0.0","","21","","20","","","","100.16","","","","","","NA"
"-73.74","45.47","MONTREAL/PIERRE ELLIOTT TRUDEAU INTL","702S006","2018-10-19 20:00","2018","10","19","20:00","13.9","","5.3","","56","","0.0","","21","","16","","","","100.05","","","","","","NA"
"-73.74","45.47","MONTREAL/PIERRE ELLIOTT TRUDEAU INTL","702S006","2018-10-19 21:00","2018","10","19","21:00","13.6","","5.7","","59","","0.0","","21","","13","","","","99.97","","","","","","NA"
"-73.74","45.47","MONTREAL/PIERRE ELLIOTT TRUDEAU INTL","702S006","2018-10-19 22:00","2018","10","19","22:00","13.5","","5.8","","60","","0.0","","21","","16","","","","99.87","","","","","","NA"
"-73.74","45.47","MONTREAL/PIERRE ELLIOTT TRUDEAU INTL","702S006","2018-10-19 23:00","2018","10","19","23:00","13.3","","4.8","","57","","0.0","","22","","15","","","","99.77","","","","","","NA"
"-73.74","45.47","MONTREAL/PIERRE ELLIOTT TRUDEAU INTL","702S006","2018-10-20 00:00","2018","10","20","00:00","12.9","","5.1","","59","","0.0","","20","","14","","","","99.65","","","","","","NA"
"-73.74","45.47","MONTREAL/PIERRE ELLIOTT TRUDEAU INTL","702S006","2018-10-20 01:00","2018","10","20","01:00","13.0","","2.5","","49","","0.0","","25","","25","","","","99.59","","","","","","NA"
"-73.74","45.47","MONTREAL/PIERRE ELLIOTT TRUDEAU INTL","702S006","2018-10-20 02:00","2018","10","20","02:00","12.1","","4.2","","59","","0.0","","23","","25","","","","99.52","","","","","","NA"
"-73.74","45.47","MONTREAL/PIERRE ELLIOTT TRUDEAU INTL","702S006","2018-10-20 03:00","2018","10","20","03:00","11.7","","3.3","","56","","0.0","","22","","28","","","","99.36","","","","","","NA"
"-73.74","45.47","MONTREAL/PIERRE ELLIOTT TRUDEAU INTL","702S006","2018-10-20 04:00","2018","10","20","04:00","11.7","","3.4","","57","","0.0","","22","","30","","","","99.26","","","","","","NA"
"-73.74","45.47","MONTREAL/PIERRE ELLIOTT TRUDEAU INTL","702S006","2018-10-20 05:00","2018","10","20","05:00","11.7","","3.4","","57","","0.0","","22","","31","","","","99.21","","","","","","NA"
"-73.74","45.47","MONTREAL/PIERRE ELLIOTT TRUDEAU INTL","702S006","2018-10-20 06:00","2018","10","20","06:00","10.4","","5.7","","72","","0.0","","22","","27","","","","99.13","","","","","","NA"
"-73.74","45.47","MONTREAL/PIERRE ELLIOTT TRUDEAU INTL","702S006","2018-10-20 07:00","2018","10","20","07:00","9.7","","7.2","","84","","0.5","","21","","31","","","","99.16","","","","","","NA"
"-73.74","45.47","MONTREAL/PIERRE ELLIOTT TRUDEAU INTL","702S006","2018-10-20 08:00","2018","10","20","08:00","10.5","","7.5","","82","","0.0","","23","","33","","","","99.22","","","","","","NA"
"-73.74","45.47","MONTREAL/PIERRE ELLIOTT TRUDEAU INTL","702S006","2018-10-20 09:00","2018","10","20","09:00","11.3","","6.5","","72","","0.0","","24","","30","","","","99.25","","","","","","NA"
"-73.74","45.47","MONTREAL/PIERRE ELLIOTT TRUDEAU INTL","702S006","2018-10-20 10:00","2018","10","20","10:00","11.8","","4.3","","60","","0.0","","25","","33","","","","99.30","","","","","","NA"
"-73.74","45.47","MONTREAL/PIERRE ELLIOTT TRUDEAU INTL","702S006","2018-10-20 11:00","2018","10","20","11:00","12.5","","3.0","","52","","0.0","","25","","38","","","","99.33","","","","","","NA"
"-73.74","45.47","MONTREAL/PIERRE ELLIOTT TRUDEAU INTL","702S006","2018-10-20 12:00","2018","10","20","12:00","14.1","","2.8","","47","","0.0","","25","","34","","","","99.37","","","","","","NA"
"-73.74","45.47","MONTREAL/PIERRE ELLIOTT TRUDEAU INTL","702S006","2018-10-20 13:00","2018","10","20","13:00","11.4","","3.2","","57","","0.0","","28","","30","","","","99.44","","","","","","NA"
"-73.74","45.47","MONTREAL/PIERRE ELLIOTT TRUDEAU INTL","702S006","2018-10-20 14:00","2018","10","20","14:00","12.1","","3.1","","54","","0.0","","28","","27","","","","99.47","","","","","","NA"
"-73.74","45.47","MONTREAL/PIERRE ELLIOTT TRUDEAU INTL","702S006","2018-10-20 15:00","2018","10","20","15:00","11.4","","2.1","","53","","0.0","","29","","30","","","","99.52","","","","","","NA"
"-73.74","45.47","MONTREAL/PIERRE ELLIOTT TRUDEAU INTL","702S006","2018-10-20 16:00","2018","10","20","16:00","11.0","","0.5","","48","","0.0","","27","","25","","","","99.53","","","","","","NA"
"-73.74","45.47","MONTREAL/PIERRE ELLIOTT TRUDEAU INTL","702S006","2018-10-20 17:00","2018","10","20","17:00","9.7","","-2.4","","43","","0.0","","28","","26","","","","99.65","","","","","","NA"
"-73.74","45.47","MONTREAL/PIERRE ELLIOTT TRUDEAU INTL","702S006","2018-10-20 18:00","2018","10","20","18:00","8.8","","-2.8","","44","","0.0","","29","","18","","","","99.72","","","","","","NA"
"-73.74","45.47","MONTREAL/PIERRE ELLIOTT TRUDEAU INTL","702S006","2018-10-20 19:00","2018","10","20","19:00","7.4","","-2.2","","50","","0.0","","32","","21","","","","99.76","","","","","","NA"
"-73.74","45.47","MONTREAL/PIERRE ELLIOTT TRUDEAU INTL","702S006","2018-10-20 20:00","2018","10","20","20:00","7.1","","-1.2","","55","","0.0","","31","","18","","","","99.84","","","","","","NA"
"-73.74","45.47","MONTREAL/PIERRE ELLIOTT TRUDEAU INTL","702S006","2018-10-20 21:00","2018","10","20","21:00","5.8","","-0.3","","65","","0.0","","29","","9","","","","99.93","","","","","","NA"
"-73.74","45.47","MONTREAL/PIERRE ELLIOTT TRUDEAU INTL","702S006","2018-10-20 22:00","2018","10","20","22:00","5.1","","-0.7","","66","","0.0","","29","","17","","","","99.99","","","","","","NA"
"-73.74","45.47","MONTREAL/PIERRE ELLIOTT TRUDEAU INTL","702S006","2018-10-20 23:00","2018","10","20","23:00","4.0","","-1.1","","70","","0.0","","29","","13","","","","100.11","","","","","","NA"
"-73.74","45.47","MONTREAL/PIERRE ELLIOTT TRUDEAU INTL","702S006","2018-10-21 00:00","2018","10","21","00:00","2.8","","-1.8","","72","","0.0","","28","","10","","","","100.20","","","","","","NA"
"-73.74","45.47","MONTREAL/PIERRE ELLIOTT TRUDEAU INTL","702S006","2018-10-21 01:00","2018","10","21","01:00","3.7","","-1.6","","68","","0.0","","28","","14","","","","100.25","","","","","","NA"
"-73.74","45.47","MONTREAL/PIERRE ELLIOTT TRUDEAU INTL","702S006","2018-10-21 02:00","2018","10","21","02:00","3.1","","-2.8","","65","","0.0","","29","","14","","","","100.31","","","","","","NA"
"-73.74","45.47","MONTREAL/PIERRE ELLIOTT TRUDEAU INTL","702S006","2018-10-21 03:00","2018","10","21","03:00","3.2","","-3.3","","62","","0.0","","28","","13","","","","100.35","","","","","","NA"
"-73.74","45.47","MONTREAL/PIERRE ELLIOTT TRUDEAU INTL","702S006","2018-10-21 04:00","2018","10","21","04:00","3.1","","-4.0","","60","","0.0","","29","","17","","","","100.44","","","","","","NA"
"-73.74","45.47","MONTREAL/PIERRE ELLIOTT TRUDEAU INTL","702S006","2018-10-21 05:00","2018","10","21","05:00","2.9","","-4.9","","57","","0.0","","29","","27","","","","100.50","","","","","","NA"
"-73.74","45.47","MONTREAL/PIERRE ELLIOTT TRUDEAU INTL","702S006","2018-10-21 06:00","2018","10","21","06:00","2.6","","-6.0","","53","","0.0","","30","","26","","","","100.59","","","","","","NA"
"-73.74","45.47","MONTREAL/PIERRE ELLIOTT TRUDEAU INTL","702S006","2018-10-21 07:00","2018","10","21","07:00","2.4","","-5.2","","57","","0.0","","30","","22","","","","100.72","","","","","","NA"
"-73.74","45.47","MONTREAL/PIERRE ELLIOTT TRUDEAU INTL","702S006","2018-10-21 08:00","2018","10","21","08:00","2.5","","-5.4","","56","","0.0","","31","","17","","","","100.83","","","","","","NA"
"-73.74","45.47","MONTREAL/PIERRE ELLIOTT TRUDEAU INTL","702S006","2018-10-21 09:00","2018","10","21","09:00","2.5","","-4.2","","61","","0.0","","29","","22","","","","100.88","","","","","","NA"
"-73.74","45.47","MONTREAL/PIERRE ELLIOTT TRUDEAU INTL","702S006","2018-10-21 10:00","2018","10","21","10:00","2.7","","-6.9","","49","","0.0","","32","","29","","","","100.94","","","","","","NA"
"-73.74","45.47","MONTREAL/PIERRE ELLIOTT TRUDEAU INTL","702S006","2018-10-21 11:00","2018","10","21","11:00","3.2","","-6.7","","48","","0.0","","31","","27","","","","100.98","","","","","","NA"
"-73.74","45.47","MONTREAL/PIERRE ELLIOTT TRUDEAU INTL","702S006","2018-10-21 12:00","2018","10","21","12:00","4.2","","-6.9","","44","","0.0","","30","","28","","","","100.97","","","","","","NA"
"-73.74","45.47","MONTREAL/PIERRE ELLIOTT TRUDEAU INTL","702S006","2018-10-21 13:00","2018","10","21","13:00","3.9","","-5.5","","50","","0.0","","30","","26","","","","100.99","","","","","","NA"
"-73.74","45.47","MONTREAL/PIERRE ELLIOTT TRUDEAU INTL","702S006","2018-10-21 14:00","2018","10","21","14:00","4.2","","-6.3","","46","","0.0","","29","","24","","","","101.02","","","","","","NA"
"-73.74","45.47","MONTREAL/PIERRE ELLIOTT TRUDEAU INTL","702S006","2018-10-21 15:00","2018","10","21","15:00","3.8","","-7.0","","45","","0.0","","29","","26","","","","101.06","","","","","","NA"
"-73.74","45.47","MONTREAL/PIERRE ELLIOTT TRUDEAU INTL","702S006","2018-10-21 16:00","2018","10","21","16:00","3.9","","-7.2","","44","","0.0","","28","","20","","","","101.10","","","","","","NA"
"-73.74","45.47","MONTREAL/PIERRE ELLIOTT TRUDEAU INTL","702S006","2018-10-21 17:00","2018","10","21","17:00","3.7","","-6.5","","48","","0.0","","28","","21","","","","101.17","","","","","","NA"
"-73.74","45.47","MONTREAL/PIERRE ELLIOTT TRUDEAU INTL","702S006","2018-10-21 18:00","2018","10","21","18:00","3.1","","-5.8","","52","","0.0","","28","","16","","","","101.23","","","","","","NA"
"-73.74","45.47","MONTREAL/PIERRE ELLIOTT TRUDEAU INTL","702S006","2018-10-21 19:00","2018","10","21","19:00","2.9","","-6.2","","51","","0.0","","28","","15","","","","101.27","","","","","","NA"
"-73.74","45.47","MONTREAL/PIERRE ELLIOTT TRUDEAU INTL","702S006","2018-10-21 20:00","2018","10","21","20:00","1.6","","-5.6","","59","","0.0","","29","","13","","","","101.30","","","","","","NA"
"-73.74","45.47","MONTREAL/PIERRE ELLIOTT TRUDEAU INTL","702S006","2018-10-21 21:00","2018","10","21","21:00","1.4","","-5.5","","60","","0.0","","28","","13","","","","101.35","","","","","","NA"
"-73.74","45.47","MONTREAL/PIERRE ELLIOTT TRUDEAU INTL","702S006","2018-10-21 22:00","2018","10","21","22:00","0.9","","-4.4","","68","","0.0","","26","","11","","","","101.40","","","","","","NA"
"-73.74","45.47","MONTREAL/PIERRE ELLIOTT TRUDEAU INTL","702S006","2018-10-21 23:00","2018","10","21","23:00","0.9","","-4.5","","67","","0.0","","27","","11","","","","101.42","","","","","","NA"
"-73.74","45.47","MONTREAL/PIERRE ELLIOTT TRUDEAU INTL","702S006","2018-10-22 00:00","2018","10","22","00:00","1.0","","-4.8","","65","","0.0","","27","","13","","","","101.44","","","","","","NA"
"-73.74","45.47","MONTREAL/PIERRE ELLIOTT TRUDEAU INTL","702S006","2018-10-22 01:00","2018","10","22","01:00","0.8","","-5.0","","65","","0.0","","27","","13","","","","101.45","","","","","","NA"
"-73.74","45.47","MONTREAL/PIERRE ELLIOTT TRUDEAU INTL","702S006","2018-10-22 02:00","2018","10","22","02:00","0.6","","-5.7","","62","","0.0","","28","","13","","","","101.47","","","","","","NA"
"-73.74","45.47","MONTREAL/PIERRE ELLIOTT TRUDEAU INTL","702S006","2018-10-22 03:00","2018","10","22","03:00","0.1","","-5.8","","65","","0.0","","26","","9","","","","101.52","","","","","","NA"
"-73.74","45.47","MONTREAL/PIERRE ELLIOTT TRUDEAU INTL","702S006","2018-10-22 04:00","2018","10","22","04:00","-0.7","","-5.6","","69","","0.0","","26","","7","","","","101.52","","","","-3","","NA"
"-73.74","45.47","MONTREAL/PIERRE ELLIOTT TRUDEAU INTL","702S006","2018-10-22 05:00","2018","10","22","05:00","0.3","","-5.6","","64","","0.0","","25","","9","","","","101.54","","","","","","NA"
"-73.74","45.47","MONTREAL/PIERRE ELLIOTT TRUDEAU INTL","702S006","2018-10-22 06:00","2018","10","22","06:00","0.8","","-5.4","","63","","0.0","","25","","8","","","","101.57","","","","","","NA"
"-73.74","45.47","MONTREAL/PIERRE ELLIOTT TRUDEAU INTL","702S006","2018-10-22 07:00","2018","10","22","07:00","1.1","","-5.0","","64","","0.0","","27","","6","","","","101.60","","","","","","NA"
"-73.74","45.47","MONTREAL/PIERRE ELLIOTT TRUDEAU INTL","702S006","2018-10-22 08:00","2018","10","22","08:00","1.7","","-4.5","","63","","0.0","","25","","7","","","","101.62","","","","","","NA"
"-73.74","45.47","MONTREAL/PIERRE ELLIOTT TRUDEAU INTL","702S006","2018-10-22 09:00","2018","10","22","09:00","3.2","","-6.7","","48","","0.0","","26","","8","","","","101.63","","","","","","NA"
"-73.74","45.47","MONTREAL/PIERRE ELLIOTT TRUDEAU INTL","702S006","2018-10-22 10:00","2018","10","22","10:00","3.2","","-6.7","","48","","0.0","","28","","11","","","","101.64","","","","","","NA"
"-73.74","45.47","MONTREAL/PIERRE ELLIOTT TRUDEAU INTL","702S006","2018-10-22 11:00","2018","10","22","11:00","4.0","","-6.7","","46","","0.0","","26","","11","","","","101.63","","","","","","NA"
"-73.74","45.47","MONTREAL/PIERRE ELLIOTT TRUDEAU INTL","702S006","2018-10-22 12:00","2018","10","22","12:00","4.9","","-5.3","","48","","0.0","","29","","14","","","","101.59","","","","","","NA"
"-73.74","45.47","MONTREAL/PIERRE ELLIOTT TRUDEAU INTL","702S006","2018-10-22 13:00","2018","10","22","13:00","6.0","","-4.9","","45","","0.0","","24","","8","","","","101.54","","","","","","NA"
"-73.74","45.47","MONTREAL/PIERRE ELLIOTT TRUDEAU INTL","702S006","2018-10-22 14:00","2018","10","22","14:00","5.4","","-4.3","","49","","0.0","","18","","10","","","","101.53","","","","","","NA"
"-73.74","45.47","MONTREAL/PIERRE ELLIOTT TRUDEAU INTL","702S006","2018-10-22 15:00","2018","10","22","15:00","5.4","","-4.7","","48","","0.0","","21","","10","","","","101.52","","","","","","NA"
"-73.74","45.47","MONTREAL/PIERRE ELLIOTT TRUDEAU INTL","702S006","2018-10-22 16:00","2018","10","22","16:00","5.5","","-5.4","","45","","0.0","","21","","9","","","","101.51","","","","","","NA"
"-73.74","45.47","MONTREAL/PIERRE ELLIOTT TRUDEAU INTL","702S006","2018-10-22 17:00","2018","10","22","17:00","5.0","","-4.6","","50","","0.0","","18","","5","","","","101.53","","","","","","NA"
"-73.74","45.47","MONTREAL/PIERRE ELLIOTT TRUDEAU INTL","702S006","2018-10-22 18:00","2018","10","22","18:00","4.8","","-4.2","","52","","0.0","","","","0","","","","101.56","","","","","","NA"
"-73.74","45.47","MONTREAL/PIERRE ELLIOTT TRUDEAU INTL","702S006","2018-10-22 19:00","2018","10","22","19:00","5.1","","-3.3","","55","","0.0","","13","","5","","","","101.57","","","","","","NA"
"-73.74","45.47","MONTREAL/PIERRE ELLIOTT TRUDEAU INTL","702S006","2018-10-22 20:00","2018","10","22","20:00","5.0","","-3.0","","56","","0.0","","13","","9","","","","101.59","","","","","","NA"
"-73.74","45.47","MONTREAL/PIERRE ELLIOTT TRUDEAU INTL","702S006","2018-10-22 21:00","2018","10","22","21:00","4.2","","-0.8","","70","","0.0","","","","0","","","","101.63","","","","","","NA"
"-73.74","45.47","MONTREAL/PIERRE ELLIOTT TRUDEAU INTL","702S006","2018-10-22 22:00","2018","10","22","22:00","4.2","","0.2","","76","","0.0","","2","","9","","","","101.59","","","","","","NA"
"-73.74","45.47","MONTREAL/PIERRE ELLIOTT TRUDEAU INTL","702S006","2018-10-22 23:00","2018","10","22","23:00","3.8","","0.5","","79","","0.0","","2","","14","","","","101.60","","","","","","NA"
"-73.74","45.47","MONTREAL/PIERRE ELLIOTT TRUDEAU INTL","702S006","2018-10-23 00:00","2018","10","23","00:00","4.0","","0.5","","78","","0.0","","5","","8","","","","101.61","","","","","","NA"
"-73.74","45.47","MONTREAL/PIERRE ELLIOTT TRUDEAU INTL","702S006","2018-10-23 01:00","2018","10","23","01:00","3.2","","-0.4","","77","","0.0","","4","","14","","","","101.61","","","","","","NA"
"-73.74","45.47","MONTREAL/PIERRE ELLIOTT TRUDEAU INTL","702S006","2018-10-23 02:00","2018","10","23","02:00","2.7","","-0.9","","77","","0.0","","4","","10","","","","101.57","","","","","","NA"
"-73.74","45.47","MONTREAL/PIERRE ELLIOTT TRUDEAU INTL","702S006","2018-10-23 03:00","2018","10","23","03:00","2.6","","-0.4","","80","","0.0","","5","","5","","","","101.54","","","","","","NA"
"-73.74","45.47","MONTREAL/PIERRE ELLIOTT TRUDEAU INTL","702S006","2018-10-23 04:00","2018","10","23","04:00","2.7","","-0.8","","78","","0.0","","4","","9","","","","101.52","","","","","","NA"
"-73.74","45.47","MONTREAL/PIERRE ELLIOTT TRUDEAU INTL","702S006","2018-10-23 05:00","2018","10","23","05:00","2.5","","-0.6","","80","","0.0","","4","","8","","","","101.52","","","","","","NA"
"-73.74","45.47","MONTREAL/PIERRE ELLIOTT TRUDEAU INTL","702S006","2018-10-23 06:00","2018","10","23","06:00","3.0","","-0.5","","78","","0.0","","4","","11","","","","101.51","","","","","","NA"
"-73.74","45.47","MONTREAL/PIERRE ELLIOTT TRUDEAU INTL","702S006","2018-10-23 07:00","2018","10","23","07:00","3.0","","-0.1","","81","","0.0","","4","","13","","","","101.49","","","","","","NA"
"-73.74","45.47","MONTREAL/PIERRE ELLIOTT TRUDEAU INTL","702S006","2018-10-23 08:00","2018","10","23","08:00","3.2","","0.0","","79","","0.0","","4","","15","","","","101.48","","","","","","NA"
"-73.74","45.47","MONTREAL/PIERRE ELLIOTT TRUDEAU INTL","702S006","2018-10-23 09:00","2018","10","23","09:00","3.5","","0.7","","82","","0.0","","2","","16","","","","101.47","","","","","","NA"
"-73.74","45.47","MONTREAL/PIERRE ELLIOTT TRUDEAU INTL","702S006","2018-10-23 10:00","2018","10","23","10:00","5.0","","1.0","","75","","0.0","","4","","16","","","","101.44","","","","","","NA"
"-73.74","45.47","MONTREAL/PIERRE ELLIOTT TRUDEAU INTL","702S006","2018-10-23 11:00","2018","10","23","11:00","6.6","","1.3","","69","","0.0","","4","","21","","","","101.32","","","","","","NA"
"-73.74","45.47","MONTREAL/PIERRE ELLIOTT TRUDEAU INTL","702S006","2018-10-23 12:00","2018","10","23","12:00","8.9","","1.8","","61","","0.0","","4","","21","","","","101.21","","","","","","NA"
"-73.74","45.47","MONTREAL/PIERRE ELLIOTT TRUDEAU INTL","702S006","2018-10-23 13:00","2018","10","23","13:00","8.9","","1.4","","59","","0.0","","4","","18","","","","101.15","","","","","","NA"
"-73.74","45.47","MONTREAL/PIERRE ELLIOTT TRUDEAU INTL","702S006","2018-10-23 14:00","2018","10","23","14:00","8.2","","0.5","","58","","0.0","","3","","22","","","","101.13","","","","","","NA"
"-73.74","45.47","MONTREAL/PIERRE ELLIOTT TRUDEAU INTL","702S006","2018-10-23 15:00","2018","10","23","15:00"
"-73.74","45.47","MONTREAL/PIERRE ELLIOTT TRUDEAU INTL","702S006","2018-10-23 16:00","2018","10","23","16:00"
"-73.74","45.47","MONTREAL/PIERRE ELLIOTT TRUDEAU INTL","702S006","2018-10-23 17:00","2018","10","23","17:00","6.7","","-0.6","","60","","0.0","","2","","18","","","","101.17","","","","","","NA"
"-73.74","45.47","MONTREAL/PIERRE ELLIOTT TRUDEAU INTL","702S006","2018-10-23 18:00","2018","10","23","18:00","6.4","","-0.8","","60","","0.0","","3","","20","","","","101.21","","","","","","NA"
"-73.74","45.47","MONTREAL/PIERRE ELLIOTT TRUDEAU INTL","702S006","2018-10-23 19:00","2018","10","23","19:00","5.4","","-1.3","","62","","0.0","","2","","17","","","","101.19","","","","","","NA"
"-73.74","45.47","MONTREAL/PIERRE ELLIOTT TRUDEAU INTL","702S006","2018-10-23 20:00","2018","10","23","20:00","5.1","","-1.9","","60","","0.0","","3","","17","","","","101.21","","","","","","NA"
"-73.74","45.47","MONTREAL/PIERRE ELLIOTT TRUDEAU INTL","702S006","2018-10-23 21:00","2018","10","23","21:00","4.7","","-2.3","","60","","0.0","","3","","18","","","","101.22","","","","","","NA"
"-73.74","45.47","MONTREAL/PIERRE ELLIOTT TRUDEAU INTL","702S006","2018-10-23 22:00","2018","10","23","22:00","4.9","","-2.1","","60","","0.0","","2","","17","","","","101.25","","","","","","NA"
"-73.74","45.47","MONTREAL/PIERRE ELLIOTT TRUDEAU INTL","702S006","2018-10-23 23:00","2018","10","23","23:00","4.6","","-1.6","","64","","0.0","","2","","17","","","","101.25","","","","","","NA"
"-73.74","45.47","MONTREAL/PIERRE ELLIOTT TRUDEAU INTL","702S006","2018-10-24 00:00","2018","10","24","00:00","3.4","","-0.2","","77","","0.0","","1","","20","","","","101.26","","","","","","NA"
"-73.74","45.47","MONTREAL/PIERRE ELLIOTT TRUDEAU INTL","702S006","2018-10-24 01:00","2018","10","24","01:00","2.6","","0.6","","87","","0.3","","2","","21","","","","101.28","","","","","","NA"
"-73.74","45.47","MONTREAL/PIERRE ELLIOTT TRUDEAU INTL","702S006","2018-10-24 02:00","2018","10","24","02:00","2.9","","0.7","","86","","0.0","","1","","19","","","","101.31","","","","","","NA"
"-73.74","45.47","MONTREAL/PIERRE ELLIOTT TRUDEAU INTL","702S006","2018-10-24 03:00","2018","10","24","03:00","2.4","","0.7","","88","","0.0","","1","","21","","","","101.33","","","","","","NA"
"-73.74","45.47","MONTREAL/PIERRE ELLIOTT TRUDEAU INTL","702S006","2018-10-24 04:00","2018","10","24","04:00","2.2","","0.6","","90","","0.0","","1","","21","","","","101.36","","","","","","NA"
"-73.74","45.47","MONTREAL/PIERRE ELLIOTT TRUDEAU INTL","702S006","2018-10-24 05:00","2018","10","24","05:00","2.2","","0.3","","88","","0.0","","1","","24","","","","101.39","","","","","","NA"
"-73.74","45.47","MONTREAL/PIERRE ELLIOTT TRUDEAU INTL","702S006","2018-10-24 06:00","2018","10","24","06:00","1.8","","0.6","","92","","0.0","","36","","19","","","","101.46","","","","","","NA"
"-73.74","45.47","MONTREAL/PIERRE ELLIOTT TRUDEAU INTL","702S006","2018-10-24 07:00","2018","10","24","07:00","2.1","","0.8","","91","","0.2","","36","","16","","","","101.54","","","","","","NA"
"-73.74","45.47","MONTREAL/PIERRE ELLIOTT TRUDEAU INTL","702S006","2018-10-24 08:00","2018","10","24","08:00","2.3","","1.2","","92","","0.3","","36","","15","","","","101.58","","","","","","NA"
"-73.74","45.47","MONTREAL/PIERRE ELLIOTT TRUDEAU INTL","702S006","2018-10-24 09:00","2018","10","24","09:00","2.9","","1.3","","89","","0.2","","1","","14","","","","101.66","","","","","","NA"
"-73.74","45.47","MONTREAL/PIERRE ELLIOTT TRUDEAU INTL","702S006","2018-10-24 10:00","2018","10","24","10:00","3.7","","1.5","","85","","0.0","","2","","15","","","","101.68","","","","","","NA"
"-73.74","45.47","MONTREAL/PIERRE ELLIOTT TRUDEAU INTL","702S006","2018-10-24 11:00","2018","10","24","11:00","4.4","","1.0","","79","","0.0","","2","","11","","","","101.68","","","","","","NA"
"-73.74","45.47","MONTREAL/PIERRE ELLIOTT TRUDEAU INTL","702S006","2018-10-24 12:00","2018","10","24","12:00","5.4","","1.0","","73","","0.0","","35","","4","","","","101.65","","","","","","NA"
"-73.74","45.47","MONTREAL/PIERRE ELLIOTT TRUDEAU INTL","702S006","2018-10-24 13:00","2018","10","24","13:00","7.4","","1.4","","66","","0.0","","20","","3","","","","101.64","","","","","","NA"
"-73.74","45.47","MONTREAL/PIERRE ELLIOTT TRUDEAU INTL","702S006","2018-10-24 14:00","2018","10","24","14:00","7.1","","1.0","","65","","0.0","","23","","12","","","","101.58","","","","","","NA"
"-73.74","45.47","MONTREAL/PIERRE ELLIOTT TRUDEAU INTL","702S006","2018-10-24 15:00","2018","10","24","15:00","7.2","","1.1","","65","","0.0","","21","","11","","","","101.55","","","","","","NA"
"-73.74","45.47","MONTREAL/PIERRE ELLIOTT TRUDEAU INTL","702S006","2018-10-24 16:00","2018","10","24","16:00","6.7","","0.9","","67","","0.0","","23","","8","","","","101.52","","","","","","NA"
"-73.74","45.47","MONTREAL/PIERRE ELLIOTT TRUDEAU INTL","702S006","2018-10-24 17:00","2018","10","24","17:00","6.1","","1.6","","72","","0.0","","18","","7","","","","101.49","","","","","","NA"
"-73.74","45.47","MONTREAL/PIERRE ELLIOTT TRUDEAU INTL","702S006","2018-10-24 18:00","2018","10","24","18:00","6.6","","2.4","","74","","0.0","","24","","7","","","","101.48","","","","","","NA"
"-73.74","45.47","MONTREAL/PIERRE ELLIOTT TRUDEAU INTL","702S006","2018-10-24 19:00","2018","10","24","19:00","6.3","","0.5","","66","","0.0","","30","","19","","","","101.52","","","","","","NA"
"-73.74","45.47","MONTREAL/PIERRE ELLIOTT TRUDEAU INTL","702S006","2018-10-24 20:00","2018","10","24","20:00","6.0","","0.2","","66","","0.0","","31","","22","","","","101.55","","","","","","NA"
"-73.74","45.47","MONTREAL/PIERRE ELLIOTT TRUDEAU INTL","702S006","2018-10-24 21:00","2018","10","24","21:00","5.5","","0.3","","69","","0.0","","33","","15","","","","101.58","","","","","","NA"
"-73.74","45.47","MONTREAL/PIERRE ELLIOTT TRUDEAU INTL","702S006","2018-10-24 22:00","2018","10","24","22:00","5.1","","-1.1","","64","","0.0","","33","","20","","","","101.61","","","","","","NA"
"-73.74","45.47","MONTREAL/PIERRE ELLIOTT TRUDEAU INTL","702S006","2018-10-24 23:00","2018","10","24","23:00","4.4","","-0.3","","72","","0.0","","32","","18","","","","101.61","","","","","","NA"
"-73.74","45.47","MONTREAL/PIERRE ELLIOTT TRUDEAU INTL","702S006","2018-10-25 00:00","2018","10","25","00:00","3.6","","0.2","","78","","0.0","","34","","12","","","","101.61","","","","","","NA"
"-73.74","45.47","MONTREAL/PIERRE ELLIOTT TRUDEAU INTL","702S006","2018-10-25 01:00","2018","10","25","01:00","3.4","","-1.0","","73","","0.0","","30","","13","","","","101.59","","","","","","NA"
"-73.74","45.47","MONTREAL/PIERRE ELLIOTT TRUDEAU INTL","702S006","2018-10-25 02:00","2018","10","25","02:00","2.8","","-1.8","","72","","0.0","","29","","14","","","","101.56","","","","","","NA"
"-73.74","45.47","MONTREAL/PIERRE ELLIOTT TRUDEAU INTL","702S006","2018-10-25 03:00","2018","10","25","03:00","2.6","","-1.9","","72","","0.0","","29","","20","","","","101.54","","","","","","NA"
"-73.74","45.47","MONTREAL/PIERRE ELLIOTT TRUDEAU INTL","702S006","2018-10-25 04:00","2018","10","25","04:00","2.2","","-2.7","","70","","0.0","","29","","14","","","","101.53","","","","","","NA"
"-73.74","45.47","MONTREAL/PIERRE ELLIOTT TRUDEAU INTL","702S006","2018-10-25 05:00","2018","10","25","05:00","1.7","","-3.6","","68","","0.0","","29","","18","","","","101.53","","","","","","NA"
"-73.74","45.47","MONTREAL/PIERRE ELLIOTT TRUDEAU INTL","702S006","2018-10-25 06:00","2018","10","25","06:00","1.5","","-4.5","","65","","0.0","","30","","18","","","","101.53","","","","","","NA"
"-73.74","45.47","MONTREAL/PIERRE ELLIOTT TRUDEAU INTL","702S006","2018-10-25 07:00","2018","10","25","07:00","1.5","","-4.3","","65","","0.0","","29","","19","","","","101.59","","","","","","NA"
"-73.74","45.47","MONTREAL/PIERRE ELLIOTT TRUDEAU INTL","702S006","2018-10-25 08:00","2018","10","25","08:00","1.4","","-4.5","","64","","0.0","","29","","18","","","","101.58","","","","","","NA"
"-73.74","45.47","MONTREAL/PIERRE ELLIOTT TRUDEAU INTL","702S006","2018-10-25 09:00","2018","10","25","09:00","1.4","","-5.6","","60","","0.0","","30","","20","","","","101.57","","","","","","NA"
"-73.74","45.47","MONTREAL/PIERRE ELLIOTT TRUDEAU INTL","702S006","2018-10-25 10:00","2018","10","25","10:00","1.1","","-6.3","","58","","0.0","","30","","21","","","","101.57","","","","","","NA"
"-73.74","45.47","MONTREAL/PIERRE ELLIOTT TRUDEAU INTL","702S006","2018-10-25 11:00","2018","10","25","11:00","1.3","","-6.6","","55","","0.0","","29","","20","","","","101.54","","","","","","NA"
"-73.74","45.47","MONTREAL/PIERRE ELLIOTT TRUDEAU INTL","702S006","2018-10-25 12:00","2018","10","25","12:00","1.1","","-7.1","","54","","0.0","","28","","22","","","","101.51","","","","","","NA"
"-73.74","45.47","MONTREAL/PIERRE ELLIOTT TRUDEAU INTL","702S006","2018-10-25 13:00","2018","10","25","13:00","1.7","","-7.0","","52","","0.0","","28","","20","","","","101.43","","","","","","NA"
"-73.74","45.47","MONTREAL/PIERRE ELLIOTT TRUDEAU INTL","702S006","2018-10-25 14:00","2018","10","25","14:00","2.0","","-7.4","","50","","0.0","","30","","21","","","","101.39","","","","","","NA"
"-73.74","45.47","MONTREAL/PIERRE ELLIOTT TRUDEAU INTL","702S006","2018-10-25 15:00","2018","10","25","15:00","1.4","","-8.0","","49","","0.0","","31","","24","","","","101.40","","","","","","NA"
"-73.74","45.47","MONTREAL/PIERRE ELLIOTT TRUDEAU INTL","702S006","2018-10-25 16:00","2018","10","25","16:00","1.5","","-7.9","","49","","0.0","","30","","20","","","","101.39","","","","","","NA"
"-73.74","45.47","MONTREAL/PIERRE ELLIOTT TRUDEAU INTL","702S006","2018-10-25 17:00","2018","10","25","17:00","0.8","","-7.4","","54","","0.0","","29","","18","","","","101.44","","","","","","NA"
"-73.74","45.47","MONTREAL/PIERRE ELLIOTT TRUDEAU INTL","702S006","2018-10-25 18:00","2018","10","25","18:00","0.9","","-7.7","","53","","0.0","","30","","16","","","","101.51","","","","","","NA"
"-73.74","45.47","MONTREAL/PIERRE ELLIOTT TRUDEAU INTL","702S006","2018-10-25 19:00","2018","10","25","19:00","1.1","","-8.1","","50","","0.0","","31","","22","","","","101.51","","","","","","NA"
"-73.74","45.47","MONTREAL/PIERRE ELLIOTT TRUDEAU INTL","702S006","2018-10-25 20:00","2018","10","25","20:00","1.0","","-8.2","","50","","0.0","","31","","15","","","","101.52","","","","","","NA"
"-73.74","45.47","MONTREAL/PIERRE ELLIOTT TRUDEAU INTL","702S006","2018-10-25 21:00","2018","10","25","21:00","1.0","","-7.4","","54","","0.0","","30","","12","","","","101.51","","","","","","NA"
"-73.74","45.47","MONTREAL/PIERRE ELLIOTT TRUDEAU INTL","702S006","2018-10-25 22:00","2018","10","25","22:00","0.7","","-7.7","","53","","0.0","","30","","11","","","","101.50","","","","","","NA"
"-73.74","45.47","MONTREAL/PIERRE ELLIOTT TRUDEAU INTL","702S006","2018-10-25 23:00","2018","10","25","23:00","0.8","","-8.0","","52","","0.0","","29","","14","","","","101.48","","","","","","NA"
"-73.74","45.47","MONTREAL/PIERRE ELLIOTT TRUDEAU INTL","702S006","2018-10-26 00:00","2018","10","26","00:00","0.1","","-7.8","","55","","0.0","","27","","11","","","","101.45","","","","","","NA"
"-73.74","45.47","MONTREAL/PIERRE ELLIOTT TRUDEAU INTL","702S006","2018-10-26 01:00","2018","10","26","01:00","-0.7","","-7.7","","59","","0.0","","29","","13","","","","101.43","","","","-5","","NA"
"-73.74","45.47","MONTREAL/PIERRE ELLIOTT TRUDEAU INTL","702S006","2018-10-26 02:00","2018","10","26","02:00","-1.0","","-7.5","","61","","0.0","","29","","11","","","","101.44","","","","-5","","NA"
"-73.74","45.47","MONTREAL/PIERRE ELLIOTT TRUDEAU INTL","702S006","2018-10-26 03:00","2018","10","26","03:00","-0.5","","-6.9","","62","","0.0","","30","","13","","","","101.47","","","","-5","","NA"
"-73.74","45.47","MONTREAL/PIERRE ELLIOTT TRUDEAU INTL","702S006","2018-10-26 04:00","2018","10","26","04:00"
"-73.74","45.47","MONTREAL/PIERRE ELLIOTT TRUDEAU INTL","702S006","2018-10-26 05:00","2018","10","26","05:00","-3.4","","-8.1","","70","","0.0","","30","","10","","","","101.57","","","","-7","","NA"
"-73.74","45.47","MONTREAL/PIERRE ELLIOTT TRUDEAU INTL","702S006","2018-10-26 06:00","2018","10","26","06:00","-4.1","","-8.9","","69","","0.0","","28","","8","","","","101.60","","","","-8","","NA"
"-73.74","45.47","MONTREAL/PIERRE ELLIOTT TRUDEAU INTL","702S006","2018-10-26 07:00","2018","10","26","07:00","-2.0","","-8.2","","63","","0.0","","27","","8","","","","101.63","","","","-5","","NA"
"-73.74","45.47","MONTREAL/PIERRE ELLIOTT TRUDEAU INTL","702S006","2018-10-26 08:00","2018","10","26","08:00","-0.1","","-7.9","","56","","0.0","","28","","12","","","","101.64","","","","-4","","NA"
"-73.74","45.47","MONTREAL/PIERRE ELLIOTT TRUDEAU INTL","702S006","2018-10-26 09:00","2018","10","26","09:00"
"-73.74","45.47","MONTREAL/PIERRE ELLIOTT TRUDEAU INTL","702S006","2018-10-26 10:00","2018","10","26","10:00","2.6","","-6.5","","51","","0.0","","28","","18","","","","101.64","","","","","","NA"
"-73.74","45.47","MONTREAL/PIERRE ELLIOTT TRUDEAU INTL","702S006","2018-10-26 11:00","2018","10","26","11:00","3.5","","-9.4","","38","","0.0","","26","","14","","","","101.63","","","","","","NA"
"-73.74","45.47","MONTREAL/PIERRE ELLIOTT TRUDEAU INTL","702S006","2018-10-26 12:00","2018","10","26","12:00","4.1","","-8.8","","39","","0.0","","27","","19","","","","101.59","","","","","","NA"
"-73.74","45.47","MONTREAL/PIERRE ELLIOTT TRUDEAU INTL","702S006","2018-10-26 13:00","2018","10","26","13:00","4.4","","-8.8","","38","","0.0","","26","","18","","","","101.56","","","","","","NA"
"-73.74","45.47","MONTREAL/PIERRE ELLIOTT TRUDEAU INTL","702S006","2018-10-26 14:00","2018","10","26","14:00","4.7","","-8.4","","38","","0.0","","28","","19","","","","101.55","","","","","","NA"
"-73.74","45.47","MONTREAL/PIERRE ELLIOTT TRUDEAU INTL","702S006","2018-10-26 15:00","2018","10","26","15:00","4.9","","-8.0","","39","","0.0","","26","","15","","","","101.53","","","","","","NA"
"-73.74","45.47","MONTREAL/PIERRE ELLIOTT TRUDEAU INTL","702S006","2018-10-26 16:00","2018","10","26","16:00","4.7","","-6.8","","43","","0.0","","27","","11","","","","101.53","","","","","","NA"
"-73.74","45.47","MONTREAL/PIERRE ELLIOTT TRUDEAU INTL","702S006","2018-10-26 17:00","2018","10","26","17:00","3.5","","-6.7","","47","","0.0","","25","","8","","","","101.55","","","","","","NA"
"-73.74","45.47","MONTREAL/PIERRE ELLIOTT TRUDEAU INTL","702S006","2018-10-26 18:00","2018","10","26","18:00","3.1","","-7.0","","47","","0.0","","25","","8","","","","101.59","","","","","","NA"
"-73.74","45.47","MONTREAL/PIERRE ELLIOTT TRUDEAU INTL","702S006","2018-10-26 19:00","2018","10","26","19:00","2.0","","-6.6","","53","","0.0","","26","","6","","","","101.62","","","","","","NA"
"-73.74","45.47","MONTREAL/PIERRE ELLIOTT TRUDEAU INTL","702S006","2018-10-26 20:00","2018","10","26","20:00","1.4","","-6.6","","55","","0.0","","35","","4","","","","101.65","","","","","","NA"
"-73.74","45.47","MONTREAL/PIERRE ELLIOTT TRUDEAU INTL","702S006","2018-10-26 21:00","2018","10","26","21:00","1.9","","-5.3","","59","","0.0","","2","","5","","","","101.69","","","","","","NA"
"-73.74","45.47","MONTREAL/PIERRE ELLIOTT TRUDEAU INTL","702S006","2018-10-26 22:00","2018","10","26","22:00","2.0","","-5.3","","58","","0.0","","6","","4","","","","101.71","","","","","","NA"
"-73.74","45.47","MONTREAL/PIERRE ELLIOTT TRUDEAU INTL","702S006","2018-10-26 23:00","2018","10","26","23:00","2.2","","-6.9","","51","","0.0","","4","","9","","","","101.72","","","","","","NA"
"-73.74","45.47","MONTREAL/PIERRE ELLIOTT TRUDEAU INTL","702S006","2018-10-27 00:00","2018","10","27","00:00","0.6","","-6.2","","60","","0.0","","3","","9","","","","101.70","","","","","","NA"
"-73.74","45.47","MONTREAL/PIERRE ELLIOTT TRUDEAU INTL","702S006","2018-10-27 01:00","2018","10","27","01:00","0.8","","-5.9","","61","","0.0","","4","","12","","","","101.75","","","","","","NA"
"-73.74","45.47","MONTREAL/PIERRE ELLIOTT TRUDEAU INTL","702S006","2018-10-27 02:00","2018","10","27","02:00","0.6","","-5.7","","63","","0.0","","4","","9","","","","101.76","","","","","","NA"
"-73.74","45.47","MONTREAL/PIERRE ELLIOTT TRUDEAU INTL","702S006","2018-10-27 03:00","2018","10","27","03:00","-0.9","","-5.7","","70","","0.0","","3","","12","","","","101.73","","","","-5","","NA"
"-73.74","45.47","MONTREAL/PIERRE ELLIOTT TRUDEAU INTL","702S006","2018-10-27 04:00","2018","10","27","04:00","-0.5","","-5.6","","69","","0.0","","3","","16","","","","101.74","","","","-5","","NA"
"-73.74","45.47","MONTREAL/PIERRE ELLIOTT TRUDEAU INTL","702S006","2018-10-27 05:00","2018","10","27","05:00","-0.3","","-6.4","","64","","0.0","","3","","16","","","","101.70","","","","-5","","NA"
"-73.74","45.47","MONTREAL/PIERRE ELLIOTT TRUDEAU INTL","702S006","2018-10-27 06:00","2018","10","27","06:00","-0.3","","-6.5","","63","","0.0","","4","","18","","","","101.77","","","","-5","","NA"
"-73.74","45.47","MONTREAL/PIERRE ELLIOTT TRUDEAU INTL","702S006","2018-10-27 07:00","2018","10","27","07:00","-0.5","","-6.4","","64","","0.0","","4","","19","","","","101.75","","","","-6","","NA"
"-73.74","45.47","MONTREAL/PIERRE ELLIOTT TRUDEAU INTL","702S006","2018-10-27 08:00","2018","10","27","08:00","0.0","","-6.5","","61","","0.0","","4","","24","","","","101.69","","","","-6","","NA"
"-73.74","45.47","MONTREAL/PIERRE ELLIOTT TRUDEAU INTL","702S006","2018-10-27 09:00","2018","10","27","09:00","0.6","","-6.4","","59","","0.0","","4","","25","","","","101.68","","","","","","NA"
"-73.74","45.47","MONTREAL/PIERRE ELLIOTT TRUDEAU INTL","702S006","2018-10-27 10:00","2018","10","27","10:00","1.2","","-6.2","","58","","0.0","","4","","29","","","","101.67","","","","","","NA"
"-73.74","45.47","MONTREAL/PIERRE ELLIOTT TRUDEAU INTL","702S006","2018-10-27 11:00","2018","10","27","11:00","2.5","","-5.6","","55","","0.0","","4","","24","","","","101.62","","","","","","NA"
"-73.74","45.47","MONTREAL/PIERRE ELLIOTT TRUDEAU INTL","702S006","2018-10-27 12:00","2018","10","27","12:00","3.6","","-5.0","","53","","0.0","","4","","23","","","","101.54","","","","","","NA"
"-73.74","45.47","MONTREAL/PIERRE ELLIOTT TRUDEAU INTL","702S006","2018-10-27 13:00","2018","10","27","13:00","4.3","","-4.7","","52","","0.0","","5","","27","","","","101.42","","","","","","NA"
"-73.74","45.47","MONTREAL/PIERRE ELLIOTT TRUDEAU INTL","702S006","2018-10-27 14:00","2018","10","27","14:00","5.3","","-4.9","","47","","0.0","","4","","26","","","","101.35","","","","","","NA"
"-73.74","45.47","MONTREAL/PIERRE ELLIOTT TRUDEAU INTL","702S006","2018-10-27 15:00","2018","10","27","15:00","5.2","","-4.5","","50","","0.0","","4","","23","","","","101.28","","","","","","NA"
"-73.74","45.47","MONTREAL/PIERRE ELLIOTT TRUDEAU INTL","702S006","2018-10-27 16:00","2018","10","27","16:00","4.7","","-4.5","","51","","0.0","","4","","29","","","","101.26","","","","","","NA"
"-73.74","45.47","MONTREAL/PIERRE ELLIOTT TRUDEAU INTL","702S006","2018-10-27 17:00","2018","10","27","17:00","2.1","","-0.6","","82","","0.4","","5","","27","","","","101.26","","","","","","NA"
"-73.74","45.47","MONTREAL/PIERRE ELLIOTT TRUDEAU INTL","702S006","2018-10-27 18:00","2018","10","27","18:00","1.0","","0.1","","93","","1.6","","4","","25","","","","101.17","","","","","","NA"
"-73.74","45.47","MONTREAL/PIERRE ELLIOTT TRUDEAU INTL","702S006","2018-10-27 19:00","2018","10","27","19:00","0.9","","-0.2","","92","","1.5","","4","","28","","","","101.10","","","","","","NA"
"-73.74","45.47","MONTREAL/PIERRE ELLIOTT TRUDEAU INTL","702S006","2018-10-27 20:00","2018","10","27","20:00","1.0","","-0.5","","90","","0.2","","4","","30","","","","101.03","","","","","","NA"
"-73.74","45.47","MONTREAL/PIERRE ELLIOTT TRUDEAU INTL","702S006","2018-10-27 21:00","2018","10","27","21:00","1.0","","-0.5","","90","","0.6","","4","","29","","","","100.92","","","","","","NA"
"-73.74","45.47","MONTREAL/PIERRE ELLIOTT TRUDEAU INTL","702S006","2018-10-27 22:00","2018","10","27","22:00","1.1","","-0.4","","90","","0.9","","4","","33","","","","100.83","","","","","","NA"
"-73.74","45.47","MONTREAL/PIERRE ELLIOTT TRUDEAU INTL","702S006","2018-10-27 23:00","2018","10","27","23:00","0.7","","-0.4","","92","","2.9","","4","","32","","","","100.71","","","","","","NA"
"-73.74","45.47","MONTREAL/PIERRE ELLIOTT TRUDEAU INTL","702S006","2018-10-28 00:00","2018","10","28","00:00","0.9","","-0.4","","91","","0.3","","4","","29","","","","100.59","","","","","","NA"
"-73.74","45.47","MONTREAL/PIERRE ELLIOTT TRUDEAU INTL","702S006","2018-10-28 01:00","2018","10","28","01:00","1.1","","-0.4","","90","","0.6","","4","","36","","","","100.49","","","","","","NA"
"-73.74","45.47","MONTREAL/PIERRE ELLIOTT TRUDEAU INTL","702S006","2018-10-28 02:00","2018","10","28","02:00","1.1","","-0.2","","91","","0.0","","4","","31","","","","100.40","","","","","","NA"
"-73.74","45.47","MONTREAL/PIERRE ELLIOTT TRUDEAU INTL","702S006","2018-10-28 03:00","2018","10","28","03:00","1.3","","-0.1","","91","","0.0","","4","","33","","","","100.35","","","","","","NA"
"-73.74","45.47","MONTREAL/PIERRE ELLIOTT TRUDEAU INTL","702S006","2018-10-28 04:00","2018","10","28","04:00","1.4","","0.2","","92","","0.2","","4","","27","","","","100.29","","","","","","NA"
"-73.74","45.47","MONTREAL/PIERRE ELLIOTT TRUDEAU INTL","702S006","2018-10-28 05:00","2018","10","28","05:00","1.4","","0.2","","91","","0.6","","4","","28","","","","100.27","","","","","","NA"
"-73.74","45.47","MONTREAL/PIERRE ELLIOTT TRUDEAU INTL","702S006","2018-10-28 06:00","2018","10","28","06:00","1.2","","0.1","","92","","0.5","","4","","25","","","","100.22","","","","","","NA"
"-73.74","45.47","MONTREAL/PIERRE ELLIOTT TRUDEAU INTL","702S006","2018-10-28 07:00","2018","10","28","07:00","1.3","","0.4","","94","","0.0","","4","","21","","","","100.21","","","","","","NA"
"-73.74","45.47","MONTREAL/PIERRE ELLIOTT TRUDEAU INTL","702S006","2018-10-28 08:00","2018","10","28","08:00","1.4","","0.5","","94","","0.6","","4","","19","","","","100.20","","","","","","NA"
"-73.74","45.47","MONTREAL/PIERRE ELLIOTT TRUDEAU INTL","702S006","2018-10-28 09:00","2018","10","28","09:00","1.7","","1.0","","95","","0.6","","4","","14","","","","100.20","","","","","","NA"
"-73.74","45.47","MONTREAL/PIERRE ELLIOTT TRUDEAU INTL","702S006","2018-10-28 10:00","2018","10","28","10:00","2.1","","1.4","","95","","0.5","","4","","11","","","","100.17","","","","","","NA"
"-73.74","45.47","MONTREAL/PIERRE ELLIOTT TRUDEAU INTL","702S006","2018-10-28 11:00","2018","10","28","11:00","2.2","","1.4","","94","","0.4","","4","","8","","","","100.14","","","","","","NA"
"-73.74","45.47","MONTREAL/PIERRE ELLIOTT TRUDEAU INTL","702S006","2018-10-28 12:00","2018","10","28","12:00","2.4","","1.4","","93","","1.3","","4","","8","","","","100.08","","","","","","NA"
"-73.74","45.47","MONTREAL/PIERRE ELLIOTT TRUDEAU INTL","702S006","2018-10-28 13:00","2018","10","28","13:00","3.3","","2.0","","91","","0.0","","","","0","","","","100.06","","","","","","NA"
"-73.74","45.47","MONTREAL/PIERRE ELLIOTT TRUDEAU INTL","702S006","2018-10-28 14:00","2018","10","28","14:00","3.8","","2.7","","92","","0.2","","","","0","","","","100.06","","","","","","NA"
"-73.74","45.47","MONTREAL/PIERRE ELLIOTT TRUDEAU INTL","702S006","2018-10-28 15:00","2018","10","28","15:00","4.4","","2.5","","87","","0.0","","24","","6","","","","100.08","","","","","","NA"
"-73.74","45.47","MONTREAL/PIERRE ELLIOTT TRUDEAU INTL","702S006","2018-10-28 16:00","2018","10","28","16:00","4.2","","2.8","","91","","0.0","","23","","6","","","","100.11","","","","","","NA"
"-73.74","45.47","MONTREAL/PIERRE ELLIOTT TRUDEAU INTL","702S006","2018-10-28 17:00","2018","10","28","17:00","3.9","","2.2","","89","","0.0","","25","","9","","","","100.12","","","","","","NA"
"-73.74","45.47","MONTREAL/PIERRE ELLIOTT TRUDEAU INTL","702S006","2018-10-28 18:00","2018","10","28","18:00","3.7","","2.3","","90","","0.0","","25","","8","","","","100.18","","","","","","NA"
"-73.74","45.47","MONTREAL/PIERRE ELLIOTT TRUDEAU INTL","702S006","2018-10-28 19:00","2018","10","28","19:00","3.9","","2.1","","88","","0.0","","24","","7","","","","100.19","","","","","","NA"
"-73.74","45.47","MONTREAL/PIERRE ELLIOTT TRUDEAU INTL","702S006","2018-10-28 20:00","2018","10","28","20:00","3.4","","2.0","","90","","0.0","","27","","7","","","","100.18","","","","","","NA"
"-73.74","45.47","MONTREAL/PIERRE ELLIOTT TRUDEAU INTL","702S006","2018-10-28 21:00","2018","10","28","21:00","3.3","","2.2","","92","","0.0","","27","","5","","","","100.17","","","","","","NA"
"-73.74","45.47","MONTREAL/PIERRE ELLIOTT TRUDEAU INTL","702S006","2018-10-28 22:00","2018","10","28","22:00","3.1","","2.3","","94","","0.0","","29","","4","","","","100.17","","","","","","NA"
"-73.74","45.47","MONTREAL/PIERRE ELLIOTT TRUDEAU INTL","702S006","2018-10-28 23:00","2018","10","28","23:00","3.2","","2.0","","92","","0.0","","","","0","","","","100.14","","","","","","NA"
"-73.74","45.47","MONTREAL/PIERRE ELLIOTT TRUDEAU INTL","702S006","2018-10-29 00:00","2018","10","29","00:00","3.2","","2.3","","94","","0.0","","1","","3","","","","100.11","","","","","","NA"
"-73.74","45.47","MONTREAL/PIERRE ELLIOTT TRUDEAU INTL","702S006","2018-10-29 01:00","2018","10","29","01:00","3.1","","2.6","","96","","0.0","","2","","5","","","","100.12","","","","","","NA"
"-73.74","45.47","MONTREAL/PIERRE ELLIOTT TRUDEAU INTL","702S006","2018-10-29 02:00","2018","10","29","02:00","3.1","","2.8","","98","","0.2","","35","","6","","","","100.13","","","","","","NA"
"-73.74","45.47","MONTREAL/PIERRE ELLIOTT TRUDEAU INTL","702S006","2018-10-29 03:00","2018","10","29","03:00","3.1","","2.7","","98","","0.0","","2","","9","","","","100.07","","","","","","NA"
"-73.74","45.47","MONTREAL/PIERRE ELLIOTT TRUDEAU INTL","702S006","2018-10-29 04:00","2018","10","29","04:00","3.5","","3.0","","96","","0.0","","3","","6","","","","100.08","","","","","","NA"
"-73.74","45.47","MONTREAL/PIERRE ELLIOTT TRUDEAU INTL","702S006","2018-10-29 05:00","2018","10","29","05:00","3.7","","3.1","","96","","0.0","","3","","6","","","","100.09","","","","","","NA"
"-73.74","45.47","MONTREAL/PIERRE ELLIOTT TRUDEAU INTL","702S006","2018-10-29 06:00","2018","10","29","06:00","3.7","","3.2","","97","","0.0","","1","","6","","","","100.09","","","","","","NA"
"-73.74","45.47","MONTREAL/PIERRE ELLIOTT TRUDEAU INTL","702S006","2018-10-29 07:00","2018","10","29","07:00","4.1","","3.6","","97","","0.2","","36","","7","","","","100.11","","","","","","NA"
"-73.74","45.47","MONTREAL/PIERRE ELLIOTT TRUDEAU INTL","702S006","2018-10-29 08:00","2018","10","29","08:00","4.4","","3.7","","95","","0.0","","2","","6","","","","100.13","","","","","","NA"
"-73.74","45.47","MONTREAL/PIERRE ELLIOTT TRUDEAU INTL","702S006","2018-10-29 09:00","2018","10","29","09:00","4.5","","4.0","","96","","0.5","","35","","4","","","","100.14","","","","","","NA"
"-73.74","45.47","MONTREAL/PIERRE ELLIOTT TRUDEAU INTL","702S006","2018-10-29 10:00","2018","10","29","10:00","4.7","","4.1","","96","","0.2","","34","","7","","","","100.13","","","","","","NA"
"-73.74","45.47","MONTREAL/PIERRE ELLIOTT TRUDEAU INTL","702S006","2018-10-29 11:00","2018","10","29","11:00","5.4","","4.7","","95","","0.0","","","","0","","","","100.12","","","","","","NA"
"-73.74","45.47","MONTREAL/PIERRE ELLIOTT TRUDEAU INTL","702S006","2018-10-29 12:00","2018","10","29","12:00","6.2","","5.2","","93","","0.0","","25","","6","","","","100.11","","","","","","NA"
"-73.74","45.47","MONTREAL/PIERRE ELLIOTT TRUDEAU INTL","702S006","2018-10-29 13:00","2018","10","29","13:00","6.4","","5.0","","91","","0.0","","22","","8","","","","100.12","","","","","","NA"
"-73.74","45.47","MONTREAL/PIERRE ELLIOTT TRUDEAU INTL","702S006","2018-10-29 14:00","2018","10","29","14:00","6.6","","4.3","","86","","0.2","","25","","15","","","","100.15","","","","","","NA"
"-73.74","45.47","MONTREAL/PIERRE ELLIOTT TRUDEAU INTL","702S006","2018-10-29 15:00","2018","10","29","15:00","6.2","","3.0","","80","","0.0","","25","","17","","","","100.22","","","","","","NA"
"-73.74","45.47","MONTREAL/PIERRE ELLIOTT TRUDEAU INTL","702S006","2018-10-29 16:00","2018","10","29","16:00","5.1","","2.5","","83","","0.0","","26","","19","","","","100.27","","","","","","NA"
"-73.74","45.47","MONTREAL/PIERRE ELLIOTT TRUDEAU INTL","702S006","2018-10-29 17:00","2018","10","29","17:00","4.5","","2.6","","88","","0.0","","26","","16","","","","100.34","","","","","","NA"
"-73.74","45.47","MONTREAL/PIERRE ELLIOTT TRUDEAU INTL","702S006","2018-10-29 18:00","2018","10","29","18:00","4.2","","2.0","","85","","0.0","","27","","16","","","","100.41","","","","","","NA"
"-73.74","45.47","MONTREAL/PIERRE ELLIOTT TRUDEAU INTL","702S006","2018-10-29 19:00","2018","10","29","19:00","3.9","","2.1","","88","","0.0","","27","","14","","","","100.47","","","","","","NA"
"-73.74","45.47","MONTREAL/PIERRE ELLIOTT TRUDEAU INTL","702S006","2018-10-29 20:00","2018","10","29","20:00","3.6","","1.9","","89","","0.0","","28","","12","","","","100.50","","","","","","NA"
"-73.74","45.47","MONTREAL/PIERRE ELLIOTT TRUDEAU INTL","702S006","2018-10-29 21:00","2018","10","29","21:00","3.5","","1.6","","87","","0.0","","27","","9","","","","100.55","","","","","","NA"
"-73.74","45.47","MONTREAL/PIERRE ELLIOTT TRUDEAU INTL","702S006","2018-10-29 22:00","2018","10","29","22:00","3.5","","1.8","","89","","0.0","","25","","14","","","","100.56","","","","","","NA"
"-73.74","45.47","MONTREAL/PIERRE ELLIOTT TRUDEAU INTL","702S006","2018-10-29 23:00","2018","10","29","23:00","3.4","","1.6","","88","","0.0","","25","","14","","","","100.61","","","","","","NA"
"-73.74","45.47","MONTREAL/PIERRE ELLIOTT TRUDEAU INTL","702S006","2018-10-30 00:00","2018","10","30","00:00","2.9","","0.7","","85","","0.0","","28","","17","","","","100.67","","","","","","NA"
"-73.74","45.47","MONTREAL/PIERRE ELLIOTT TRUDEAU INTL","702S006","2018-10-30 01:00","2018","10","30","01:00","2.3","","0.2","","86","","0.0","","26","","13","","","","100.73","","","","","","NA"
"-73.74","45.47","MONTREAL/PIERRE ELLIOTT TRUDEAU INTL","702S006","2018-10-30 02:00","2018","10","30","02:00","2.1","","0.5","","89","","0.0","","25","","12","","","","100.76","","","","","","NA"
"-73.74","45.47","MONTREAL/PIERRE ELLIOTT TRUDEAU INTL","702S006","2018-10-30 03:00","2018","10","30","03:00","2.2","","0.5","","89","","0.0","","26","","12","","","","100.78","","","","","","NA"
"-73.74","45.47","MONTREAL/PIERRE ELLIOTT TRUDEAU INTL","702S006","2018-10-30 04:00","2018","10","30","04:00","2.5","","0.4","","86","","0.0","","27","","17","","","","100.82","","","","","","NA"
"-73.74","45.47","MONTREAL/PIERRE ELLIOTT TRUDEAU INTL","702S006","2018-10-30 05:00","2018","10","30","05:00","2.5","","0.1","","84","","0.0","","27","","19","","","","100.88","","","","","","NA"
"-73.74","45.47","MONTREAL/PIERRE ELLIOTT TRUDEAU INTL","702S006","2018-10-30 06:00","2018","10","30","06:00","2.1","","0.0","","86","","0.0","","27","","16","","","","100.94","","","","","","NA"
"-73.74","45.47","MONTREAL/PIERRE ELLIOTT TRUDEAU INTL","702S006","2018-10-30 07:00","2018","10","30","07:00","2.1","","-0.2","","85","","0.0","","27","","15","","","","101.00","","","","","","NA"
"-73.74","45.47","MONTREAL/PIERRE ELLIOTT TRUDEAU INTL","702S006","2018-10-30 08:00","2018","10","30","08:00","2.6","","-0.3","","81","","0.0","","28","","19","","","","101.08","","","","","","NA"
"-73.74","45.47","MONTREAL/PIERRE ELLIOTT TRUDEAU INTL","702S006","2018-10-30 09:00","2018","10","30","09:00","3.4","","-0.1","","78","","0.0","","27","","17","","","","101.11","","","","","","NA"
"-73.74","45.47","MONTREAL/PIERRE ELLIOTT TRUDEAU INTL","702S006","2018-10-30 10:00","2018","10","30","10:00","3.7","","-0.6","","73","","0.0","","28","","21","","","","101.17","","","","","","NA"
"-73.74","45.47","MONTREAL/PIERRE ELLIOTT TRUDEAU INTL","702S006","2018-10-30 11:00","2018","10","30","11:00","4.0","","-0.6","","72","","0.0","","28","","16","","","","101.20","","","","","","NA"
"-73.74","45.47","MONTREAL/PIERRE ELLIOTT TRUDEAU INTL","702S006","2018-10-30 12:00","2018","10","30","12:00","4.6","","-0.2","","71","","0.0","","27","","16","","","","101.20","","","","","","NA"
"-73.74","45.47","MONTREAL/PIERRE ELLIOTT TRUDEAU INTL","702S006","2018-10-30 13:00","2018","10","30","13:00","4.0","","-1.2","","69","","0.0","","27","","24","","","","101.24","","","","","","NA"
"-73.74","45.47","MONTREAL/PIERRE ELLIOTT TRUDEAU INTL","702S006","2018-10-30 14:00","2018","10","30","14:00","4.0","","-1.4","","68","","0.0","","26","","20","","","","101.28","","","","","","NA"
"-73.74","45.47","MONTREAL/PIERRE ELLIOTT TRUDEAU INTL","702S006","2018-10-30 15:00","2018","10","30","15:00","4.0","","-1.6","","67","","0.0","","26","","22","","","","101.35","","","","","","NA"
"-73.74","45.47","MONTREAL/PIERRE ELLIOTT TRUDEAU INTL","702S006","2018-10-30 16:00","2018","10","30","16:00","4.1","","-2.1","","64","","0.0","","25","","16","","","","101.34","","","","","","NA"
"-73.74","45.47","MONTREAL/PIERRE ELLIOTT TRUDEAU INTL","702S006","2018-10-30 17:00","2018","10","30","17:00","3.9","","-1.3","","69","","0.0","","24","","16","","","","101.38","","","","","","NA"
"-73.74","45.47","MONTREAL/PIERRE ELLIOTT TRUDEAU INTL","702S006","2018-10-30 18:00","2018","10","30","18:00","3.8","","-1.4","","69","","0.0","","25","","14","","","","101.48","","","","","","NA"
"-73.74","45.47","MONTREAL/PIERRE ELLIOTT TRUDEAU INTL","702S006","2018-10-30 19:00","2018","10","30","19:00","3.6","","-1.7","","69","","0.0","","25","","13","","","","101.47","","","","","","NA"
"-73.74","45.47","MONTREAL/PIERRE ELLIOTT TRUDEAU INTL","702S006","2018-10-30 20:00","2018","10","30","20:00","1.2","","-1.9","","80","","0.0","","29","","5","","","","101.48","","","","","","NA"
"-73.74","45.47","MONTREAL/PIERRE ELLIOTT TRUDEAU INTL","702S006","2018-10-30 21:00","2018","10","30","21:00","2.2","","-1.4","","77","","0.0","","25","","6","","","","101.48","","","","","","NA"
"-73.74","45.47","MONTREAL/PIERRE ELLIOTT TRUDEAU INTL","702S006","2018-10-30 22:00","2018","10","30","22:00","2.3","","-1.3","","77","","0.0","","24","","9","","","","101.47","","","","","","NA"
"-73.74","45.47","MONTREAL/PIERRE ELLIOTT TRUDEAU INTL","702S006","2018-10-30 23:00","2018","10","30","23:00","0.6","","-1.6","","85","","0.0","","","","0","","","","101.46","","","","","","NA"
"-73.74","45.47","MONTREAL/PIERRE ELLIOTT TRUDEAU INTL","702S006","2018-10-31 00:00","2018","10","31","00:00","0.3","","-1.2","","89","","0.0","","","","0","","","","101.49","","","","","","NA"
"-73.74","45.47","MONTREAL/PIERRE ELLIOTT TRUDEAU INTL","702S006","2018-10-31 01:00","2018","10","31","01:00","0.8","","-0.7","","89","","0.0","","","","0","","","","101.51","","","","","","NA"
"-73.74","45.47","MONTREAL/PIERRE ELLIOTT TRUDEAU INTL","702S006","2018-10-31 02:00","2018","10","31","02:00","0.7","","-1.5","","85","","0.2","","","","0","","","","101.49","","","","","","NA"
"-73.74","45.47","MONTREAL/PIERRE ELLIOTT TRUDEAU INTL","702S006","2018-10-31 03:00","2018","10","31","03:00","1.1","","-0.1","","92","","0.0","","12","","8","","","","101.44","","","","","","NA"
"-73.74","45.47","MONTREAL/PIERRE ELLIOTT TRUDEAU INTL","702S006","2018-10-31 04:00","2018","10","31","04:00","1.3","","0.0","","91","","0.0","","13","","6","","","","101.42","","","","","","NA"
"-73.74","45.47","MONTREAL/PIERRE ELLIOTT TRUDEAU INTL","702S006","2018-10-31 05:00","2018","10","31","05:00","2.3","","-0.4","","82","","0.0","","10","","9","","","","101.38","","","","","","NA"
"-73.74","45.47","MONTREAL/PIERRE ELLIOTT TRUDEAU INTL","702S006","2018-10-31 06:00","2018","10","31","06:00","2.2","","-0.9","","79","","0.0","","12","","9","","","","101.32","","","","","","NA"
"-73.74","45.47","MONTREAL/PIERRE ELLIOTT TRUDEAU INTL","702S006","2018-10-31 07:00","2018","10","31","07:00","2.9","","0.0","","82","","0.0","","10","","7","","","","101.20","","","","","","NA"
"-73.74","45.47","MONTREAL/PIERRE ELLIOTT TRUDEAU INTL","702S006","2018-10-31 08:00","2018","10","31","08:00","3.6","","0.8","","82","","0.0","","12","","11","","","","101.20","","","","","","NA"
"-73.74","45.47","MONTREAL/PIERRE ELLIOTT TRUDEAU INTL","702S006","2018-10-31 09:00","2018","10","31","09:00","3.8","","1.8","","87","","0.0","","10","","11","","","","101.11","","","","","","NA"
"-73.74","45.47","MONTREAL/PIERRE ELLIOTT TRUDEAU INTL","702S006","2018-10-31 10:00","2018","10","31","10:00","3.6","","1.9","","89","","0.7","","10","","15","","","","100.98","","","","","","NA"
"-73.74","45.47","MONTREAL/PIERRE ELLIOTT TRUDEAU INTL","702S006","2018-10-31 11:00","2018","10","31","11:00","3.6","","2.1","","90","","1.2","","10","","11","","","","100.90","","","","","","NA"
"-73.74","45.47","MONTREAL/PIERRE ELLIOTT TRUDEAU INTL","702S006","2018-10-31 12:00","2018","10","31","12:00","3.8","","2.0","","88","","1.3","","12","","23","","","","100.68","","","","","","NA"
"-73.74","45.47","MONTREAL/PIERRE ELLIOTT TRUDEAU INTL","702S006","2018-10-31 13:00","2018","10","31","13:00","3.7","","2.2","","90","","0.9","","11","","21","","","","100.57","","","","","","NA"
"-73.74","45.47","MONTREAL/PIERRE ELLIOTT TRUDEAU INTL","702S006","2018-10-31 14:00","2018","10","31","14:00","3.7","","2.4","","91","","0.8","","11","","18","","","","100.47","","","","","","NA"
"-73.74","45.47","MONTREAL/PIERRE ELLIOTT TRUDEAU INTL","702S006","2018-10-31 15:00","2018","10","31","15:00","4.2","","3.1","","93","","1.4","","7","","8","","","","100.47","","","","","","NA"
"-73.74","45.47","MONTREAL/PIERRE ELLIOTT TRUDEAU INTL","702S006","2018-10-31 16:00","2018","10","31","16:00","4.4","","3.5","","94","","0.5","","4","","9","","","","100.47","","","","","","NA"
"-73.74","45.47","MONTREAL/PIERRE ELLIOTT TRUDEAU INTL","702S006","2018-10-31 17:00","2018","10","31","17:00","4.7","","4.0","","96","","0.8","","4","","7","","","","100.43","","","","","","NA"
"-73.74","45.47","MONTREAL/PIERRE ELLIOTT TRUDEAU INTL","702S006","2018-10-31 18:00","2018","10","31","18:00","4.6","","4.2","","98","","0.2","","1","","6","","","","100.44","","","","","","NA"
"-73.74","45.47","MONTREAL/PIERRE ELLIOTT TRUDEAU INTL","702S006","2018-10-31 19:00","2018","10","31","19:00","4.3","","3.9","","97","","0.0","","36","","9","","","","100.48","","","","","","NA"
"-73.74","45.47","MONTREAL/PIERRE ELLIOTT TRUDEAU INTL","702S006","2018-10-31 20:00","2018","10","31","20:00","3.6","","3.3","","98","","0.0","","1","","10","","","","100.48","","","","","","NA"
"-73.74","45.47","MONTREAL/PIERRE ELLIOTT TRUDEAU INTL","702S006","2018-10-31 21:00","2018","10","31","21:00","3.7","","3.3","","97","","0.0","","34","","5","","","","100.51","","","","","","NA"
"-73.74","45.47","MONTREAL/PIERRE ELLIOTT TRUDEAU INTL","702S006","2018-10-31 22:00","2018","10","31","22:00","3.4","","3.1","","98","","0.0","","29","","7","","","","100.65","","","","","","NA"
"-73.74","45.47","MONTREAL/PIERRE ELLIOTT TRUDEAU INTL","702S006","2018-10-31 23:00","2018","10","31","23:00","3.4","","3.1","","98","","0.0","","30","","6","","","","100.64","","","","","","NA"
